source_api,model,run_time_utc,run_time,target_time_utc,target_time,lead_hours,temperature_2m,relative_humidity_2m,dewpoint_2m,apparent_temperature,precipitation_probability,precipitation,rain,showers,snowfall,snow_depth,weathercode,pressure_msl,surface_pressure,cloudcover,cloudcover_low,cloudcover_mid,cloudcover_high,visibility,evapotranspiration,et0_fao_evapotranspiration,vapour_pressure_deficit
single_runs_api,gfs_global,2025-07-26 18:00:00,2025-07-27 02:00:00,2025-07-26 19:00:00,2025-07-27 03:00:00,1,26.6,80,22.8,31.6,,0.0,0.0,0.0,0.0,0.0,0.0,1009.2,1003.9,0.0,0.0,0.0,0.0,24140.0,0.0,0.0,0.69
single_runs_api,gfs_global,2025-07-26 18:00:00,2025-07-27 02:00:00,2025-07-26 20:00:00,2025-07-27 04:00:00,2,26.5,81,22.9,31.4,,0.0,0.0,0.0,0.0,0.0,0.0,1009.0,1003.7,5.0,0.0,0.0,5.0,24140.0,0.0,0.0,0.66
single_runs_api,gfs_global,2025-07-26 18:00:00,2025-07-27 02:00:00,2025-07-26 21:00:00,2025-07-27 05:00:00,3,26.5,81,22.9,31.5,,0.0,0.0,0.0,0.0,0.0,0.0,1008.8,1003.5,10.0,0.0,0.0,10.0,24140.0,0.0,0.0,0.66
single_runs_api,gfs_global,2025-07-26 18:00:00,2025-07-27 02:00:00,2025-07-26 22:00:00,2025-07-27 06:00:00,4,26.4,82,23.0,31.4,,0.0,0.0,0.0,0.0,0.0,0.0,1009.2,1003.9,6.0,0.0,0.0,5.0,24140.0,0.0,0.0,0.62
single_runs_api,gfs_global,2025-07-26 18:00:00,2025-07-27 02:00:00,2025-07-26 23:00:00,2025-07-27 07:00:00,5,26.2,83,23.1,31.1,,0.3,0.0,0.3,0.0,0.0,51.0,1009.7,1004.4,100.0,0.0,0.0,100.0,24140.0,0.0,0.0,0.58
single_runs_api,gfs_global,2025-07-26 18:00:00,2025-07-27 02:00:00,2025-07-27 00:00:00,2025-07-27 08:00:00,6,27.0,81,23.4,32.1,,0.1,0.0,0.1,0.0,0.0,51.0,1010.6,1005.3,6.0,0.0,0.0,5.0,24140.0,0.0,0.03,0.68
single_runs_api,gfs_global,2025-07-27 00:00:00,2025-07-27 08:00:00,2025-07-27 01:00:00,2025-07-27 09:00:00,1,28.6,74,23.5,33.2,,0.1,0.0,0.1,0.0,0.0,51.0,1011.3,1006.0,0.0,0.0,0.0,0.0,24140.0,0.0,0.19,1.01
single_runs_api,gfs_global,2025-07-27 00:00:00,2025-07-27 08:00:00,2025-07-27 02:00:00,2025-07-27 10:00:00,2,29.6,68,23.0,33.5,,0.0,0.0,0.0,0.0,0.0,0.0,1011.5,1006.3,5.0,0.0,0.0,5.0,24140.0,0.0,0.36,1.32
single_runs_api,gfs_global,2025-07-27 00:00:00,2025-07-27 08:00:00,2025-07-27 03:00:00,2025-07-27 11:00:00,3,30.4,64,22.8,34.6,,0.0,0.0,0.0,0.0,0.0,0.0,1011.3,1006.1,5.0,0.0,0.0,5.0,24140.0,0.0,0.51,1.56
single_runs_api,gfs_global,2025-07-27 00:00:00,2025-07-27 08:00:00,2025-07-27 04:00:00,2025-07-27 12:00:00,4,30.9,62,22.7,35.6,,0.0,0.0,0.0,0.0,0.0,0.0,1010.5,1005.3,0.0,0.0,0.0,0.0,24140.0,0.0,0.62,1.69
single_runs_api,gfs_global,2025-07-27 00:00:00,2025-07-27 08:00:00,2025-07-27 05:00:00,2025-07-27 13:00:00,5,31.1,62,22.9,36.0,,0.0,0.0,0.0,0.0,0.0,0.0,1009.5,1004.3,0.0,0.0,0.0,0.0,24140.0,0.0,0.67,1.71
single_runs_api,gfs_global,2025-07-27 00:00:00,2025-07-27 08:00:00,2025-07-27 06:00:00,2025-07-27 14:00:00,6,31.0,62,22.8,35.9,,0.0,0.0,0.0,0.0,0.0,0.0,1008.6,1003.4,10.0,11.0,0.0,0.0,24140.0,0.0,0.68,1.7
single_runs_api,gfs_global,2025-07-27 06:00:00,2025-07-27 14:00:00,2025-07-27 07:00:00,2025-07-27 15:00:00,1,31.3,61,22.9,35.9,,0.0,0.0,0.0,0.0,0.0,0.0,1007.6,1002.4,6.0,1.0,0.0,5.0,24140.0,0.0,0.65,1.78
single_runs_api,gfs_global,2025-07-27 06:00:00,2025-07-27 14:00:00,2025-07-27 08:00:00,2025-07-27 16:00:00,2,31.1,62,22.9,35.2,,0.0,0.0,0.0,0.0,0.0,0.0,1007.1,1001.9,5.0,0.0,0.0,5.0,24140.0,0.0,0.57,1.71
single_runs_api,gfs_global,2025-07-27 06:00:00,2025-07-27 14:00:00,2025-07-27 09:00:00,2025-07-27 17:00:00,3,30.9,63,23.0,34.2,,0.1,0.0,0.1,0.0,0.0,51.0,1007.1,1001.9,0.0,0.0,0.0,0.0,22080.0,0.0,0.44,1.65
single_runs_api,gfs_global,2025-07-27 06:00:00,2025-07-27 14:00:00,2025-07-27 10:00:00,2025-07-27 18:00:00,4,30.4,65,23.1,34.0,,0.2,0.0,0.2,0.0,0.0,51.0,1007.4,1002.2,0.0,0.0,0.0,0.0,24140.0,0.0,0.28,1.52
single_runs_api,gfs_global,2025-07-27 06:00:00,2025-07-27 14:00:00,2025-07-27 11:00:00,2025-07-27 19:00:00,5,29.4,70,23.3,32.8,,0.0,0.0,0.0,0.0,0.0,0.0,1007.9,1002.7,0.0,0.0,0.0,0.0,24140.0,0.0,0.14,1.23
single_runs_api,gfs_global,2025-07-27 06:00:00,2025-07-27 14:00:00,2025-07-27 12:00:00,2025-07-27 20:00:00,6,28.8,71,23.0,31.8,,0.0,0.0,0.0,0.0,0.0,0.0,1008.6,1003.4,5.0,0.0,0.0,5.0,24140.0,0.0,0.08,1.15
single_runs_api,gfs_global,2025-07-27 12:00:00,2025-07-27 20:00:00,2025-07-27 13:00:00,2025-07-27 21:00:00,1,28.5,74,23.4,32.1,,0.0,0.0,0.0,0.0,0.0,2.0,1009.4,1004.2,68.0,0.0,0.0,68.0,24140.0,0.0,0.06,1.01
single_runs_api,gfs_global,2025-07-27 12:00:00,2025-07-27 20:00:00,2025-07-27 14:00:00,2025-07-27 22:00:00,2,28.2,76,23.5,32.1,,0.1,0.0,0.1,0.0,0.0,51.0,1010.2,1004.9,6.0,0.0,0.0,5.0,24140.0,0.0,0.04,0.92
single_runs_api,gfs_global,2025-07-27 12:00:00,2025-07-27 20:00:00,2025-07-27 15:00:00,2025-07-27 23:00:00,3,28.2,77,23.8,32.4,,0.0,0.0,0.0,0.0,0.0,0.0,1010.4,1005.1,10.0,0.0,0.0,10.0,24140.0,0.0,0.04,0.88
single_runs_api,gfs_global,2025-07-27 12:00:00,2025-07-27 20:00:00,2025-07-27 16:00:00,2025-07-28 00:00:00,4,28.0,78,23.8,32.3,,0.0,0.0,0.0,0.0,0.0,0.0,1010.5,1005.2,6.0,0.0,0.0,5.0,24140.0,0.0,0.03,0.83
single_runs_api,gfs_global,2025-07-27 12:00:00,2025-07-27 20:00:00,2025-07-27 17:00:00,2025-07-28 01:00:00,5,27.8,79,23.8,32.3,,0.0,0.0,0.0,0.0,0.0,0.0,1010.0,1004.7,10.0,0.0,0.0,10.0,24140.0,0.0,0.03,0.78
single_runs_api,gfs_global,2025-07-27 12:00:00,2025-07-27 20:00:00,2025-07-27 18:00:00,2025-07-28 02:00:00,6,27.5,80,23.7,31.9,,0.2,0.0,0.2,0.0,0.0,51.0,1009.5,1004.2,11.0,0.0,0.0,10.0,24140.0,0.0,0.03,0.73
single_runs_api,gfs_global,2025-07-27 18:00:00,2025-07-28 02:00:00,2025-07-27 19:00:00,2025-07-28 03:00:00,1,27.2,82,23.8,31.6,,0.3,0.0,0.3,0.0,0.0,51.0,1008.7,1003.4,14.0,0.0,0.0,13.0,24140.0,0.0,0.02,0.65
single_runs_api,gfs_global,2025-07-27 18:00:00,2025-07-28 02:00:00,2025-07-27 20:00:00,2025-07-28 04:00:00,2,27.2,81,23.6,31.4,,0.1,0.0,0.1,0.0,0.0,51.0,1008.6,1003.3,0.0,0.0,0.0,0.0,24140.0,0.0,0.03,0.68
single_runs_api,gfs_global,2025-07-27 18:00:00,2025-07-28 02:00:00,2025-07-27 21:00:00,2025-07-28 05:00:00,3,26.8,82,23.4,31.2,,0.5,0.0,0.5,0.0,0.0,53.0,1008.4,1003.1,5.0,0.0,0.0,5.0,24140.0,0.0,0.02,0.63
single_runs_api,gfs_global,2025-07-27 18:00:00,2025-07-28 02:00:00,2025-07-27 22:00:00,2025-07-28 06:00:00,4,26.9,82,23.5,31.2,,0.3,0.0,0.3,0.0,0.0,51.0,1008.5,1003.2,52.0,0.0,0.0,51.0,24140.0,0.0,0.02,0.64
single_runs_api,gfs_global,2025-07-27 18:00:00,2025-07-28 02:00:00,2025-07-27 23:00:00,2025-07-28 07:00:00,5,27.0,80,23.2,30.9,,0.0,0.0,0.0,0.0,0.0,3.0,1009.2,1003.9,88.0,0.0,0.0,87.0,24140.0,0.0,0.03,0.71
single_runs_api,gfs_global,2025-07-27 18:00:00,2025-07-28 02:00:00,2025-07-28 00:00:00,2025-07-28 08:00:00,6,27.6,78,23.4,31.8,,0.0,0.0,0.0,0.0,0.0,3.0,1009.7,1004.4,100.0,0.0,5.0,100.0,24140.0,0.0,0.06,0.81
single_runs_api,gfs_global,2025-07-28 00:00:00,2025-07-28 08:00:00,2025-07-28 01:00:00,2025-07-28 09:00:00,1,28.8,73,23.4,32.6,,0.0,0.0,0.0,0.0,0.0,0.0,1010.4,1005.2,16.0,0.0,0.0,14.0,24140.0,0.0,0.21,1.07
single_runs_api,gfs_global,2025-07-28 00:00:00,2025-07-28 08:00:00,2025-07-28 02:00:00,2025-07-28 10:00:00,2,29.6,69,23.3,33.3,,0.0,0.0,0.0,0.0,0.0,3.0,1010.7,1005.5,100.0,0.0,0.0,100.0,24140.0,0.0,0.34,1.28
single_runs_api,gfs_global,2025-07-28 00:00:00,2025-07-28 08:00:00,2025-07-28 03:00:00,2025-07-28 11:00:00,3,30.6,64,23.0,35.1,,0.0,0.0,0.0,0.0,0.0,0.0,1010.4,1005.2,15.0,0.0,0.0,14.0,24140.0,0.0,0.51,1.58
single_runs_api,gfs_global,2025-07-28 00:00:00,2025-07-28 08:00:00,2025-07-28 04:00:00,2025-07-28 12:00:00,4,31.1,61,22.7,36.2,,0.0,0.0,0.0,0.0,0.0,0.0,1010.0,1004.8,0.0,0.0,0.0,0.0,24140.0,0.0,0.62,1.76
single_runs_api,gfs_global,2025-07-28 00:00:00,2025-07-28 08:00:00,2025-07-28 05:00:00,2025-07-28 13:00:00,5,31.5,59,22.5,36.4,,0.1,0.0,0.1,0.0,0.0,51.0,1009.1,1003.9,9.0,4.0,0.0,5.0,24140.0,0.0,0.69,1.89
single_runs_api,gfs_global,2025-07-28 00:00:00,2025-07-28 08:00:00,2025-07-28 06:00:00,2025-07-28 14:00:00,6,31.4,61,22.9,36.0,,0.0,0.0,0.0,0.0,0.0,0.0,1008.2,1003.0,17.0,6.0,0.0,10.0,24140.0,0.0,0.69,1.79
single_runs_api,gfs_global,2025-07-28 06:00:00,2025-07-28 14:00:00,2025-07-28 07:00:00,2025-07-28 15:00:00,1,31.2,62,23.0,35.4,,0.0,0.0,0.0,0.0,0.0,1.0,1007.2,1002.0,26.0,21.0,0.0,5.0,24140.0,0.0,0.65,1.72
single_runs_api,gfs_global,2025-07-28 06:00:00,2025-07-28 14:00:00,2025-07-28 08:00:00,2025-07-28 16:00:00,2,31.0,63,23.1,34.6,,0.2,0.0,0.2,0.0,0.0,51.0,1006.8,1001.6,38.0,28.0,0.0,11.0,24140.0,0.0,0.54,1.66
single_runs_api,gfs_global,2025-07-28 06:00:00,2025-07-28 14:00:00,2025-07-28 09:00:00,2025-07-28 17:00:00,3,30.6,64,23.0,33.2,,0.1,0.0,0.1,0.0,0.0,51.0,1006.4,1001.2,100.0,41.0,0.0,100.0,24140.0,0.0,0.41,1.58
single_runs_api,gfs_global,2025-07-28 06:00:00,2025-07-28 14:00:00,2025-07-28 10:00:00,2025-07-28 18:00:00,4,30.1,65,22.8,32.6,,0.0,0.0,0.0,0.0,0.0,2.0,1006.5,1001.3,56.0,10.0,0.0,50.0,24140.0,0.0,0.29,1.49
single_runs_api,gfs_global,2025-07-28 06:00:00,2025-07-28 14:00:00,2025-07-28 11:00:00,2025-07-28 19:00:00,5,29.3,69,23.0,32.0,,0.0,0.0,0.0,0.0,0.0,0.0,1007.2,1002.0,17.0,8.0,0.0,9.0,24140.0,0.0,0.15,1.26
single_runs_api,gfs_global,2025-07-28 06:00:00,2025-07-28 14:00:00,2025-07-28 12:00:00,2025-07-28 20:00:00,6,29.0,69,22.7,31.5,,0.0,0.0,0.0,0.0,0.0,2.0,1008.0,1002.8,75.0,1.0,0.0,73.0,24140.0,0.0,0.1,1.24
single_runs_api,gfs_global,2025-07-28 12:00:00,2025-07-28 20:00:00,2025-07-28 13:00:00,2025-07-28 21:00:00,1,28.9,71,23.1,32.0,,0.0,0.0,0.0,0.0,0.0,2.0,1008.6,1003.4,55.0,0.0,0.0,52.0,24140.0,0.0,0.07,1.15
single_runs_api,gfs_global,2025-07-28 12:00:00,2025-07-28 20:00:00,2025-07-28 14:00:00,2025-07-28 22:00:00,2,28.5,73,23.2,31.9,,0.0,0.0,0.0,0.0,0.0,0.0,1009.3,1004.1,10.0,0.0,0.0,10.0,24140.0,0.0,0.06,1.05
single_runs_api,gfs_global,2025-07-28 12:00:00,2025-07-28 20:00:00,2025-07-28 15:00:00,2025-07-28 23:00:00,3,28.3,75,23.4,32.0,,0.1,0.0,0.1,0.0,0.0,51.0,1009.6,1004.4,10.0,0.0,0.0,10.0,24140.0,0.0,0.05,0.96
single_runs_api,gfs_global,2025-07-28 12:00:00,2025-07-28 20:00:00,2025-07-28 16:00:00,2025-07-29 00:00:00,4,28.2,76,23.5,31.9,,0.1,0.0,0.1,0.0,0.0,51.0,1009.5,1004.3,10.0,0.0,0.0,10.0,24140.0,0.0,0.05,0.92
single_runs_api,gfs_global,2025-07-28 12:00:00,2025-07-28 20:00:00,2025-07-28 17:00:00,2025-07-29 01:00:00,5,28.1,78,23.9,32.1,,0.0,0.0,0.0,0.0,0.0,0.0,1009.1,1003.9,5.0,0.0,0.0,5.0,24140.0,0.0,0.04,0.83
single_runs_api,gfs_global,2025-07-28 12:00:00,2025-07-28 20:00:00,2025-07-28 18:00:00,2025-07-29 02:00:00,6,27.9,78,23.7,31.8,,0.0,0.0,0.0,0.0,0.0,0.0,1008.7,1003.5,5.0,0.0,0.0,5.0,24140.0,0.0,0.04,0.82
single_runs_api,gfs_global,2025-07-28 18:00:00,2025-07-29 02:00:00,2025-07-28 19:00:00,2025-07-29 03:00:00,1,27.7,79,23.7,31.4,,0.0,0.0,0.0,0.0,0.0,0.0,1008.0,1002.8,5.0,0.0,0.0,5.0,24140.0,0.0,0.04,0.78
single_runs_api,gfs_global,2025-07-28 18:00:00,2025-07-29 02:00:00,2025-07-28 20:00:00,2025-07-29 04:00:00,2,27.7,78,23.5,31.2,,0.0,0.0,0.0,0.0,0.0,0.0,1007.7,1002.5,0.0,0.0,0.0,0.0,24140.0,0.0,0.05,0.81
single_runs_api,gfs_global,2025-07-28 18:00:00,2025-07-29 02:00:00,2025-07-28 21:00:00,2025-07-29 05:00:00,3,27.7,78,23.5,31.3,,0.0,0.0,0.0,0.0,0.0,0.0,1007.8,1002.6,0.0,0.0,0.0,0.0,24140.0,0.0,0.05,0.81
single_runs_api,gfs_global,2025-07-28 18:00:00,2025-07-29 02:00:00,2025-07-28 22:00:00,2025-07-29 06:00:00,4,26.9,82,23.5,30.7,,0.6,0.0,0.6,0.0,0.0,53.0,1008.3,1003.0,0.0,0.0,0.0,0.0,24140.0,0.0,0.03,0.64
single_runs_api,gfs_global,2025-07-28 18:00:00,2025-07-29 02:00:00,2025-07-28 23:00:00,2025-07-29 07:00:00,5,27.1,82,23.7,31.0,,0.4,0.0,0.4,0.0,0.0,51.0,1008.7,1003.4,5.0,0.0,0.0,5.0,24140.0,0.0,0.03,0.64
single_runs_api,gfs_global,2025-07-28 18:00:00,2025-07-29 02:00:00,2025-07-29 00:00:00,2025-07-29 08:00:00,6,27.7,81,24.1,31.7,,0.1,0.0,0.1,0.0,0.0,51.0,1009.4,1004.1,0.0,0.0,0.0,0.0,19600.0,0.0,0.06,0.7
single_runs_api,gfs_global,2025-07-29 00:00:00,2025-07-29 08:00:00,2025-07-29 01:00:00,2025-07-29 09:00:00,1,28.8,76,24.1,32.7,,0.2,0.0,0.2,0.0,0.0,51.0,1009.8,1004.6,6.0,0.0,0.0,5.0,24140.0,0.0,0.2,0.95
single_runs_api,gfs_global,2025-07-29 00:00:00,2025-07-29 08:00:00,2025-07-29 02:00:00,2025-07-29 10:00:00,2,29.7,71,23.8,33.5,,0.3,0.0,0.3,0.0,0.0,51.0,1009.9,1004.7,0.0,0.0,0.0,0.0,24140.0,0.0,0.36,1.21
single_runs_api,gfs_global,2025-07-29 00:00:00,2025-07-29 08:00:00,2025-07-29 03:00:00,2025-07-29 11:00:00,3,30.6,65,23.2,34.8,,0.1,0.0,0.1,0.0,0.0,51.0,1010.0,1004.8,5.0,0.0,0.0,5.0,20180.0,0.0,0.51,1.53
single_runs_api,gfs_global,2025-07-29 00:00:00,2025-07-29 08:00:00,2025-07-29 04:00:00,2025-07-29 12:00:00,4,31.0,63,23.1,35.4,,0.0,0.0,0.0,0.0,0.0,0.0,1009.4,1004.2,6.0,0.0,0.0,5.0,24140.0,0.0,0.62,1.66
single_runs_api,gfs_global,2025-07-29 00:00:00,2025-07-29 08:00:00,2025-07-29 05:00:00,2025-07-29 13:00:00,5,31.3,62,23.1,35.2,,0.0,0.0,0.0,0.0,0.0,0.0,1008.9,1003.7,10.0,5.0,0.0,5.0,24140.0,0.0,0.67,1.73
single_runs_api,gfs_global,2025-07-29 00:00:00,2025-07-29 08:00:00,2025-07-29 06:00:00,2025-07-29 14:00:00,6,31.4,62,23.2,35.1,,0.0,0.0,0.0,0.0,0.0,1.0,1008.2,1003.0,28.0,23.0,0.0,5.0,24140.0,0.0,0.68,1.74
single_runs_api,gfs_global,2025-07-29 06:00:00,2025-07-29 14:00:00,2025-07-29 07:00:00,2025-07-29 15:00:00,1,31.6,61,23.1,35.4,,0.1,0.0,0.1,0.0,0.0,51.0,1007.0,1001.8,16.0,12.0,0.0,5.0,17540.0,0.0,0.65,1.81
single_runs_api,gfs_global,2025-07-29 06:00:00,2025-07-29 14:00:00,2025-07-29 08:00:00,2025-07-29 16:00:00,2,31.2,63,23.3,34.8,,0.4,0.0,0.4,0.0,0.0,51.0,1006.7,1001.5,17.0,17.0,0.0,0.0,13780.0,0.0,0.56,1.68
single_runs_api,gfs_global,2025-07-29 06:00:00,2025-07-29 14:00:00,2025-07-29 09:00:00,2025-07-29 17:00:00,3,30.6,65,23.2,33.7,,1.6,0.0,1.6,0.0,0.0,80.0,1006.6,1001.4,27.0,22.0,0.0,5.0,15400.0,0.0,0.44,1.53
single_runs_api,gfs_global,2025-07-29 06:00:00,2025-07-29 14:00:00,2025-07-29 10:00:00,2025-07-29 18:00:00,4,30.2,67,23.4,33.6,,0.6,0.0,0.6,0.0,0.0,53.0,1006.7,1001.5,5.0,0.0,0.0,5.0,15820.0,0.0,0.29,1.41
single_runs_api,gfs_global,2025-07-29 06:00:00,2025-07-29 14:00:00,2025-07-29 11:00:00,2025-07-29 19:00:00,5,29.4,72,23.8,33.3,,0.0,0.0,0.0,0.0,0.0,0.0,1007.1,1001.9,10.0,0.0,0.0,10.0,24140.0,0.0,0.13,1.14
single_runs_api,gfs_global,2025-07-29 06:00:00,2025-07-29 14:00:00,2025-07-29 12:00:00,2025-07-29 20:00:00,6,28.8,76,24.1,33.0,,0.0,0.0,0.0,0.0,0.0,0.0,1007.9,1002.7,5.0,0.0,0.0,5.0,24140.0,0.0,0.06,0.95
single_runs_api,gfs_global,2025-07-29 12:00:00,2025-07-29 20:00:00,2025-07-29 13:00:00,2025-07-29 21:00:00,1,28.4,78,24.2,32.7,,0.1,0.0,0.1,0.0,0.0,51.0,1008.4,1003.2,6.0,0.0,0.0,5.0,24140.0,0.0,0.04,0.85
single_runs_api,gfs_global,2025-07-29 12:00:00,2025-07-29 20:00:00,2025-07-29 14:00:00,2025-07-29 22:00:00,2,28.1,80,24.3,32.3,,0.2,0.0,0.2,0.0,0.0,51.0,1009.3,1004.1,5.0,0.0,0.0,5.0,24140.0,0.0,0.04,0.76
single_runs_api,gfs_global,2025-07-29 12:00:00,2025-07-29 20:00:00,2025-07-29 15:00:00,2025-07-29 23:00:00,3,27.9,82,24.5,31.9,,0.1,0.0,0.1,0.0,0.0,51.0,1009.6,1004.3,0.0,0.0,0.0,0.0,24140.0,0.0,0.04,0.67
single_runs_api,gfs_global,2025-07-29 12:00:00,2025-07-29 20:00:00,2025-07-29 16:00:00,2025-07-30 00:00:00,4,27.6,83,24.4,31.7,,0.4,0.0,0.4,0.0,0.0,51.0,1009.9,1004.6,0.0,0.0,0.0,0.0,24140.0,0.0,0.03,0.63
single_runs_api,gfs_global,2025-07-29 12:00:00,2025-07-29 20:00:00,2025-07-29 17:00:00,2025-07-30 01:00:00,5,27.6,82,24.2,31.6,,0.1,0.0,0.1,0.0,0.0,51.0,1009.5,1004.2,10.0,0.0,0.0,10.0,14340.0,0.0,0.04,0.66
single_runs_api,gfs_global,2025-07-29 12:00:00,2025-07-29 20:00:00,2025-07-29 18:00:00,2025-07-30 02:00:00,6,27.5,81,23.9,31.5,,0.0,0.0,0.0,0.0,0.0,0.0,1009.2,1003.9,10.0,0.0,0.0,9.0,24140.0,0.0,0.03,0.7
single_runs_api,gfs_global,2025-07-29 18:00:00,2025-07-30 02:00:00,2025-07-29 19:00:00,2025-07-30 03:00:00,1,27.5,81,23.9,31.7,,0.0,0.0,0.0,0.0,0.0,0.0,1008.4,1003.1,15.0,0.0,0.0,14.0,24140.0,0.0,0.03,0.7
single_runs_api,gfs_global,2025-07-29 18:00:00,2025-07-30 02:00:00,2025-07-29 20:00:00,2025-07-30 04:00:00,2,27.3,83,24.1,31.6,,0.1,0.0,0.1,0.0,0.0,51.0,1008.1,1002.8,15.0,0.0,0.0,14.0,24140.0,0.0,0.03,0.62
single_runs_api,gfs_global,2025-07-29 18:00:00,2025-07-30 02:00:00,2025-07-29 21:00:00,2025-07-30 05:00:00,3,27.3,84,24.3,31.8,,0.0,0.0,0.0,0.0,0.0,3.0,1008.3,1003.0,98.0,0.0,0.0,98.0,24140.0,0.0,0.02,0.58
single_runs_api,gfs_global,2025-07-29 18:00:00,2025-07-30 02:00:00,2025-07-29 22:00:00,2025-07-30 06:00:00,4,27.3,84,24.3,31.7,,0.0,0.0,0.0,0.0,0.0,3.0,1008.5,1003.2,100.0,0.0,0.0,100.0,19020.0,0.0,0.02,0.58
single_runs_api,gfs_global,2025-07-29 18:00:00,2025-07-30 02:00:00,2025-07-29 23:00:00,2025-07-30 07:00:00,5,27.3,83,24.1,31.6,,0.1,0.0,0.1,0.0,0.0,51.0,1009.0,1003.7,54.0,0.0,0.0,52.0,19740.0,0.0,0.03,0.62
single_runs_api,gfs_global,2025-07-29 18:00:00,2025-07-30 02:00:00,2025-07-30 00:00:00,2025-07-30 08:00:00,6,27.7,83,24.5,32.6,,0.4,0.0,0.4,0.0,0.0,51.0,1009.6,1004.3,41.0,0.0,0.0,38.0,24140.0,0.0,0.05,0.63
single_runs_api,gfs_global,2025-07-30 00:00:00,2025-07-30 08:00:00,2025-07-30 01:00:00,2025-07-30 09:00:00,1,28.9,76,24.2,33.5,,0.3,0.0,0.3,0.0,0.0,51.0,1010.2,1005.0,100.0,0.0,0.0,100.0,24140.0,0.0,0.19,0.95
single_runs_api,gfs_global,2025-07-30 00:00:00,2025-07-30 08:00:00,2025-07-30 02:00:00,2025-07-30 10:00:00,2,30.0,69,23.7,34.2,,0.1,0.0,0.1,0.0,0.0,51.0,1010.2,1005.0,100.0,0.0,0.0,100.0,24140.0,0.0,0.36,1.31
single_runs_api,gfs_global,2025-07-30 00:00:00,2025-07-30 08:00:00,2025-07-30 03:00:00,2025-07-30 11:00:00,3,30.9,64,23.3,35.6,,0.3,0.0,0.3,0.0,0.0,51.0,1010.2,1005.0,100.0,0.0,0.0,100.0,24140.0,0.0,0.52,1.6
single_runs_api,gfs_global,2025-07-30 00:00:00,2025-07-30 08:00:00,2025-07-30 04:00:00,2025-07-30 12:00:00,4,31.5,60,22.8,36.1,,0.0,0.0,0.0,0.0,0.0,3.0,1009.7,1004.5,100.0,0.0,0.0,100.0,24140.0,0.0,0.63,1.84
single_runs_api,gfs_global,2025-07-30 00:00:00,2025-07-30 08:00:00,2025-07-30 05:00:00,2025-07-30 13:00:00,5,31.4,61,22.9,35.7,,0.0,0.0,0.1,0.0,0.0,2.0,1009.2,1004.0,53.0,9.0,0.0,44.0,22140.0,0.0,0.68,1.79
single_runs_api,gfs_global,2025-07-30 00:00:00,2025-07-30 08:00:00,2025-07-30 06:00:00,2025-07-30 14:00:00,6,31.3,62,23.1,35.8,,0.1,0.0,0.1,0.0,0.0,51.0,1008.5,1003.3,100.0,25.0,0.0,100.0,22100.0,0.0,0.68,1.73
single_runs_api,gfs_global,2025-07-30 06:00:00,2025-07-30 14:00:00,2025-07-30 07:00:00,2025-07-30 15:00:00,1,31.5,61,23.0,35.7,,0.0,0.0,0.0,0.0,0.0,2.0,1007.8,1002.6,64.0,0.0,0.0,61.0,24140.0,0.0,0.64,1.8
single_runs_api,gfs_global,2025-07-30 06:00:00,2025-07-30 14:00:00,2025-07-30 08:00:00,2025-07-30 16:00:00,2,31.4,61,22.9,35.0,,0.1,0.0,0.1,0.0,0.0,51.0,1007.4,1002.2,100.0,0.0,0.0,100.0,24140.0,0.0,0.56,1.79
single_runs_api,gfs_global,2025-07-30 06:00:00,2025-07-30 14:00:00,2025-07-30 09:00:00,2025-07-30 17:00:00,3,31.0,63,23.1,34.2,,0.2,0.0,0.2,0.0,0.0,51.0,1007.3,1002.1,72.0,0.0,0.0,71.0,24140.0,0.0,0.41,1.66
single_runs_api,gfs_global,2025-07-30 06:00:00,2025-07-30 14:00:00,2025-07-30 10:00:00,2025-07-30 18:00:00,4,30.5,65,23.1,34.0,,0.2,0.0,0.2,0.0,0.0,51.0,1007.7,1002.5,52.0,0.0,0.0,51.0,24140.0,0.0,0.29,1.52
single_runs_api,gfs_global,2025-07-30 06:00:00,2025-07-30 14:00:00,2025-07-30 11:00:00,2025-07-30 19:00:00,5,29.7,70,23.6,33.8,,0.1,0.0,0.1,0.0,0.0,51.0,1008.0,1002.8,11.0,0.0,0.0,10.0,24140.0,0.0,0.12,1.25
single_runs_api,gfs_global,2025-07-30 06:00:00,2025-07-30 14:00:00,2025-07-30 12:00:00,2025-07-30 20:00:00,6,29.2,72,23.6,33.1,,0.0,0.0,0.0,0.0,0.0,3.0,1008.5,1003.3,93.0,0.0,0.0,92.0,24140.0,0.0,0.07,1.13
single_runs_api,gfs_global,2025-07-30 12:00:00,2025-07-30 20:00:00,2025-07-30 13:00:00,2025-07-30 21:00:00,1,28.6,74,23.5,32.6,,0.0,0.0,0.0,0.0,0.0,0.0,1009.4,1004.2,16.0,0.0,0.0,14.0,24140.0,0.0,0.05,1.01
single_runs_api,gfs_global,2025-07-30 12:00:00,2025-07-30 20:00:00,2025-07-30 14:00:00,2025-07-30 22:00:00,2,28.3,75,23.4,32.6,,0.1,0.0,0.1,0.0,0.0,51.0,1010.2,1004.9,15.0,0.0,0.0,14.0,24140.0,0.0,0.03,0.96
single_runs_api,gfs_global,2025-07-30 12:00:00,2025-07-30 20:00:00,2025-07-30 15:00:00,2025-07-30 23:00:00,3,28.3,75,23.4,32.7,,0.0,0.0,0.0,0.0,0.0,3.0,1010.2,1004.9,84.0,0.0,0.0,84.0,24140.0,0.0,0.03,0.96
single_runs_api,gfs_global,2025-07-30 12:00:00,2025-07-30 20:00:00,2025-07-30 16:00:00,2025-07-31 00:00:00,4,28.2,75,23.3,32.7,,0.0,0.0,0.0,0.0,0.0,3.0,1010.2,1004.9,95.0,0.0,0.0,94.0,24140.0,0.0,0.02,0.95
single_runs_api,gfs_global,2025-07-30 12:00:00,2025-07-30 20:00:00,2025-07-30 17:00:00,2025-07-31 01:00:00,5,28.0,76,23.3,32.4,,0.0,0.0,0.0,0.0,0.0,1.0,1009.8,1004.5,22.0,0.0,0.0,19.0,24140.0,0.0,0.03,0.9
single_runs_api,gfs_global,2025-07-30 12:00:00,2025-07-30 20:00:00,2025-07-30 18:00:00,2025-07-31 02:00:00,6,27.8,77,23.4,32.2,,0.1,0.0,0.1,0.0,0.0,51.0,1009.2,1003.9,100.0,0.0,0.0,100.0,24140.0,0.0,0.03,0.86
single_runs_api,gfs_global,2025-07-30 18:00:00,2025-07-31 02:00:00,2025-07-30 19:00:00,2025-07-31 03:00:00,1,27.1,81,23.5,31.6,,1.2,0.0,1.2,0.0,0.0,55.0,1008.9,1003.6,100.0,0.0,0.0,100.0,21980.0,0.0,0.02,0.68
single_runs_api,gfs_global,2025-07-30 18:00:00,2025-07-31 02:00:00,2025-07-30 20:00:00,2025-07-31 04:00:00,2,27.6,76,23.0,31.4,,0.1,0.0,0.1,0.0,0.0,51.0,1008.6,1003.3,100.0,0.0,0.0,100.0,24140.0,0.0,0.04,0.88
single_runs_api,gfs_global,2025-07-30 18:00:00,2025-07-31 02:00:00,2025-07-30 21:00:00,2025-07-31 05:00:00,3,27.3,76,22.7,30.9,,0.1,0.0,0.1,0.0,0.0,51.0,1008.6,1003.3,100.0,0.0,0.0,100.0,24140.0,0.0,0.04,0.87
single_runs_api,gfs_global,2025-07-30 18:00:00,2025-07-31 02:00:00,2025-07-30 22:00:00,2025-07-31 06:00:00,4,27.2,75,22.4,30.5,,0.2,0.0,0.2,0.0,0.0,51.0,1009.2,1003.9,39.0,0.0,0.0,35.0,24140.0,0.0,0.04,0.9
single_runs_api,gfs_global,2025-07-30 18:00:00,2025-07-31 02:00:00,2025-07-30 23:00:00,2025-07-31 07:00:00,5,27.1,76,22.5,30.3,,0.0,0.0,0.0,0.0,0.0,3.0,1009.1,1003.8,100.0,0.0,0.0,100.0,24140.0,0.0,0.04,0.86
single_runs_api,gfs_global,2025-07-30 18:00:00,2025-07-31 02:00:00,2025-07-31 00:00:00,2025-07-31 08:00:00,6,27.7,76,23.1,31.3,,0.0,0.0,0.0,0.0,0.0,3.0,1009.4,1004.1,100.0,0.0,0.0,100.0,24140.0,0.0,0.07,0.89
single_runs_api,gfs_global,2025-07-31 00:00:00,2025-07-31 08:00:00,2025-07-31 01:00:00,2025-07-31 09:00:00,1,28.7,73,23.4,32.3,,0.0,0.0,0.0,0.0,0.0,3.0,1009.9,1004.7,100.0,0.0,0.0,100.0,24140.0,0.0,0.19,1.06
single_runs_api,gfs_global,2025-07-31 00:00:00,2025-07-31 08:00:00,2025-07-31 02:00:00,2025-07-31 10:00:00,2,29.5,69,23.2,33.0,,0.0,0.0,0.0,0.0,0.0,3.0,1010.3,1005.1,100.0,0.0,0.0,100.0,24140.0,0.0,0.33,1.27
single_runs_api,gfs_global,2025-07-31 00:00:00,2025-07-31 08:00:00,2025-07-31 03:00:00,2025-07-31 11:00:00,3,30.5,65,23.1,34.8,,0.0,0.0,0.0,0.0,0.0,3.0,1010.3,1005.1,100.0,0.0,0.0,100.0,24140.0,0.0,0.49,1.52
single_runs_api,gfs_global,2025-07-31 00:00:00,2025-07-31 08:00:00,2025-07-31 04:00:00,2025-07-31 12:00:00,4,31.4,62,23.2,36.7,,0.0,0.0,0.0,0.0,0.0,2.0,1009.7,1004.5,72.0,13.0,0.0,64.0,24140.0,0.0,0.62,1.74
single_runs_api,gfs_global,2025-07-31 00:00:00,2025-07-31 08:00:00,2025-07-31 05:00:00,2025-07-31 13:00:00,5,31.9,60,23.1,37.6,,0.0,0.0,0.0,0.0,0.0,3.0,1008.7,1003.5,85.0,19.0,0.0,80.0,24140.0,0.0,0.69,1.89
single_runs_api,gfs_global,2025-07-31 00:00:00,2025-07-31 08:00:00,2025-07-31 06:00:00,2025-07-31 14:00:00,6,31.4,63,23.5,36.1,,0.3,0.0,0.3,0.0,0.0,51.0,1007.7,1002.5,100.0,44.0,0.0,100.0,19740.0,0.0,0.63,1.7
single_runs_api,gfs_global,2025-07-31 06:00:00,2025-07-31 14:00:00,2025-07-31 07:00:00,2025-07-31 15:00:00,1,31.0,64,23.4,36.0,,1.1,0.0,1.1,0.0,0.0,55.0,1007.6,1002.4,100.0,2.0,0.0,100.0,17760.0,0.0,0.59,1.61
single_runs_api,gfs_global,2025-07-31 06:00:00,2025-07-31 14:00:00,2025-07-31 08:00:00,2025-07-31 16:00:00,2,31.1,63,23.2,35.5,,0.2,0.0,0.2,0.0,0.0,51.0,1006.8,1001.6,100.0,26.0,0.0,100.0,24140.0,0.0,0.53,1.67
single_runs_api,gfs_global,2025-07-31 06:00:00,2025-07-31 14:00:00,2025-07-31 09:00:00,2025-07-31 17:00:00,3,30.6,65,23.2,33.9,,0.5,0.0,0.5,0.0,0.0,53.0,1006.5,1001.3,55.0,39.0,0.0,22.0,24140.0,0.0,0.43,1.53
single_runs_api,gfs_global,2025-07-31 06:00:00,2025-07-31 14:00:00,2025-07-31 10:00:00,2025-07-31 18:00:00,4,30.3,66,23.2,34.1,,0.0,0.0,0.0,0.0,0.0,2.0,1006.8,1001.6,71.0,27.0,0.0,59.0,24140.0,0.0,0.28,1.46
single_runs_api,gfs_global,2025-07-31 06:00:00,2025-07-31 14:00:00,2025-07-31 11:00:00,2025-07-31 19:00:00,5,29.5,71,23.7,33.7,,0.0,0.0,0.0,0.0,0.0,3.0,1007.3,1002.1,100.0,0.0,0.0,100.0,24140.0,0.0,0.12,1.19
single_runs_api,gfs_global,2025-07-31 06:00:00,2025-07-31 14:00:00,2025-07-31 12:00:00,2025-07-31 20:00:00,6,28.9,73,23.5,32.4,,0.0,0.0,0.0,0.0,0.0,3.0,1007.9,1002.7,100.0,13.0,0.0,100.0,24140.0,0.0,0.07,1.07
single_runs_api,gfs_global,2025-07-31 12:00:00,2025-07-31 20:00:00,2025-07-31 13:00:00,2025-07-31 21:00:00,1,28.1,78,23.9,31.4,,0.3,0.0,0.3,0.0,0.0,51.0,1008.3,1003.1,100.0,0.0,0.0,100.0,24140.0,0.0,0.06,0.83
single_runs_api,gfs_global,2025-07-31 12:00:00,2025-07-31 20:00:00,2025-07-31 14:00:00,2025-07-31 22:00:00,2,27.9,79,23.9,31.4,,0.3,0.0,0.3,0.0,0.0,51.0,1009.3,1004.0,100.0,0.0,0.0,100.0,24140.0,0.0,0.05,0.79
single_runs_api,gfs_global,2025-07-31 12:00:00,2025-07-31 20:00:00,2025-07-31 15:00:00,2025-07-31 23:00:00,3,27.9,78,23.7,31.8,,0.0,0.0,0.0,0.0,0.0,3.0,1009.4,1004.1,100.0,0.0,0.0,100.0,24140.0,0.0,0.04,0.82
single_runs_api,gfs_global,2025-07-31 12:00:00,2025-07-31 20:00:00,2025-07-31 16:00:00,2025-08-01 00:00:00,4,27.8,78,23.6,31.7,,0.0,0.0,0.0,0.0,0.0,3.0,1009.6,1004.3,100.0,0.0,0.0,100.0,24140.0,0.0,0.04,0.82
single_runs_api,gfs_global,2025-07-31 12:00:00,2025-07-31 20:00:00,2025-07-31 17:00:00,2025-08-01 01:00:00,5,27.7,78,23.5,31.9,,0.0,0.0,0.0,0.0,0.0,3.0,1008.9,1003.6,100.0,0.0,0.0,100.0,24140.0,0.0,0.03,0.81
single_runs_api,gfs_global,2025-07-31 12:00:00,2025-07-31 20:00:00,2025-07-31 18:00:00,2025-08-01 02:00:00,6,27.5,79,23.5,31.8,,0.0,0.0,0.0,0.0,0.0,3.0,1008.2,1002.9,100.0,0.0,0.0,100.0,24140.0,0.0,0.03,0.77
single_runs_api,gfs_global,2025-07-31 18:00:00,2025-08-01 02:00:00,2025-07-31 19:00:00,2025-08-01 03:00:00,1,27.5,79,23.5,31.8,,0.0,0.0,0.0,0.0,0.0,3.0,1007.8,1002.5,100.0,0.0,0.0,100.0,24140.0,0.0,0.03,0.77
single_runs_api,gfs_global,2025-07-31 18:00:00,2025-08-01 02:00:00,2025-07-31 20:00:00,2025-08-01 04:00:00,2,27.4,80,23.6,31.7,,0.0,0.0,0.0,0.0,0.0,3.0,1007.3,1002.0,95.0,0.0,0.0,95.0,24140.0,0.0,0.03,0.73
single_runs_api,gfs_global,2025-07-31 18:00:00,2025-08-01 02:00:00,2025-07-31 21:00:00,2025-08-01 05:00:00,3,27.3,81,23.7,31.5,,0.0,0.0,0.0,0.0,0.0,3.0,1007.3,1002.0,100.0,0.0,0.0,100.0,24140.0,0.0,0.03,0.69
single_runs_api,gfs_global,2025-07-31 18:00:00,2025-08-01 02:00:00,2025-07-31 22:00:00,2025-08-01 06:00:00,4,27.4,80,23.6,31.4,,0.0,0.0,0.0,0.0,0.0,3.0,1007.4,1002.1,100.0,0.0,0.0,100.0,24140.0,0.0,0.03,0.73
single_runs_api,gfs_global,2025-07-31 18:00:00,2025-08-01 02:00:00,2025-07-31 23:00:00,2025-08-01 07:00:00,5,26.7,83,23.5,30.8,,0.9,0.0,0.9,0.0,0.0,53.0,1008.0,1002.7,54.0,0.0,0.0,51.0,22080.0,0.0,0.02,0.59
single_runs_api,gfs_global,2025-07-31 18:00:00,2025-08-01 02:00:00,2025-08-01 00:00:00,2025-08-01 08:00:00,6,27.3,81,23.7,31.5,,0.7,0.0,0.7,0.0,0.0,53.0,1008.8,1003.5,100.0,0.0,0.0,100.0,24140.0,0.0,0.06,0.69
single_runs_api,gfs_global,2025-08-01 00:00:00,2025-08-01 08:00:00,2025-08-01 01:00:00,2025-08-01 09:00:00,1,28.5,75,23.6,32.3,,0.2,0.0,0.2,0.0,0.0,51.0,1009.6,1004.4,100.0,0.0,0.0,100.0,24140.0,0.0,0.18,0.97
single_runs_api,gfs_global,2025-08-01 00:00:00,2025-08-01 08:00:00,2025-08-01 02:00:00,2025-08-01 10:00:00,2,29.6,69,23.3,33.6,,0.0,0.0,0.0,0.0,0.0,3.0,1009.7,1004.5,100.0,0.0,0.0,100.0,24140.0,0.0,0.35,1.28
single_runs_api,gfs_global,2025-08-01 00:00:00,2025-08-01 08:00:00,2025-08-01 03:00:00,2025-08-01 11:00:00,3,30.4,65,23.1,34.6,,0.0,0.0,0.0,0.0,0.0,3.0,1009.7,1004.5,100.0,0.0,0.0,100.0,24140.0,0.0,0.5,1.52
single_runs_api,gfs_global,2025-08-01 00:00:00,2025-08-01 08:00:00,2025-08-01 04:00:00,2025-08-01 12:00:00,4,31.0,62,22.8,35.9,,0.1,0.0,0.1,0.0,0.0,51.0,1009.3,1004.1,100.0,0.0,0.0,100.0,24140.0,0.0,0.6,1.7
single_runs_api,gfs_global,2025-08-01 00:00:00,2025-08-01 08:00:00,2025-08-01 05:00:00,2025-08-01 13:00:00,5,31.5,60,22.8,36.8,,0.0,0.0,0.0,0.0,0.0,1.0,1008.3,1003.1,48.0,9.0,0.0,42.0,24140.0,0.0,0.69,1.84
single_runs_api,gfs_global,2025-08-01 00:00:00,2025-08-01 08:00:00,2025-08-01 06:00:00,2025-08-01 14:00:00,6,31.2,63,23.3,35.9,,0.2,0.0,0.2,0.0,0.0,51.0,1007.3,1002.1,23.0,14.0,0.0,10.0,24140.0,0.0,0.68,1.68
single_runs_api,gfs_global,2025-08-01 06:00:00,2025-08-01 14:00:00,2025-08-01 07:00:00,2025-08-01 15:00:00,1,31.0,64,23.4,36.0,,0.7,0.0,0.7,0.0,0.0,53.0,1006.7,1001.5,81.0,7.0,0.0,76.0,15000.0,0.0,0.59,1.61
single_runs_api,gfs_global,2025-08-01 06:00:00,2025-08-01 14:00:00,2025-08-01 08:00:00,2025-08-01 16:00:00,2,31.2,63,23.3,36.1,,0.1,0.0,0.1,0.0,0.0,51.0,1005.9,1000.7,98.0,29.0,0.0,97.0,20140.0,0.0,0.54,1.68
single_runs_api,gfs_global,2025-08-01 06:00:00,2025-08-01 14:00:00,2025-08-01 09:00:00,2025-08-01 17:00:00,3,31.1,64,23.5,35.1,,0.0,0.0,0.0,0.0,0.0,3.0,1005.5,1000.3,81.0,14.0,0.0,76.0,24140.0,0.0,0.43,1.62
single_runs_api,gfs_global,2025-08-01 06:00:00,2025-08-01 14:00:00,2025-08-01 10:00:00,2025-08-01 18:00:00,4,30.2,68,23.6,33.8,,0.0,0.0,0.0,0.0,0.0,3.0,1005.7,1000.5,100.0,0.0,0.0,100.0,24140.0,0.0,0.27,1.37
single_runs_api,gfs_global,2025-08-01 06:00:00,2025-08-01 14:00:00,2025-08-01 11:00:00,2025-08-01 19:00:00,5,29.3,71,23.5,32.8,,0.0,0.0,0.0,0.0,0.0,3.0,1006.4,1001.2,100.0,0.0,0.0,100.0,24140.0,0.0,0.13,1.18
single_runs_api,gfs_global,2025-08-01 06:00:00,2025-08-01 14:00:00,2025-08-01 12:00:00,2025-08-01 20:00:00,6,28.9,71,23.1,32.1,,0.0,0.0,0.0,0.0,0.0,3.0,1007.3,1002.1,97.0,21.0,0.0,96.0,20020.0,0.0,0.08,1.15
single_runs_api,gfs_global,2025-08-01 12:00:00,2025-08-01 20:00:00,2025-08-01 13:00:00,2025-08-01 21:00:00,1,28.5,73,23.2,32.2,,0.0,0.0,0.0,0.0,0.0,3.0,1008.0,1002.8,100.0,13.0,0.0,100.0,21960.0,0.0,0.05,1.05
single_runs_api,gfs_global,2025-08-01 12:00:00,2025-08-01 20:00:00,2025-08-01 14:00:00,2025-08-01 22:00:00,2,28.5,73,23.2,32.5,,0.0,0.0,0.0,0.0,0.0,3.0,1008.8,1003.6,100.0,0.0,0.0,100.0,22060.0,0.0,0.04,1.05
single_runs_api,gfs_global,2025-08-01 12:00:00,2025-08-01 20:00:00,2025-08-01 15:00:00,2025-08-01 23:00:00,3,28.3,75,23.4,32.7,,0.1,0.0,0.1,0.0,0.0,51.0,1009.3,1004.1,100.0,0.0,0.0,100.0,24140.0,0.0,0.03,0.96
single_runs_api,gfs_global,2025-08-01 12:00:00,2025-08-01 20:00:00,2025-08-01 16:00:00,2025-08-02 00:00:00,4,28.3,76,23.6,32.7,,0.0,0.0,0.0,0.0,0.0,3.0,1009.6,1004.4,100.0,0.0,0.0,100.0,24140.0,0.0,0.03,0.92
single_runs_api,gfs_global,2025-08-01 12:00:00,2025-08-01 20:00:00,2025-08-01 17:00:00,2025-08-02 01:00:00,5,27.6,78,23.4,31.5,,0.6,0.0,0.6,0.0,0.0,53.0,1009.5,1004.2,100.0,0.0,0.0,100.0,17300.0,0.0,0.04,0.81
single_runs_api,gfs_global,2025-08-01 12:00:00,2025-08-01 20:00:00,2025-08-01 18:00:00,2025-08-02 02:00:00,6,27.7,78,23.5,31.8,,0.3,0.0,0.3,0.0,0.0,51.0,1009.1,1003.8,100.0,0.0,0.0,100.0,24140.0,0.0,0.03,0.81
single_runs_api,gfs_global,2025-08-01 18:00:00,2025-08-02 02:00:00,2025-08-01 19:00:00,2025-08-02 03:00:00,1,27.3,80,23.5,31.6,,0.2,0.0,0.2,0.0,0.0,51.0,1008.7,1003.4,100.0,0.0,0.0,100.0,24140.0,0.0,0.02,0.72
single_runs_api,gfs_global,2025-08-01 18:00:00,2025-08-02 02:00:00,2025-08-01 20:00:00,2025-08-02 04:00:00,2,27.1,80,23.3,31.0,,0.5,0.0,0.5,0.0,0.0,53.0,1008.5,1003.2,100.0,0.0,0.0,100.0,17340.0,0.0,0.03,0.72
single_runs_api,gfs_global,2025-08-01 18:00:00,2025-08-02 02:00:00,2025-08-01 21:00:00,2025-08-02 05:00:00,3,27.2,79,23.2,31.6,,0.0,0.0,0.0,0.0,0.0,3.0,1008.1,1002.8,100.0,0.0,0.0,100.0,24140.0,0.0,0.02,0.76
single_runs_api,gfs_global,2025-08-01 18:00:00,2025-08-02 02:00:00,2025-08-01 22:00:00,2025-08-02 06:00:00,4,27.1,78,22.9,31.5,,0.0,0.0,0.0,0.0,0.0,2.0,1008.4,1003.1,51.0,0.0,0.0,49.0,24140.0,0.0,0.02,0.79
single_runs_api,gfs_global,2025-08-01 18:00:00,2025-08-02 02:00:00,2025-08-01 23:00:00,2025-08-02 07:00:00,5,27.0,79,23.0,31.2,,0.0,0.0,0.0,0.0,0.0,1.0,1008.5,1003.2,43.0,0.0,0.0,42.0,24140.0,0.0,0.02,0.75
single_runs_api,gfs_global,2025-08-01 18:00:00,2025-08-02 02:00:00,2025-08-02 00:00:00,2025-08-02 08:00:00,6,27.5,79,23.5,31.8,,0.0,0.0,0.0,0.0,0.0,2.0,1009.3,1004.0,58.0,0.0,0.0,56.0,24140.0,0.0,0.06,0.77
single_runs_api,gfs_global,2025-08-02 00:00:00,2025-08-02 08:00:00,2025-08-02 01:00:00,2025-08-02 09:00:00,1,28.8,72,23.2,33.1,,0.0,0.0,0.0,0.0,0.0,1.0,1009.9,1004.7,32.0,0.0,0.0,31.0,24140.0,0.0,0.2,1.11
single_runs_api,gfs_global,2025-08-02 00:00:00,2025-08-02 08:00:00,2025-08-02 02:00:00,2025-08-02 10:00:00,2,29.7,67,22.9,33.6,,0.1,0.0,0.1,0.0,0.0,51.0,1010.3,1005.1,16.0,0.0,0.0,14.0,24140.0,0.0,0.37,1.37
single_runs_api,gfs_global,2025-08-02 00:00:00,2025-08-02 08:00:00,2025-08-02 03:00:00,2025-08-02 11:00:00,3,30.7,60,22.0,34.6,,0.0,0.0,0.0,0.0,0.0,3.0,1010.0,1004.8,100.0,0.0,0.0,100.0,24140.0,0.0,0.5,1.76
single_runs_api,gfs_global,2025-08-02 00:00:00,2025-08-02 08:00:00,2025-08-02 04:00:00,2025-08-02 12:00:00,4,31.5,56,21.6,35.8,,0.0,0.0,0.0,0.0,0.0,3.0,1009.4,1004.2,100.0,0.0,0.0,100.0,24140.0,0.0,0.59,2.03
single_runs_api,gfs_global,2025-08-02 00:00:00,2025-08-02 08:00:00,2025-08-02 05:00:00,2025-08-02 13:00:00,5,32.2,54,21.7,37.2,,0.0,0.0,0.0,0.0,0.0,3.0,1008.7,1003.5,100.0,0.0,0.0,100.0,24140.0,0.0,0.68,2.21
single_runs_api,gfs_global,2025-08-02 00:00:00,2025-08-02 08:00:00,2025-08-02 06:00:00,2025-08-02 14:00:00,6,32.4,54,21.9,37.5,,0.0,0.0,0.0,0.0,0.0,1.0,1007.8,1002.6,47.0,0.0,0.0,46.0,24140.0,0.0,0.72,2.23
single_runs_api,gfs_global,2025-08-02 06:00:00,2025-08-02 14:00:00,2025-08-02 07:00:00,2025-08-02 15:00:00,1,32.2,56,22.3,36.5,,0.0,0.0,0.0,0.0,0.0,3.0,1007.2,1002.0,85.0,0.0,0.0,82.0,24140.0,0.0,0.66,2.11
single_runs_api,gfs_global,2025-08-02 06:00:00,2025-08-02 14:00:00,2025-08-02 08:00:00,2025-08-02 16:00:00,2,31.7,59,22.7,35.4,,0.0,0.0,0.0,0.0,0.0,2.0,1006.7,1001.5,74.0,0.0,0.0,70.0,24140.0,0.0,0.57,1.91
single_runs_api,gfs_global,2025-08-02 06:00:00,2025-08-02 14:00:00,2025-08-02 09:00:00,2025-08-02 17:00:00,3,31.2,62,23.0,34.2,,0.0,0.0,0.0,0.0,0.0,3.0,1006.3,1001.1,100.0,0.0,0.0,100.0,24140.0,0.0,0.43,1.72
single_runs_api,gfs_global,2025-08-02 06:00:00,2025-08-02 14:00:00,2025-08-02 10:00:00,2025-08-02 18:00:00,4,30.6,66,23.5,34.0,,0.0,0.0,0.0,0.0,0.0,3.0,1006.3,1001.1,99.0,0.0,0.0,99.0,24140.0,0.0,0.29,1.49
single_runs_api,gfs_global,2025-08-02 06:00:00,2025-08-02 14:00:00,2025-08-02 11:00:00,2025-08-02 19:00:00,5,29.7,68,23.1,33.0,,0.0,0.0,0.0,0.0,0.0,3.0,1006.7,1001.5,85.0,0.0,0.0,86.0,24140.0,0.0,0.14,1.33
single_runs_api,gfs_global,2025-08-02 06:00:00,2025-08-02 14:00:00,2025-08-02 12:00:00,2025-08-02 20:00:00,6,29.2,69,22.9,32.4,,0.0,0.0,0.0,0.0,0.0,0.0,1007.2,1002.0,17.0,0.0,0.0,16.0,24140.0,0.0,0.08,1.25
single_runs_api,gfs_global,2025-08-02 12:00:00,2025-08-02 20:00:00,2025-08-02 13:00:00,2025-08-02 21:00:00,1,28.8,71,23.0,32.0,,0.0,0.0,0.0,0.0,0.0,2.0,1007.7,1002.5,74.0,0.0,0.0,74.0,24140.0,0.0,0.07,1.15
single_runs_api,gfs_global,2025-08-02 12:00:00,2025-08-02 20:00:00,2025-08-02 14:00:00,2025-08-02 22:00:00,2,28.6,74,23.5,32.1,,0.0,0.0,0.0,0.0,0.0,3.0,1008.6,1003.4,100.0,0.0,0.0,100.0,24140.0,0.0,0.06,1.01
single_runs_api,gfs_global,2025-08-02 12:00:00,2025-08-02 20:00:00,2025-08-02 15:00:00,2025-08-02 23:00:00,3,28.3,78,24.1,32.4,,0.1,0.0,0.1,0.0,0.0,51.0,1009.3,1004.1,76.0,0.0,0.0,74.0,24140.0,0.0,0.04,0.84
single_runs_api,gfs_global,2025-08-02 12:00:00,2025-08-02 20:00:00,2025-08-02 16:00:00,2025-08-03 00:00:00,4,28.2,79,24.2,32.7,,0.1,0.0,0.1,0.0,0.0,51.0,1009.5,1004.3,100.0,0.0,5.0,100.0,24140.0,0.0,0.03,0.8
single_runs_api,gfs_global,2025-08-02 12:00:00,2025-08-02 20:00:00,2025-08-02 17:00:00,2025-08-03 01:00:00,5,28.0,80,24.2,32.3,,0.2,0.0,0.2,0.0,0.0,51.0,1009.4,1004.1,100.0,0.0,5.0,100.0,24140.0,0.0,0.04,0.75
single_runs_api,gfs_global,2025-08-02 12:00:00,2025-08-02 20:00:00,2025-08-02 18:00:00,2025-08-03 02:00:00,6,27.8,80,24.0,32.0,,0.0,0.0,0.0,0.0,0.0,3.0,1008.9,1003.6,100.0,0.0,5.0,100.0,24140.0,0.0,0.03,0.75
single_runs_api,gfs_global,2025-08-02 18:00:00,2025-08-03 02:00:00,2025-08-02 19:00:00,2025-08-03 03:00:00,1,27.6,82,24.2,32.0,,0.3,0.0,0.3,0.0,0.0,51.0,1008.4,1003.1,100.0,0.0,100.0,58.0,24140.0,0.0,0.03,0.66
single_runs_api,gfs_global,2025-08-02 18:00:00,2025-08-03 02:00:00,2025-08-02 20:00:00,2025-08-03 04:00:00,2,27.2,82,23.8,31.3,,2.1,0.0,2.1,0.0,0.0,80.0,1008.3,1003.0,98.0,5.0,97.0,14.0,24140.0,0.0,0.03,0.65
single_runs_api,gfs_global,2025-08-02 18:00:00,2025-08-03 02:00:00,2025-08-02 21:00:00,2025-08-03 05:00:00,3,27.5,78,23.3,31.1,,0.1,0.0,0.1,0.0,0.0,51.0,1008.2,1002.9,100.0,5.0,71.0,100.0,24140.0,0.0,0.04,0.81
single_runs_api,gfs_global,2025-08-02 18:00:00,2025-08-03 02:00:00,2025-08-02 22:00:00,2025-08-03 06:00:00,4,27.5,79,23.5,31.4,,0.0,0.0,0.0,0.0,0.0,3.0,1008.8,1003.5,100.0,5.0,81.0,100.0,24140.0,0.0,0.04,0.77
single_runs_api,gfs_global,2025-08-02 18:00:00,2025-08-03 02:00:00,2025-08-02 23:00:00,2025-08-03 07:00:00,5,27.6,78,23.4,31.4,,0.2,0.0,0.2,0.0,0.0,51.0,1009.2,1003.9,100.0,5.0,100.0,100.0,21980.0,0.0,0.04,0.81
single_runs_api,gfs_global,2025-08-02 18:00:00,2025-08-03 02:00:00,2025-08-03 00:00:00,2025-08-03 08:00:00,6,27.7,78,23.5,32.0,,0.0,0.0,0.0,0.0,0.0,3.0,1009.9,1004.6,100.0,5.0,100.0,100.0,24140.0,0.0,0.06,0.81
single_runs_api,gfs_global,2025-08-03 00:00:00,2025-08-03 08:00:00,2025-08-03 01:00:00,2025-08-03 09:00:00,1,29.2,72,23.6,33.4,,0.0,0.0,0.0,0.0,0.0,3.0,1010.4,1005.2,100.0,0.0,45.0,100.0,24140.0,0.0,0.17,1.13
single_runs_api,gfs_global,2025-08-03 00:00:00,2025-08-03 08:00:00,2025-08-03 02:00:00,2025-08-03 10:00:00,2,29.2,74,24.1,33.7,,0.2,0.0,0.2,0.0,0.0,51.0,1010.9,1005.7,100.0,0.0,100.0,100.0,24140.0,0.0,0.17,1.05
single_runs_api,gfs_global,2025-08-03 00:00:00,2025-08-03 08:00:00,2025-08-03 03:00:00,2025-08-03 11:00:00,3,29.4,71,23.6,33.3,,1.7,0.0,1.7,0.0,0.0,80.0,1011.0,1005.8,100.0,0.0,100.0,100.0,24140.0,0.0,0.31,1.19
single_runs_api,gfs_global,2025-08-03 00:00:00,2025-08-03 08:00:00,2025-08-03 04:00:00,2025-08-03 12:00:00,4,30.6,63,22.7,34.8,,0.0,0.0,0.0,0.0,0.0,3.0,1010.5,1005.3,100.0,0.0,5.0,100.0,24140.0,0.0,0.57,1.62
single_runs_api,gfs_global,2025-08-03 00:00:00,2025-08-03 08:00:00,2025-08-03 05:00:00,2025-08-03 13:00:00,5,31.1,62,22.9,35.8,,0.0,0.0,0.0,0.0,0.0,3.0,1010.0,1004.8,100.0,0.0,5.0,100.0,24140.0,0.0,0.63,1.71
single_runs_api,gfs_global,2025-08-03 00:00:00,2025-08-03 08:00:00,2025-08-03 06:00:00,2025-08-03 14:00:00,6,31.3,62,23.1,36.2,,0.0,0.0,0.0,0.0,0.0,3.0,1009.2,1004.0,100.0,0.0,24.0,100.0,24140.0,0.0,0.65,1.73
single_runs_api,gfs_global,2025-08-03 06:00:00,2025-08-03 14:00:00,2025-08-03 07:00:00,2025-08-03 15:00:00,1,30.9,65,23.5,36.1,,0.0,0.0,0.0,0.0,0.0,3.0,1008.8,1003.6,100.0,0.0,45.0,100.0,24140.0,0.0,0.61,1.56
single_runs_api,gfs_global,2025-08-03 06:00:00,2025-08-03 14:00:00,2025-08-03 08:00:00,2025-08-03 16:00:00,2,30.4,68,23.8,34.7,,0.0,0.0,0.0,0.0,0.0,3.0,1008.0,1002.8,100.0,0.0,10.0,100.0,24140.0,0.0,0.5,1.39
single_runs_api,gfs_global,2025-08-03 06:00:00,2025-08-03 14:00:00,2025-08-03 09:00:00,2025-08-03 17:00:00,3,29.7,71,23.8,33.4,,0.0,0.0,0.0,0.0,0.0,3.0,1007.2,1002.0,100.0,0.0,5.0,100.0,24140.0,0.0,0.36,1.21
single_runs_api,gfs_global,2025-08-03 06:00:00,2025-08-03 14:00:00,2025-08-03 10:00:00,2025-08-03 18:00:00,4,29.1,73,23.7,32.8,,0.0,0.0,0.0,0.0,0.0,3.0,1007.7,1002.5,100.0,0.0,0.0,100.0,24140.0,0.0,0.23,1.08
single_runs_api,gfs_global,2025-08-03 06:00:00,2025-08-03 14:00:00,2025-08-03 11:00:00,2025-08-03 19:00:00,5,28.6,75,23.7,32.5,,0.0,0.0,0.0,0.0,0.0,3.0,1008.4,1003.2,100.0,0.0,5.0,100.0,24140.0,0.0,0.11,0.98
single_runs_api,gfs_global,2025-08-03 06:00:00,2025-08-03 14:00:00,2025-08-03 12:00:00,2025-08-03 20:00:00,6,28.5,73,23.2,32.0,,0.0,0.0,0.0,0.0,0.0,3.0,1008.9,1003.7,100.0,0.0,5.0,100.0,24140.0,0.0,0.06,1.05
single_runs_api,gfs_global,2025-08-03 12:00:00,2025-08-03 20:00:00,2025-08-03 13:00:00,2025-08-03 21:00:00,1,28.3,75,23.4,32.2,,0.0,0.0,0.0,0.0,0.0,3.0,1009.0,1003.8,100.0,0.0,5.0,100.0,24140.0,0.0,0.04,0.96
single_runs_api,gfs_global,2025-08-03 12:00:00,2025-08-03 20:00:00,2025-08-03 14:00:00,2025-08-03 22:00:00,2,28.1,76,23.4,32.3,,0.0,0.0,0.0,0.0,0.0,3.0,1009.6,1004.3,89.0,0.0,5.0,86.0,24140.0,0.0,0.03,0.91
single_runs_api,gfs_global,2025-08-03 12:00:00,2025-08-03 20:00:00,2025-08-03 15:00:00,2025-08-03 23:00:00,3,28.0,78,23.8,32.4,,0.0,0.0,0.0,0.0,0.0,3.0,1010.3,1005.0,100.0,0.0,5.0,100.0,24140.0,0.0,0.03,0.83
single_runs_api,gfs_global,2025-08-03 12:00:00,2025-08-03 20:00:00,2025-08-03 16:00:00,2025-08-04 00:00:00,4,27.9,79,23.9,32.7,,0.0,0.0,0.0,0.0,0.0,3.0,1010.6,1005.3,100.0,0.0,5.0,100.0,24140.0,0.0,0.02,0.79
single_runs_api,gfs_global,2025-08-03 12:00:00,2025-08-03 20:00:00,2025-08-03 17:00:00,2025-08-04 01:00:00,5,27.7,81,24.1,32.8,,0.0,0.0,0.0,0.0,0.0,3.0,1010.2,1004.9,100.0,8.0,24.0,100.0,24140.0,0.0,0.01,0.7
single_runs_api,gfs_global,2025-08-03 12:00:00,2025-08-03 20:00:00,2025-08-03 18:00:00,2025-08-04 02:00:00,6,27.2,83,24.0,32.4,,1.0,0.0,1.0,0.0,0.0,55.0,1009.7,1004.4,100.0,9.0,100.0,100.0,24140.0,0.0,0.01,0.61
single_runs_api,gfs_global,2025-08-03 18:00:00,2025-08-04 02:00:00,2025-08-03 19:00:00,2025-08-04 03:00:00,1,27.2,84,24.2,32.7,,0.9,0.0,0.9,0.0,0.0,53.0,1009.0,1003.7,100.0,0.0,66.0,100.0,24140.0,0.0,0.0,0.58
single_runs_api,gfs_global,2025-08-03 18:00:00,2025-08-04 02:00:00,2025-08-03 20:00:00,2025-08-04 04:00:00,2,26.9,85,24.1,32.1,,2.4,0.0,2.4,0.0,0.0,80.0,1009.0,1003.7,98.0,0.0,91.0,76.0,24140.0,0.0,0.01,0.53
single_runs_api,gfs_global,2025-08-03 18:00:00,2025-08-04 02:00:00,2025-08-03 21:00:00,2025-08-04 05:00:00,3,27.5,81,23.9,32.2,,1.1,0.0,1.1,0.0,0.0,55.0,1008.9,1003.6,100.0,30.0,100.0,100.0,24140.0,0.0,0.02,0.7
single_runs_api,gfs_global,2025-08-03 18:00:00,2025-08-04 02:00:00,2025-08-03 22:00:00,2025-08-04 06:00:00,4,27.7,78,23.5,32.0,,0.1,0.0,0.1,0.0,0.0,51.0,1009.1,1003.8,100.0,5.0,100.0,100.0,24140.0,0.0,0.03,0.81
single_runs_api,gfs_global,2025-08-03 18:00:00,2025-08-04 02:00:00,2025-08-03 23:00:00,2025-08-04 07:00:00,5,27.6,78,23.4,31.9,,0.0,0.0,0.0,0.0,0.0,3.0,1009.3,1004.0,100.0,5.0,69.0,100.0,24140.0,0.0,0.03,0.81
single_runs_api,gfs_global,2025-08-03 18:00:00,2025-08-04 02:00:00,2025-08-04 00:00:00,2025-08-04 08:00:00,6,28.1,77,23.7,32.5,,0.0,0.0,0.0,0.0,0.0,3.0,1009.8,1004.5,100.0,0.0,95.0,101.0,24140.0,0.0,0.06,0.87
single_runs_api,gfs_global,2025-08-04 00:00:00,2025-08-04 08:00:00,2025-08-04 01:00:00,2025-08-04 09:00:00,1,28.4,72,22.8,32.2,,0.0,0.0,0.0,0.0,0.0,3.0,1010.6,1005.3,100.0,0.0,66.0,100.0,24140.0,0.0,0.16,1.08
single_runs_api,gfs_global,2025-08-04 00:00:00,2025-08-04 08:00:00,2025-08-04 02:00:00,2025-08-04 10:00:00,2,28.0,75,23.1,31.7,,0.0,0.0,0.0,0.0,0.0,3.0,1011.0,1005.7,100.0,0.0,100.0,100.0,24140.0,0.0,0.16,0.94
single_runs_api,gfs_global,2025-08-04 00:00:00,2025-08-04 08:00:00,2025-08-04 03:00:00,2025-08-04 11:00:00,3,28.0,74,22.9,31.1,,0.0,0.0,0.0,0.0,0.0,3.0,1010.9,1005.6,100.0,0.0,100.0,100.0,24140.0,0.0,0.23,0.98
single_runs_api,gfs_global,2025-08-04 00:00:00,2025-08-04 08:00:00,2025-08-04 04:00:00,2025-08-04 12:00:00,4,28.1,74,23.0,30.7,,0.0,0.0,0.0,0.0,0.0,3.0,1010.3,1005.0,100.0,5.0,100.0,100.0,24140.0,0.0,0.29,0.99
single_runs_api,gfs_global,2025-08-04 00:00:00,2025-08-04 08:00:00,2025-08-04 05:00:00,2025-08-04 13:00:00,5,28.6,71,22.8,31.1,,0.0,0.0,0.0,0.0,0.0,3.0,1010.0,1004.8,100.0,0.0,100.0,38.0,24140.0,0.0,0.42,1.13
single_runs_api,gfs_global,2025-08-04 00:00:00,2025-08-04 08:00:00,2025-08-04 06:00:00,2025-08-04 14:00:00,6,27.9,74,22.8,30.8,,0.0,0.0,0.0,0.0,0.0,3.0,1009.7,1004.4,100.0,5.0,100.0,35.0,24140.0,0.0,0.2,0.97
single_runs_api,gfs_global,2025-08-04 06:00:00,2025-08-04 14:00:00,2025-08-04 07:00:00,2025-08-04 15:00:00,1,28.3,73,23.0,32.0,,0.0,0.0,0.0,0.0,0.0,3.0,1009.0,1003.8,100.0,41.0,100.0,100.0,19980.0,0.0,0.15,1.04
single_runs_api,gfs_global,2025-08-04 06:00:00,2025-08-04 14:00:00,2025-08-04 08:00:00,2025-08-04 16:00:00,2,28.8,70,22.8,32.1,,0.2,0.0,0.2,0.0,0.0,51.0,1008.6,1003.4,100.0,25.0,100.0,100.0,24140.0,0.0,0.27,1.18
single_runs_api,gfs_global,2025-08-04 06:00:00,2025-08-04 14:00:00,2025-08-04 09:00:00,2025-08-04 17:00:00,3,28.7,70,22.7,31.7,,0.1,0.0,0.1,0.0,0.0,51.0,1008.5,1003.3,100.0,27.0,97.0,100.0,24140.0,0.0,0.3,1.18
single_runs_api,gfs_global,2025-08-04 06:00:00,2025-08-04 14:00:00,2025-08-04 10:00:00,2025-08-04 18:00:00,4,28.1,72,22.5,30.9,,0.2,0.0,0.2,0.0,0.0,51.0,1008.5,1003.3,89.0,6.0,85.0,84.0,24140.0,0.0,0.21,1.06
single_runs_api,gfs_global,2025-08-04 06:00:00,2025-08-04 14:00:00,2025-08-04 11:00:00,2025-08-04 19:00:00,5,27.4,75,22.5,30.8,,0.0,0.0,0.0,0.0,0.0,3.0,1009.3,1004.0,100.0,5.0,100.0,54.0,24140.0,0.0,0.08,0.91
single_runs_api,gfs_global,2025-08-04 06:00:00,2025-08-04 14:00:00,2025-08-04 12:00:00,2025-08-04 20:00:00,6,27.5,75,22.6,31.0,,0.0,0.0,0.0,0.0,0.0,3.0,1009.9,1004.6,100.0,16.0,100.0,100.0,24140.0,0.0,0.06,0.92
single_runs_api,gfs_global,2025-08-04 12:00:00,2025-08-04 20:00:00,2025-08-04 13:00:00,2025-08-04 21:00:00,1,27.8,75,22.9,31.9,,0.0,0.0,0.0,0.0,0.0,3.0,1010.6,1005.3,100.0,5.0,100.0,100.0,22040.0,0.0,0.03,0.93
single_runs_api,gfs_global,2025-08-04 12:00:00,2025-08-04 20:00:00,2025-08-04 14:00:00,2025-08-04 22:00:00,2,26.5,83,23.3,31.1,,2.2,0.0,2.2,0.0,0.0,80.0,1011.6,1006.3,89.0,5.0,83.0,19.0,5520.0,0.0,0.01,0.59
single_runs_api,gfs_global,2025-08-04 12:00:00,2025-08-04 20:00:00,2025-08-04 15:00:00,2025-08-04 23:00:00,3,26.9,82,23.5,32.0,,2.0,0.1,1.9,0.0,0.0,80.0,1012.0,1006.7,100.0,21.0,100.0,100.0,24140.0,0.0,0.0,0.64
single_runs_api,gfs_global,2025-08-04 12:00:00,2025-08-04 20:00:00,2025-08-04 16:00:00,2025-08-05 00:00:00,4,26.8,81,23.2,31.6,,0.1,0.1,0.0,0.0,0.0,51.0,1011.9,1006.6,100.0,98.0,100.0,100.0,24140.0,0.0,0.01,0.67
single_runs_api,gfs_global,2025-08-04 12:00:00,2025-08-04 20:00:00,2025-08-04 17:00:00,2025-08-05 01:00:00,5,26.8,80,23.0,31.4,,0.0,0.0,0.0,0.0,0.0,3.0,1011.0,1005.7,100.0,15.0,100.0,99.0,24140.0,0.0,0.01,0.7
single_runs_api,gfs_global,2025-08-04 12:00:00,2025-08-04 20:00:00,2025-08-04 18:00:00,2025-08-05 02:00:00,6,26.6,80,22.8,30.8,,0.1,0.0,0.1,0.0,0.0,51.0,1010.8,1005.5,100.0,0.0,100.0,100.0,4400.0,0.0,0.02,0.69
single_runs_api,gfs_global,2025-08-04 18:00:00,2025-08-05 02:00:00,2025-08-04 19:00:00,2025-08-05 03:00:00,1,24.9,88,22.7,28.5,,3.6,0.0,3.6,0.0,0.0,81.0,1010.6,1005.3,100.0,12.0,100.0,100.0,4100.0,0.0,0.01,0.38
single_runs_api,gfs_global,2025-08-04 18:00:00,2025-08-05 02:00:00,2025-08-04 20:00:00,2025-08-05 04:00:00,2,24.3,91,22.7,26.2,,3.0,0.3,2.7,0.0,0.0,81.0,1010.5,1005.2,100.0,28.0,100.0,100.0,24140.0,0.0,0.02,0.27
single_runs_api,gfs_global,2025-08-04 18:00:00,2025-08-05 02:00:00,2025-08-04 21:00:00,2025-08-05 05:00:00,3,23.1,93,21.9,25.1,,1.1,0.1,1.0,0.0,0.0,55.0,1010.7,1005.4,100.0,76.0,100.0,98.0,6260.0,0.0,0.01,0.2
single_runs_api,gfs_global,2025-08-04 18:00:00,2025-08-05 02:00:00,2025-08-04 22:00:00,2025-08-05 06:00:00,4,23.7,91,22.1,26.1,,0.8,0.0,0.8,0.0,0.0,53.0,1010.8,1005.5,100.0,100.0,100.0,100.0,22680.0,0.0,0.01,0.26
single_runs_api,gfs_global,2025-08-04 18:00:00,2025-08-05 02:00:00,2025-08-04 23:00:00,2025-08-05 07:00:00,5,24.0,90,22.2,26.8,,0.2,0.0,0.2,0.0,0.0,51.0,1011.1,1005.8,100.0,69.0,100.0,100.0,24140.0,0.0,0.01,0.3
single_runs_api,gfs_global,2025-08-04 18:00:00,2025-08-05 02:00:00,2025-08-05 00:00:00,2025-08-05 08:00:00,6,24.5,88,22.3,26.8,,0.1,0.0,0.1,0.0,0.0,51.0,1011.7,1006.4,100.0,85.0,100.0,100.0,24140.0,0.0,0.05,0.37
single_runs_api,gfs_global,2025-08-05 00:00:00,2025-08-05 08:00:00,2025-08-05 01:00:00,2025-08-05 09:00:00,1,25.9,82,22.6,28.0,,0.0,0.0,0.0,0.0,0.0,3.0,1012.0,1006.7,100.0,73.0,83.0,100.0,24140.0,0.0,0.11,0.6
single_runs_api,gfs_global,2025-08-05 00:00:00,2025-08-05 08:00:00,2025-08-05 02:00:00,2025-08-05 10:00:00,2,26.5,80,22.7,28.5,,0.0,0.0,0.0,0.0,0.0,3.0,1012.1,1006.8,100.0,25.0,100.0,19.0,24140.0,0.0,0.16,0.69
single_runs_api,gfs_global,2025-08-05 00:00:00,2025-08-05 08:00:00,2025-08-05 03:00:00,2025-08-05 11:00:00,3,27.0,79,23.0,29.0,,0.0,0.0,0.0,0.0,0.0,3.0,1011.7,1006.4,100.0,53.0,100.0,74.0,24140.0,0.0,0.18,0.75
single_runs_api,gfs_global,2025-08-05 00:00:00,2025-08-05 08:00:00,2025-08-05 04:00:00,2025-08-05 12:00:00,4,27.4,76,22.8,29.6,,0.0,0.0,0.0,0.0,0.0,3.0,1011.1,1005.8,100.0,55.0,100.0,100.0,24140.0,0.0,0.28,0.87
single_runs_api,gfs_global,2025-08-05 00:00:00,2025-08-05 08:00:00,2025-08-05 05:00:00,2025-08-05 13:00:00,5,28.6,71,22.8,32.3,,0.0,0.0,0.0,0.0,0.0,3.0,1010.4,1005.2,100.0,50.0,53.0,100.0,24140.0,0.0,0.53,1.13
single_runs_api,gfs_global,2025-08-05 00:00:00,2025-08-05 08:00:00,2025-08-05 06:00:00,2025-08-05 14:00:00,6,28.8,69,22.5,32.4,,0.0,0.0,0.0,0.0,0.0,3.0,1009.3,1004.1,100.0,4.0,58.0,100.0,24140.0,0.0,0.53,1.22
single_runs_api,gfs_global,2025-08-05 06:00:00,2025-08-05 14:00:00,2025-08-05 07:00:00,2025-08-05 15:00:00,1,29.3,67,22.5,33.3,,0.0,0.0,0.0,0.0,0.0,3.0,1008.1,1002.9,99.0,0.0,87.0,85.0,24140.0,0.0,0.45,1.34
single_runs_api,gfs_global,2025-08-05 06:00:00,2025-08-05 14:00:00,2025-08-05 08:00:00,2025-08-05 16:00:00,2,29.7,65,22.4,33.7,,0.0,0.0,0.0,0.0,0.0,3.0,1007.8,1002.6,100.0,0.0,80.0,100.0,24140.0,0.0,0.46,1.46
single_runs_api,gfs_global,2025-08-05 06:00:00,2025-08-05 14:00:00,2025-08-05 09:00:00,2025-08-05 17:00:00,3,28.8,70,22.8,32.2,,0.0,0.0,0.0,0.0,0.0,3.0,1007.7,1002.5,100.0,25.0,74.0,100.0,24140.0,0.0,0.22,1.18
single_runs_api,gfs_global,2025-08-05 06:00:00,2025-08-05 14:00:00,2025-08-05 10:00:00,2025-08-05 18:00:00,4,27.9,75,23.0,31.2,,0.0,0.0,0.0,0.0,0.0,3.0,1008.1,1002.9,100.0,15.0,85.0,100.0,24140.0,0.0,0.13,0.94
single_runs_api,gfs_global,2025-08-05 06:00:00,2025-08-05 14:00:00,2025-08-05 11:00:00,2025-08-05 19:00:00,5,27.5,77,23.1,31.1,,0.0,0.0,0.0,0.0,0.0,3.0,1008.7,1003.4,100.0,5.0,98.0,100.0,24140.0,0.0,0.08,0.84
single_runs_api,gfs_global,2025-08-05 06:00:00,2025-08-05 14:00:00,2025-08-05 12:00:00,2025-08-05 20:00:00,6,27.5,77,23.1,31.2,,0.0,0.0,0.0,0.0,0.0,3.0,1009.2,1003.9,100.0,0.0,100.0,64.0,24140.0,0.0,0.06,0.84
single_runs_api,gfs_global,2025-08-05 12:00:00,2025-08-05 20:00:00,2025-08-05 13:00:00,2025-08-05 21:00:00,1,27.7,77,23.3,31.4,,0.0,0.0,0.0,0.0,0.0,3.0,1009.3,1004.0,100.0,5.0,100.0,100.0,24140.0,0.0,0.04,0.85
single_runs_api,gfs_global,2025-08-05 12:00:00,2025-08-05 20:00:00,2025-08-05 14:00:00,2025-08-05 22:00:00,2,27.7,78,23.5,31.3,,0.0,0.0,0.0,0.0,0.0,3.0,1009.8,1004.5,100.0,5.0,100.0,10.0,24140.0,0.0,0.05,0.81
single_runs_api,gfs_global,2025-08-05 12:00:00,2025-08-05 20:00:00,2025-08-05 15:00:00,2025-08-05 23:00:00,3,27.6,78,23.4,31.3,,0.0,0.0,0.0,0.0,0.0,3.0,1010.0,1004.7,100.0,19.0,100.0,93.0,24140.0,0.0,0.04,0.81
single_runs_api,gfs_global,2025-08-05 12:00:00,2025-08-05 20:00:00,2025-08-05 16:00:00,2025-08-06 00:00:00,4,27.4,78,23.2,31.6,,0.0,0.0,0.0,0.0,0.0,3.0,1009.9,1004.6,100.0,0.0,100.0,18.0,24140.0,0.0,0.03,0.8
single_runs_api,gfs_global,2025-08-05 12:00:00,2025-08-05 20:00:00,2025-08-05 17:00:00,2025-08-06 01:00:00,5,27.3,78,23.1,32.1,,0.0,0.0,0.0,0.0,0.0,2.0,1009.5,1004.2,75.0,0.0,68.0,10.0,24140.0,0.0,0.01,0.8
single_runs_api,gfs_global,2025-08-05 12:00:00,2025-08-05 20:00:00,2025-08-05 18:00:00,2025-08-06 02:00:00,6,27.0,79,23.0,31.5,,0.0,0.0,0.0,0.0,0.0,2.0,1008.8,1003.5,60.0,0.0,54.0,10.0,24140.0,0.0,0.01,0.75
single_runs_api,gfs_global,2025-08-05 18:00:00,2025-08-06 02:00:00,2025-08-05 19:00:00,2025-08-06 03:00:00,1,27.5,77,23.1,31.8,,0.0,0.0,0.0,0.0,0.0,3.0,1008.4,1003.1,100.0,5.0,100.0,28.0,24140.0,0.0,0.02,0.84
single_runs_api,gfs_global,2025-08-05 18:00:00,2025-08-06 02:00:00,2025-08-05 20:00:00,2025-08-06 04:00:00,2,27.5,77,23.1,31.9,,0.0,0.0,0.0,0.0,0.0,3.0,1008.2,1002.9,100.0,0.0,100.0,60.0,24140.0,0.0,0.02,0.84
single_runs_api,gfs_global,2025-08-05 18:00:00,2025-08-06 02:00:00,2025-08-05 21:00:00,2025-08-06 05:00:00,3,27.0,79,23.0,31.0,,0.2,0.0,0.2,0.0,0.0,51.0,1008.2,1002.9,57.0,0.0,49.0,10.0,24140.0,0.0,0.03,0.75
single_runs_api,gfs_global,2025-08-05 18:00:00,2025-08-06 02:00:00,2025-08-05 22:00:00,2025-08-06 06:00:00,4,26.8,79,22.8,30.1,,0.5,0.0,0.5,0.0,0.0,53.0,1008.8,1003.5,19.0,0.0,5.0,10.0,5780.0,0.0,0.04,0.74
single_runs_api,gfs_global,2025-08-05 18:00:00,2025-08-06 02:00:00,2025-08-05 23:00:00,2025-08-06 07:00:00,5,25.8,84,22.9,28.9,,4.0,0.0,4.0,0.0,0.0,81.0,1009.4,1004.1,100.0,0.0,5.0,100.0,24140.0,0.0,0.03,0.53
single_runs_api,gfs_global,2025-08-05 18:00:00,2025-08-06 02:00:00,2025-08-06 00:00:00,2025-08-06 08:00:00,6,26.8,80,23.0,30.3,,1.0,0.0,1.0,0.0,0.0,55.0,1010.1,1004.8,82.0,0.0,63.0,48.0,24140.0,0.0,0.06,0.7
single_runs_api,gfs_global,2025-08-06 00:00:00,2025-08-06 08:00:00,2025-08-06 01:00:00,2025-08-06 09:00:00,1,28.6,73,23.3,32.1,,0.0,0.0,0.0,0.0,0.0,1.0,1010.6,1005.4,22.0,0.0,5.0,14.0,24140.0,0.0,0.21,1.05
single_runs_api,gfs_global,2025-08-06 00:00:00,2025-08-06 08:00:00,2025-08-06 02:00:00,2025-08-06 10:00:00,2,29.3,70,23.2,32.2,,0.1,0.0,0.1,0.0,0.0,51.0,1010.6,1005.4,16.0,0.0,5.0,10.0,24140.0,0.0,0.37,1.22
single_runs_api,gfs_global,2025-08-06 00:00:00,2025-08-06 08:00:00,2025-08-06 03:00:00,2025-08-06 11:00:00,3,29.8,66,22.7,32.4,,0.0,0.0,0.0,0.0,0.0,2.0,1010.7,1005.5,57.0,0.0,51.0,10.0,11120.0,0.0,0.46,1.42
single_runs_api,gfs_global,2025-08-06 00:00:00,2025-08-06 08:00:00,2025-08-06 04:00:00,2025-08-06 12:00:00,4,30.0,64,22.4,33.2,,0.1,0.0,0.1,0.0,0.0,51.0,1010.4,1005.2,74.0,0.0,69.0,5.0,24140.0,0.0,0.57,1.52
single_runs_api,gfs_global,2025-08-06 00:00:00,2025-08-06 08:00:00,2025-08-06 05:00:00,2025-08-06 13:00:00,5,30.0,64,22.4,33.9,,0.8,0.0,0.8,0.0,0.0,53.0,1009.6,1004.4,51.0,0.0,10.0,44.0,24140.0,0.0,0.65,1.52
single_runs_api,gfs_global,2025-08-06 00:00:00,2025-08-06 08:00:00,2025-08-06 06:00:00,2025-08-06 14:00:00,6,29.8,64,22.2,33.2,,0.7,0.0,0.7,0.0,0.0,53.0,1008.8,1003.6,100.0,0.0,10.0,100.0,24140.0,0.0,0.57,1.51
single_runs_api,gfs_global,2025-08-06 06:00:00,2025-08-06 14:00:00,2025-08-06 07:00:00,2025-08-06 15:00:00,1,29.9,63,22.1,32.5,,0.1,0.0,0.1,0.0,0.0,51.0,1008.0,1002.8,100.0,0.0,100.0,100.0,24140.0,0.0,0.43,1.56
single_runs_api,gfs_global,2025-08-06 06:00:00,2025-08-06 14:00:00,2025-08-06 08:00:00,2025-08-06 16:00:00,2,30.5,60,21.8,33.1,,0.0,0.0,0.0,0.0,0.0,3.0,1007.2,1002.0,100.0,0.0,5.0,100.0,24140.0,0.0,0.48,1.74
single_runs_api,gfs_global,2025-08-06 06:00:00,2025-08-06 14:00:00,2025-08-06 09:00:00,2025-08-06 17:00:00,3,30.5,60,21.8,32.8,,0.0,0.0,0.0,0.0,0.0,3.0,1007.0,1001.8,100.0,0.0,5.0,100.0,24140.0,0.0,0.42,1.74
single_runs_api,gfs_global,2025-08-06 06:00:00,2025-08-06 14:00:00,2025-08-06 10:00:00,2025-08-06 18:00:00,4,30.0,63,22.2,32.6,,0.0,0.0,0.0,0.0,0.0,0.0,1007.4,1002.2,18.0,0.0,5.0,10.0,24140.0,0.0,0.3,1.57
single_runs_api,gfs_global,2025-08-06 06:00:00,2025-08-06 14:00:00,2025-08-06 11:00:00,2025-08-06 19:00:00,5,28.8,68,22.3,31.4,,0.0,0.0,0.0,0.0,0.0,0.0,1008.1,1002.9,14.0,0.0,5.0,5.0,24140.0,0.0,0.15,1.26
single_runs_api,gfs_global,2025-08-06 06:00:00,2025-08-06 14:00:00,2025-08-06 12:00:00,2025-08-06 20:00:00,6,28.4,70,22.4,31.3,,0.0,0.0,0.0,0.0,0.0,1.0,1008.9,1003.7,21.0,0.0,5.0,14.0,24140.0,0.0,0.07,1.16
single_runs_api,gfs_global,2025-08-06 12:00:00,2025-08-06 20:00:00,2025-08-06 13:00:00,2025-08-06 21:00:00,1,28.0,72,22.5,31.4,,0.1,0.0,0.1,0.0,0.0,51.0,1009.6,1004.3,62.0,0.0,0.0,60.0,24140.0,0.0,0.05,1.06
single_runs_api,gfs_global,2025-08-06 12:00:00,2025-08-06 20:00:00,2025-08-06 14:00:00,2025-08-06 22:00:00,2,27.9,74,22.8,31.4,,0.1,0.0,0.1,0.0,0.0,51.0,1010.1,1004.8,100.0,0.0,5.0,100.0,24140.0,0.0,0.05,0.97
single_runs_api,gfs_global,2025-08-06 12:00:00,2025-08-06 20:00:00,2025-08-06 15:00:00,2025-08-06 23:00:00,3,27.8,75,22.9,31.2,,0.0,0.0,0.0,0.0,0.0,3.0,1010.0,1004.7,83.0,0.0,5.0,81.0,24140.0,0.0,0.05,0.93
single_runs_api,gfs_global,2025-08-06 12:00:00,2025-08-06 20:00:00,2025-08-06 16:00:00,2025-08-07 00:00:00,4,27.5,78,23.3,31.1,,0.0,0.0,0.0,0.0,0.0,3.0,1009.9,1004.6,86.0,0.0,5.0,83.0,24140.0,0.0,0.04,0.81
single_runs_api,gfs_global,2025-08-06 12:00:00,2025-08-06 20:00:00,2025-08-06 17:00:00,2025-08-07 01:00:00,5,27.4,79,23.4,31.3,,0.0,0.0,0.0,0.0,0.0,3.0,1009.5,1004.2,96.0,0.0,5.0,96.0,24140.0,0.0,0.04,0.76
single_runs_api,gfs_global,2025-08-06 12:00:00,2025-08-06 20:00:00,2025-08-06 18:00:00,2025-08-07 02:00:00,6,27.3,78,23.1,31.0,,0.0,0.0,0.0,0.0,0.0,2.0,1008.7,1003.4,73.0,0.0,5.0,66.0,22080.0,0.0,0.04,0.8
single_runs_api,gfs_global,2025-08-06 18:00:00,2025-08-07 02:00:00,2025-08-06 19:00:00,2025-08-07 03:00:00,1,27.1,78,22.9,31.2,,0.0,0.0,0.0,0.0,0.0,3.0,1008.8,1003.5,84.0,0.0,5.0,83.0,24140.0,0.0,0.02,0.79
single_runs_api,gfs_global,2025-08-06 18:00:00,2025-08-07 02:00:00,2025-08-06 20:00:00,2025-08-07 04:00:00,2,26.5,80,22.7,30.6,,0.6,0.0,0.6,0.0,0.0,53.0,1008.7,1003.4,100.0,0.0,5.0,100.0,24140.0,0.0,0.02,0.69
single_runs_api,gfs_global,2025-08-06 18:00:00,2025-08-07 02:00:00,2025-08-06 21:00:00,2025-08-07 05:00:00,3,26.6,80,22.8,31.0,,0.5,0.0,0.5,0.0,0.0,53.0,1008.6,1003.3,100.0,0.0,5.0,100.0,24140.0,0.0,0.01,0.69
single_runs_api,gfs_global,2025-08-06 18:00:00,2025-08-07 02:00:00,2025-08-06 22:00:00,2025-08-07 06:00:00,4,26.6,80,22.8,31.1,,0.1,0.0,0.1,0.0,0.0,51.0,1009.0,1003.7,21.0,0.0,5.0,14.0,24140.0,0.0,0.01,0.69
single_runs_api,gfs_global,2025-08-06 18:00:00,2025-08-07 02:00:00,2025-08-06 23:00:00,2025-08-07 07:00:00,5,26.5,81,22.9,31.2,,0.2,0.0,0.2,0.0,0.0,51.0,1009.3,1004.0,20.0,0.0,10.0,10.0,19880.0,0.0,0.0,0.66
single_runs_api,gfs_global,2025-08-06 18:00:00,2025-08-07 02:00:00,2025-08-07 00:00:00,2025-08-07 08:00:00,6,27.0,79,23.0,31.9,,0.9,0.0,0.9,0.0,0.0,53.0,1010.1,1004.8,57.0,0.0,0.0,57.0,24140.0,0.0,0.03,0.75
single_runs_api,gfs_global,2025-08-07 00:00:00,2025-08-07 08:00:00,2025-08-07 01:00:00,2025-08-07 09:00:00,1,28.5,73,23.2,32.8,,0.2,0.0,0.2,0.0,0.0,51.0,1010.3,1005.1,12.0,0.0,0.0,10.0,24140.0,0.0,0.2,1.05
single_runs_api,gfs_global,2025-08-07 00:00:00,2025-08-07 08:00:00,2025-08-07 02:00:00,2025-08-07 10:00:00,2,29.5,68,22.9,33.2,,0.3,0.0,0.3,0.0,0.0,51.0,1010.5,1005.3,69.0,0.0,0.0,66.0,8380.0,0.0,0.37,1.32
single_runs_api,gfs_global,2025-08-07 00:00:00,2025-08-07 08:00:00,2025-08-07 03:00:00,2025-08-07 11:00:00,3,30.4,63,22.5,34.2,,0.2,0.0,0.2,0.0,0.0,51.0,1010.4,1005.2,45.0,0.0,0.0,43.0,20060.0,0.0,0.52,1.6
single_runs_api,gfs_global,2025-08-07 00:00:00,2025-08-07 08:00:00,2025-08-07 04:00:00,2025-08-07 12:00:00,4,31.1,59,22.1,35.7,,0.0,0.0,0.0,0.0,0.0,0.0,1009.8,1004.6,6.0,0.0,0.0,5.0,24140.0,0.0,0.64,1.85
single_runs_api,gfs_global,2025-08-07 00:00:00,2025-08-07 08:00:00,2025-08-07 05:00:00,2025-08-07 13:00:00,5,31.7,57,22.1,36.9,,0.0,0.0,0.0,0.0,0.0,0.0,1009.1,1003.9,12.0,0.0,0.0,10.0,24140.0,0.0,0.71,2.0
single_runs_api,gfs_global,2025-08-07 00:00:00,2025-08-07 08:00:00,2025-08-07 06:00:00,2025-08-07 14:00:00,6,31.8,57,22.2,36.9,,0.0,0.0,0.0,0.0,0.0,1.0,1008.1,1002.9,27.0,22.0,0.0,5.0,24140.0,0.0,0.72,2.02
single_runs_api,gfs_global,2025-08-07 06:00:00,2025-08-07 14:00:00,2025-08-07 07:00:00,2025-08-07 15:00:00,1,31.3,59,22.3,36.0,,0.2,0.0,0.2,0.0,0.0,51.0,1007.6,1002.4,11.0,2.0,0.0,10.0,22440.0,0.0,0.67,1.87
single_runs_api,gfs_global,2025-08-07 06:00:00,2025-08-07 14:00:00,2025-08-07 08:00:00,2025-08-07 16:00:00,2,31.2,59,22.2,35.2,,0.4,0.0,0.4,0.0,0.0,51.0,1007.3,1002.1,6.0,0.0,0.0,5.0,24140.0,0.0,0.56,1.86
single_runs_api,gfs_global,2025-08-07 06:00:00,2025-08-07 14:00:00,2025-08-07 09:00:00,2025-08-07 17:00:00,3,30.9,60,22.2,34.3,,0.1,0.0,0.1,0.0,0.0,51.0,1007.3,1002.1,100.0,6.0,0.0,100.0,24140.0,0.0,0.4,1.78
single_runs_api,gfs_global,2025-08-07 06:00:00,2025-08-07 14:00:00,2025-08-07 10:00:00,2025-08-07 18:00:00,4,30.5,62,22.4,33.9,,0.1,0.0,0.1,0.0,0.0,51.0,1007.6,1002.4,100.0,18.0,0.0,100.0,21560.0,0.0,0.27,1.65
single_runs_api,gfs_global,2025-08-07 06:00:00,2025-08-07 14:00:00,2025-08-07 11:00:00,2025-08-07 19:00:00,5,29.6,67,22.8,33.3,,0.0,0.0,0.0,0.0,0.0,2.0,1008.2,1003.0,53.0,0.0,0.0,51.0,24140.0,0.0,0.13,1.36
single_runs_api,gfs_global,2025-08-07 06:00:00,2025-08-07 14:00:00,2025-08-07 12:00:00,2025-08-07 20:00:00,6,29.0,68,22.5,32.4,,0.0,0.0,0.0,0.0,0.0,2.0,1008.7,1003.5,77.0,0.0,0.0,77.0,24140.0,0.0,0.06,1.28
single_runs_api,gfs_global,2025-08-07 12:00:00,2025-08-07 20:00:00,2025-08-07 13:00:00,2025-08-07 21:00:00,1,28.7,70,22.7,32.4,,0.0,0.0,0.0,0.0,0.0,1.0,1009.3,1004.1,37.0,0.0,0.0,34.0,24140.0,0.0,0.05,1.18
single_runs_api,gfs_global,2025-08-07 12:00:00,2025-08-07 20:00:00,2025-08-07 14:00:00,2025-08-07 22:00:00,2,28.4,72,22.8,32.2,,0.0,0.0,0.0,0.0,0.0,1.0,1009.9,1004.7,49.0,0.0,0.0,47.0,24140.0,0.0,0.04,1.08
single_runs_api,gfs_global,2025-08-07 12:00:00,2025-08-07 20:00:00,2025-08-07 15:00:00,2025-08-07 23:00:00,3,28.2,73,22.9,32.1,,0.0,0.0,0.0,0.0,0.0,0.0,1010.2,1004.9,6.0,0.0,0.0,5.0,24140.0,0.0,0.04,1.03
single_runs_api,gfs_global,2025-08-07 12:00:00,2025-08-07 20:00:00,2025-08-07 16:00:00,2025-08-08 00:00:00,4,28.0,75,23.1,32.3,,0.0,0.0,0.0,0.0,0.0,0.0,1010.2,1004.9,11.0,0.0,0.0,10.0,24140.0,0.0,0.03,0.94
single_runs_api,gfs_global,2025-08-07 12:00:00,2025-08-07 20:00:00,2025-08-07 17:00:00,2025-08-08 01:00:00,5,27.8,76,23.1,32.1,,0.0,0.0,0.0,0.0,0.0,2.0,1009.9,1004.6,69.0,0.0,0.0,69.0,24140.0,0.0,0.02,0.89
single_runs_api,gfs_global,2025-08-07 12:00:00,2025-08-07 20:00:00,2025-08-07 18:00:00,2025-08-08 02:00:00,6,27.2,79,23.2,31.5,,0.4,0.0,0.4,0.0,0.0,51.0,1009.4,1004.1,101.0,0.0,0.0,100.0,24140.0,0.0,0.02,0.76
single_runs_api,gfs_global,2025-08-07 18:00:00,2025-08-08 02:00:00,2025-08-07 19:00:00,2025-08-08 03:00:00,1,27.2,78,23.0,31.6,,0.0,0.0,0.0,0.0,0.0,0.0,1009.0,1003.7,14.0,0.0,0.0,10.0,24140.0,0.0,0.02,0.79
single_runs_api,gfs_global,2025-08-07 18:00:00,2025-08-08 02:00:00,2025-08-07 20:00:00,2025-08-08 04:00:00,2,26.9,80,23.1,31.3,,0.2,0.0,0.2,0.0,0.0,51.0,1009.0,1003.7,85.0,0.0,0.0,84.0,24140.0,0.0,0.02,0.71
single_runs_api,gfs_global,2025-08-07 18:00:00,2025-08-08 02:00:00,2025-08-07 21:00:00,2025-08-08 05:00:00,3,26.9,79,22.9,31.3,,0.0,0.0,0.0,0.0,0.0,3.0,1009.0,1003.7,100.0,0.0,0.0,100.0,24140.0,0.0,0.01,0.74
single_runs_api,gfs_global,2025-08-07 18:00:00,2025-08-08 02:00:00,2025-08-07 22:00:00,2025-08-08 06:00:00,4,26.8,80,23.0,31.2,,0.0,0.0,0.0,0.0,0.0,3.0,1009.7,1004.4,100.0,0.0,0.0,100.0,24140.0,0.0,0.02,0.7
single_runs_api,gfs_global,2025-08-07 18:00:00,2025-08-08 02:00:00,2025-08-07 23:00:00,2025-08-08 07:00:00,5,26.8,80,23.0,31.3,,0.0,0.0,0.0,0.0,0.0,3.0,1010.0,1004.7,100.0,0.0,5.0,100.0,24140.0,0.0,0.01,0.7
single_runs_api,gfs_global,2025-08-07 18:00:00,2025-08-08 02:00:00,2025-08-08 00:00:00,2025-08-08 08:00:00,6,27.4,80,23.6,32.1,,0.0,0.0,0.0,0.0,0.0,3.0,1010.9,1005.6,100.0,0.0,5.0,100.0,24140.0,0.0,0.05,0.73
single_runs_api,gfs_global,2025-08-08 00:00:00,2025-08-08 08:00:00,2025-08-08 01:00:00,2025-08-08 09:00:00,1,28.8,71,23.0,32.6,,0.0,0.0,0.0,0.0,0.0,3.0,1011.2,1006.0,100.0,0.0,0.0,100.0,24140.0,0.0,0.19,1.15
single_runs_api,gfs_global,2025-08-08 00:00:00,2025-08-08 08:00:00,2025-08-08 02:00:00,2025-08-08 10:00:00,2,30.1,61,21.7,32.8,,0.0,0.0,0.0,0.0,0.0,3.0,1011.6,1006.4,100.0,0.0,0.0,100.0,24140.0,0.0,0.38,1.66
single_runs_api,gfs_global,2025-08-08 00:00:00,2025-08-08 08:00:00,2025-08-08 03:00:00,2025-08-08 11:00:00,3,30.9,57,21.4,33.9,,0.0,0.0,0.0,0.0,0.0,2.0,1011.4,1006.2,67.0,0.0,0.0,64.0,24140.0,0.0,0.53,1.92
single_runs_api,gfs_global,2025-08-08 00:00:00,2025-08-08 08:00:00,2025-08-08 04:00:00,2025-08-08 12:00:00,4,31.4,55,21.2,35.2,,0.0,0.0,0.0,0.0,0.0,3.0,1011.0,1005.8,100.0,0.0,0.0,100.0,24140.0,0.0,0.63,2.06
single_runs_api,gfs_global,2025-08-08 00:00:00,2025-08-08 08:00:00,2025-08-08 05:00:00,2025-08-08 13:00:00,5,32.1,52,21.0,36.9,,0.0,0.0,0.0,0.0,0.0,1.0,1010.4,1005.2,32.0,0.0,0.0,29.0,24140.0,0.0,0.73,2.29
single_runs_api,gfs_global,2025-08-08 00:00:00,2025-08-08 08:00:00,2025-08-08 06:00:00,2025-08-08 14:00:00,6,32.3,50,20.5,36.9,,0.1,0.0,0.1,0.0,0.0,51.0,1009.7,1004.5,17.0,0.0,0.0,14.0,24140.0,0.0,0.74,2.41
single_runs_api,gfs_global,2025-08-08 06:00:00,2025-08-08 14:00:00,2025-08-08 07:00:00,2025-08-08 15:00:00,1,32.4,48,20.0,36.2,,0.0,0.0,0.0,0.0,0.0,3.0,1009.1,1003.9,100.0,0.0,0.0,100.0,24140.0,0.0,0.66,2.52
single_runs_api,gfs_global,2025-08-08 06:00:00,2025-08-08 14:00:00,2025-08-08 08:00:00,2025-08-08 16:00:00,2,32.1,50,20.3,35.4,,0.0,0.0,0.0,0.0,0.0,3.0,1008.5,1003.3,100.0,0.0,5.0,100.0,24140.0,0.0,0.56,2.38
single_runs_api,gfs_global,2025-08-08 06:00:00,2025-08-08 14:00:00,2025-08-08 09:00:00,2025-08-08 17:00:00,3,31.4,54,20.9,33.9,,0.0,0.0,0.0,0.0,0.0,3.0,1008.3,1003.1,100.0,19.0,5.0,100.0,24140.0,0.0,0.43,2.11
single_runs_api,gfs_global,2025-08-08 06:00:00,2025-08-08 14:00:00,2025-08-08 10:00:00,2025-08-08 18:00:00,4,30.7,57,21.2,33.3,,0.0,0.0,0.0,0.0,0.0,3.0,1008.6,1003.4,96.0,15.0,0.0,94.0,24140.0,0.0,0.29,1.89
single_runs_api,gfs_global,2025-08-08 06:00:00,2025-08-08 14:00:00,2025-08-08 11:00:00,2025-08-08 19:00:00,5,29.5,64,21.9,32.6,,0.0,0.0,0.0,0.0,0.0,3.0,1009.2,1004.0,100.0,0.0,0.0,100.0,24140.0,0.0,0.13,1.48
single_runs_api,gfs_global,2025-08-08 06:00:00,2025-08-08 14:00:00,2025-08-08 12:00:00,2025-08-08 20:00:00,6,29.0,66,22.0,32.0,,0.0,0.0,0.0,0.0,0.0,3.0,1009.8,1004.6,100.0,0.0,5.0,100.0,24140.0,0.0,0.07,1.36
single_runs_api,gfs_global,2025-08-08 12:00:00,2025-08-08 20:00:00,2025-08-08 13:00:00,2025-08-08 21:00:00,1,28.7,67,21.9,31.6,,0.0,0.0,0.0,0.0,0.0,3.0,1010.6,1005.4,100.0,0.0,5.0,100.0,24140.0,0.0,0.07,1.3
single_runs_api,gfs_global,2025-08-08 12:00:00,2025-08-08 20:00:00,2025-08-08 14:00:00,2025-08-08 22:00:00,2,28.4,70,22.4,31.6,,0.0,0.0,0.0,0.0,0.0,3.0,1011.1,1005.8,100.0,0.0,5.0,100.0,24140.0,0.0,0.06,1.16
single_runs_api,gfs_global,2025-08-08 12:00:00,2025-08-08 20:00:00,2025-08-08 15:00:00,2025-08-08 23:00:00,3,28.0,74,22.9,31.8,,0.0,0.0,0.0,0.0,0.0,1.0,1011.6,1006.3,22.0,0.0,5.0,14.0,24140.0,0.0,0.04,0.98
single_runs_api,gfs_global,2025-08-08 12:00:00,2025-08-08 20:00:00,2025-08-08 16:00:00,2025-08-09 00:00:00,4,27.9,75,23.0,31.9,,0.0,0.0,0.0,0.0,0.0,3.0,1011.6,1006.3,99.0,0.0,65.0,95.0,24140.0,0.0,0.04,0.94
single_runs_api,gfs_global,2025-08-08 12:00:00,2025-08-08 20:00:00,2025-08-08 17:00:00,2025-08-09 01:00:00,5,28.1,75,23.2,32.4,,0.0,0.0,0.0,0.0,0.0,3.0,1011.2,1005.9,100.0,0.0,100.0,100.0,24140.0,0.0,0.03,0.95
single_runs_api,gfs_global,2025-08-08 12:00:00,2025-08-08 20:00:00,2025-08-08 18:00:00,2025-08-09 02:00:00,6,27.8,75,22.9,32.0,,0.2,0.0,0.2,0.0,0.0,51.0,1010.7,1005.4,100.0,0.0,100.0,100.0,5760.0,0.0,0.03,0.93
single_runs_api,gfs_global,2025-08-08 18:00:00,2025-08-09 02:00:00,2025-08-08 19:00:00,2025-08-09 03:00:00,1,27.8,74,22.7,32.3,,0.1,0.0,0.1,0.0,0.0,51.0,1010.6,1005.3,91.0,0.0,83.0,41.0,24140.0,0.0,0.01,0.97
single_runs_api,gfs_global,2025-08-08 18:00:00,2025-08-09 02:00:00,2025-08-08 20:00:00,2025-08-09 04:00:00,2,27.4,76,22.8,32.3,,0.0,0.0,0.0,0.0,0.0,2.0,1010.3,1005.0,75.0,0.0,52.0,46.0,24140.0,0.0,0.0,0.87
single_runs_api,gfs_global,2025-08-08 18:00:00,2025-08-09 02:00:00,2025-08-08 21:00:00,2025-08-09 05:00:00,3,27.1,77,22.7,31.8,,0.1,0.0,0.1,0.0,0.0,51.0,1010.3,1005.0,37.0,0.0,5.0,31.0,24140.0,0.0,0.0,0.82
single_runs_api,gfs_global,2025-08-08 18:00:00,2025-08-09 02:00:00,2025-08-08 22:00:00,2025-08-09 06:00:00,4,26.8,79,22.8,31.5,,0.4,0.0,0.4,0.0,0.0,51.0,1010.6,1005.3,30.0,0.0,10.0,19.0,24140.0,0.0,0.0,0.74
single_runs_api,gfs_global,2025-08-08 18:00:00,2025-08-09 02:00:00,2025-08-08 23:00:00,2025-08-09 07:00:00,5,26.2,82,22.9,30.9,,0.7,0.0,0.7,0.0,0.0,53.0,1011.1,1005.8,21.0,0.0,5.0,10.0,24140.0,0.0,0.0,0.61
single_runs_api,gfs_global,2025-08-08 18:00:00,2025-08-09 02:00:00,2025-08-09 00:00:00,2025-08-09 08:00:00,6,27.3,77,22.9,32.0,,0.2,0.0,0.2,0.0,0.0,51.0,1011.8,1006.5,23.0,0.0,5.0,14.0,24140.0,0.0,0.04,0.83
single_runs_api,gfs_global,2025-08-09 00:00:00,2025-08-09 08:00:00,2025-08-09 01:00:00,2025-08-09 09:00:00,1,28.3,73,23.0,32.9,,0.0,0.0,0.0,0.0,0.0,1.0,1012.4,1007.1,47.0,0.0,5.0,39.0,24140.0,0.0,0.19,1.04
single_runs_api,gfs_global,2025-08-09 00:00:00,2025-08-09 08:00:00,2025-08-09 02:00:00,2025-08-09 10:00:00,2,29.3,68,22.8,33.5,,0.0,0.0,0.0,0.0,0.0,3.0,1012.5,1007.3,100.0,0.0,5.0,100.0,24140.0,0.0,0.36,1.3
single_runs_api,gfs_global,2025-08-09 00:00:00,2025-08-09 08:00:00,2025-08-09 03:00:00,2025-08-09 11:00:00,3,30.3,62,22.2,34.9,,0.0,0.0,0.0,0.0,0.0,2.0,1012.3,1007.1,50.0,0.0,5.0,42.0,24140.0,0.0,0.52,1.64
single_runs_api,gfs_global,2025-08-09 00:00:00,2025-08-09 08:00:00,2025-08-09 04:00:00,2025-08-09 12:00:00,4,30.9,59,21.9,35.4,,0.0,0.0,0.0,0.0,0.0,3.0,1011.6,1006.4,100.0,0.0,5.0,100.0,24140.0,0.0,0.64,1.83
single_runs_api,gfs_global,2025-08-09 00:00:00,2025-08-09 08:00:00,2025-08-09 05:00:00,2025-08-09 13:00:00,5,31.1,58,21.8,35.7,,0.0,0.0,0.0,0.0,0.0,3.0,1010.9,1005.7,100.0,0.0,5.0,100.0,24140.0,0.0,0.7,1.89
single_runs_api,gfs_global,2025-08-09 00:00:00,2025-08-09 08:00:00,2025-08-09 06:00:00,2025-08-09 14:00:00,6,31.0,59,22.0,35.5,,0.1,0.0,0.1,0.0,0.0,51.0,1010.0,1004.8,100.0,0.0,5.0,100.0,24140.0,0.0,0.7,1.84
single_runs_api,gfs_global,2025-08-09 06:00:00,2025-08-09 14:00:00,2025-08-09 07:00:00,2025-08-09 15:00:00,1,30.9,60,22.2,35.1,,0.0,0.0,0.0,0.0,0.0,3.0,1009.2,1004.0,100.0,5.0,5.0,100.0,24140.0,0.0,0.66,1.78
single_runs_api,gfs_global,2025-08-09 06:00:00,2025-08-09 14:00:00,2025-08-09 08:00:00,2025-08-09 16:00:00,2,30.7,60,22.0,34.4,,0.0,0.0,0.0,0.0,0.0,1.0,1008.5,1003.3,21.0,0.0,5.0,14.0,24140.0,0.0,0.57,1.76
single_runs_api,gfs_global,2025-08-09 06:00:00,2025-08-09 14:00:00,2025-08-09 09:00:00,2025-08-09 17:00:00,3,30.5,61,22.1,33.5,,0.0,0.0,0.0,0.0,0.0,0.0,1008.1,1002.9,11.0,0.0,5.0,5.0,24140.0,0.0,0.45,1.7
single_runs_api,gfs_global,2025-08-09 06:00:00,2025-08-09 14:00:00,2025-08-09 10:00:00,2025-08-09 18:00:00,4,30.1,62,22.0,33.3,,0.0,0.0,0.0,0.0,0.0,0.0,1008.4,1003.2,11.0,0.0,5.0,5.0,24140.0,0.0,0.29,1.62
single_runs_api,gfs_global,2025-08-09 06:00:00,2025-08-09 14:00:00,2025-08-09 11:00:00,2025-08-09 19:00:00,5,29.3,68,22.8,33.4,,0.0,0.0,0.0,0.0,0.0,0.0,1008.8,1003.6,16.0,0.0,5.0,10.0,24140.0,0.0,0.11,1.3
single_runs_api,gfs_global,2025-08-09 06:00:00,2025-08-09 14:00:00,2025-08-09 12:00:00,2025-08-09 20:00:00,6,29.0,68,22.5,32.9,,0.0,0.0,0.0,0.0,0.0,0.0,1009.5,1004.3,13.0,0.0,5.0,6.0,24140.0,0.0,0.05,1.28
single_runs_api,gfs_global,2025-08-09 12:00:00,2025-08-09 20:00:00,2025-08-09 13:00:00,2025-08-09 21:00:00,1,28.8,70,22.8,33.0,,0.0,0.0,0.0,0.0,0.0,0.0,1010.1,1004.9,11.0,0.0,0.0,10.0,24140.0,0.0,0.03,1.18
single_runs_api,gfs_global,2025-08-09 12:00:00,2025-08-09 20:00:00,2025-08-09 14:00:00,2025-08-09 22:00:00,2,28.5,71,22.7,32.4,,0.0,0.0,0.0,0.0,0.0,0.0,1011.0,1005.7,19.0,0.0,0.0,18.0,24140.0,0.0,0.04,1.13
single_runs_api,gfs_global,2025-08-09 12:00:00,2025-08-09 20:00:00,2025-08-09 15:00:00,2025-08-09 23:00:00,3,28.2,72,22.6,31.6,,0.0,0.0,0.0,0.0,0.0,0.0,1011.4,1006.1,17.0,0.0,0.0,14.0,24140.0,0.0,0.05,1.07
single_runs_api,gfs_global,2025-08-09 12:00:00,2025-08-09 20:00:00,2025-08-09 16:00:00,2025-08-10 00:00:00,4,27.8,74,22.7,31.5,,0.0,0.0,0.0,0.0,0.0,3.0,1011.6,1006.3,100.0,0.0,0.0,100.0,24140.0,0.0,0.04,0.97
single_runs_api,gfs_global,2025-08-09 12:00:00,2025-08-09 20:00:00,2025-08-09 17:00:00,2025-08-10 01:00:00,5,27.6,76,23.0,31.6,,0.0,0.0,0.0,0.0,0.0,3.0,1011.2,1005.9,100.0,0.0,0.0,100.0,24140.0,0.0,0.03,0.88
single_runs_api,gfs_global,2025-08-09 12:00:00,2025-08-09 20:00:00,2025-08-09 18:00:00,2025-08-10 02:00:00,6,27.4,78,23.2,31.5,,0.0,0.0,0.0,0.0,0.0,3.0,1010.3,1005.0,100.0,0.0,0.0,100.0,24140.0,0.0,0.03,0.8
single_runs_api,gfs_global,2025-08-09 18:00:00,2025-08-10 02:00:00,2025-08-09 19:00:00,2025-08-10 03:00:00,1,27.2,79,23.2,31.5,,0.0,0.0,0.0,0.0,0.0,3.0,1010.0,1004.7,100.0,0.0,0.0,100.0,24140.0,0.0,0.02,0.76
single_runs_api,gfs_global,2025-08-09 18:00:00,2025-08-10 02:00:00,2025-08-09 20:00:00,2025-08-10 04:00:00,2,27.1,80,23.3,31.6,,0.0,0.0,0.0,0.0,0.0,3.0,1009.7,1004.4,100.0,0.0,0.0,100.0,24140.0,0.0,0.02,0.72
single_runs_api,gfs_global,2025-08-09 18:00:00,2025-08-10 02:00:00,2025-08-09 21:00:00,2025-08-10 05:00:00,3,26.8,81,23.2,31.4,,0.0,0.0,0.0,0.0,0.0,3.0,1009.7,1004.4,100.0,0.0,5.0,100.0,24140.0,0.0,0.01,0.67
single_runs_api,gfs_global,2025-08-09 18:00:00,2025-08-10 02:00:00,2025-08-09 22:00:00,2025-08-10 06:00:00,4,26.4,83,23.2,30.9,,1.0,0.0,1.0,0.0,0.0,55.0,1010.1,1004.8,100.0,0.0,5.0,100.0,15560.0,0.0,0.01,0.58
single_runs_api,gfs_global,2025-08-09 18:00:00,2025-08-10 02:00:00,2025-08-09 23:00:00,2025-08-10 07:00:00,5,26.6,82,23.2,30.9,,0.1,0.0,0.1,0.0,0.0,51.0,1010.3,1005.0,82.0,0.0,5.0,80.0,24140.0,0.0,0.02,0.63
single_runs_api,gfs_global,2025-08-09 18:00:00,2025-08-10 02:00:00,2025-08-10 00:00:00,2025-08-10 08:00:00,6,27.3,80,23.5,31.4,,0.0,0.0,0.0,0.0,0.0,0.0,1011.0,1005.7,18.0,0.0,0.0,14.0,24140.0,0.0,0.06,0.72
single_runs_api,gfs_global,2025-08-10 00:00:00,2025-08-10 08:00:00,2025-08-10 01:00:00,2025-08-10 09:00:00,1,28.5,73,23.2,32.3,,0.1,0.0,0.1,0.0,0.0,51.0,1011.4,1006.1,88.0,0.0,0.0,87.0,24140.0,0.0,0.21,1.05
single_runs_api,gfs_global,2025-08-10 00:00:00,2025-08-10 08:00:00,2025-08-10 02:00:00,2025-08-10 10:00:00,2,29.4,68,22.8,32.9,,0.1,0.0,0.1,0.0,0.0,51.0,1011.8,1006.6,100.0,0.0,0.0,100.0,24140.0,0.0,0.37,1.31
single_runs_api,gfs_global,2025-08-10 00:00:00,2025-08-10 08:00:00,2025-08-10 03:00:00,2025-08-10 11:00:00,3,30.1,63,22.3,34.1,,0.0,0.0,0.0,0.0,0.0,3.0,1011.8,1006.6,100.0,0.0,0.0,100.0,22320.0,0.0,0.52,1.57
single_runs_api,gfs_global,2025-08-10 00:00:00,2025-08-10 08:00:00,2025-08-10 04:00:00,2025-08-10 12:00:00,4,30.6,60,21.9,34.9,,0.1,0.0,0.1,0.0,0.0,51.0,1011.6,1006.4,100.0,12.0,0.0,100.0,24140.0,0.0,0.63,1.75
single_runs_api,gfs_global,2025-08-10 00:00:00,2025-08-10 08:00:00,2025-08-10 05:00:00,2025-08-10 13:00:00,5,30.7,60,22.0,34.9,,0.1,0.0,0.1,0.0,0.0,51.0,1010.8,1005.6,71.0,6.0,0.0,68.0,18180.0,0.0,0.69,1.76
single_runs_api,gfs_global,2025-08-10 00:00:00,2025-08-10 08:00:00,2025-08-10 06:00:00,2025-08-10 14:00:00,6,30.6,60,21.9,35.1,,0.2,0.0,0.2,0.0,0.0,51.0,1009.7,1004.5,41.0,6.0,5.0,30.0,20180.0,0.0,0.69,1.75
single_runs_api,gfs_global,2025-08-10 06:00:00,2025-08-10 14:00:00,2025-08-10 07:00:00,2025-08-10 15:00:00,1,30.6,59,21.6,35.1,,0.0,0.0,0.0,0.0,0.0,3.0,1009.0,1003.8,100.0,22.0,0.0,100.0,22120.0,0.0,0.65,1.8
single_runs_api,gfs_global,2025-08-10 06:00:00,2025-08-10 14:00:00,2025-08-10 08:00:00,2025-08-10 16:00:00,2,30.3,60,21.6,34.0,,0.0,0.0,0.0,0.0,0.0,0.0,1008.1,1002.9,16.0,0.0,0.0,14.0,24140.0,0.0,0.57,1.72
single_runs_api,gfs_global,2025-08-10 06:00:00,2025-08-10 14:00:00,2025-08-10 09:00:00,2025-08-10 17:00:00,3,29.9,60,21.3,32.8,,0.0,0.0,0.0,0.0,0.0,0.0,1007.7,1002.5,15.0,0.0,0.0,14.0,24140.0,0.0,0.44,1.68
single_runs_api,gfs_global,2025-08-10 06:00:00,2025-08-10 14:00:00,2025-08-10 10:00:00,2025-08-10 18:00:00,4,29.3,62,21.2,32.1,,0.0,0.0,0.0,0.0,0.0,3.0,1007.9,1002.7,100.0,0.0,10.0,100.0,20280.0,0.0,0.27,1.54
single_runs_api,gfs_global,2025-08-10 06:00:00,2025-08-10 14:00:00,2025-08-10 11:00:00,2025-08-10 19:00:00,5,28.3,68,21.8,31.7,,0.1,0.0,0.1,0.0,0.0,51.0,1008.9,1003.7,100.0,0.0,14.0,100.0,24140.0,0.0,0.1,1.23
single_runs_api,gfs_global,2025-08-10 06:00:00,2025-08-10 14:00:00,2025-08-10 12:00:00,2025-08-10 20:00:00,6,28.0,69,21.8,31.7,,0.1,0.0,0.1,0.0,0.0,51.0,1009.7,1004.4,100.0,0.0,15.0,100.0,24140.0,0.0,0.04,1.17
single_runs_api,gfs_global,2025-08-10 12:00:00,2025-08-10 20:00:00,2025-08-10 13:00:00,2025-08-10 21:00:00,1,27.7,72,22.2,31.8,,0.2,0.0,0.2,0.0,0.0,51.0,1010.1,1004.8,100.0,0.0,10.0,100.0,20060.0,0.0,0.02,1.04
single_runs_api,gfs_global,2025-08-10 12:00:00,2025-08-10 20:00:00,2025-08-10 14:00:00,2025-08-10 22:00:00,2,27.5,73,22.2,31.5,,0.0,0.0,0.0,0.0,0.0,3.0,1011.0,1005.7,100.0,0.0,5.0,100.0,18380.0,0.0,0.02,0.99
single_runs_api,gfs_global,2025-08-10 12:00:00,2025-08-10 20:00:00,2025-08-10 15:00:00,2025-08-10 23:00:00,3,27.4,74,22.3,31.2,,0.0,0.0,0.0,0.0,0.0,3.0,1011.3,1006.0,100.0,0.0,5.0,100.0,11960.0,0.0,0.03,0.95
single_runs_api,gfs_global,2025-08-10 12:00:00,2025-08-10 20:00:00,2025-08-10 16:00:00,2025-08-11 00:00:00,4,27.1,76,22.5,30.7,,0.2,0.0,0.2,0.0,0.0,51.0,1011.4,1006.1,100.0,0.0,14.0,100.0,24140.0,0.0,0.03,0.86
single_runs_api,gfs_global,2025-08-10 12:00:00,2025-08-10 20:00:00,2025-08-10 17:00:00,2025-08-11 01:00:00,5,26.1,81,22.6,29.5,,1.5,0.0,1.5,0.0,0.0,80.0,1010.7,1005.4,100.0,0.0,79.0,100.0,24140.0,0.0,0.03,0.64
single_runs_api,gfs_global,2025-08-10 12:00:00,2025-08-10 20:00:00,2025-08-10 18:00:00,2025-08-11 02:00:00,6,25.6,83,22.5,28.7,,2.0,0.0,2.0,0.0,0.0,80.0,1010.1,1004.8,100.0,11.0,100.0,89.0,5860.0,0.0,0.03,0.56
single_runs_api,gfs_global,2025-08-10 18:00:00,2025-08-11 02:00:00,2025-08-10 19:00:00,2025-08-11 03:00:00,1,26.4,79,22.4,30.3,,0.0,0.0,0.0,0.0,0.0,1.0,1009.2,1003.9,28.0,0.0,5.0,19.0,24140.0,0.0,0.02,0.72
single_runs_api,gfs_global,2025-08-10 18:00:00,2025-08-11 02:00:00,2025-08-10 20:00:00,2025-08-11 04:00:00,2,25.3,85,22.6,29.4,,3.1,0.0,3.1,0.0,0.0,81.0,1008.9,1003.6,100.0,35.0,5.0,100.0,24140.0,0.0,0.01,0.48
single_runs_api,gfs_global,2025-08-10 18:00:00,2025-08-11 02:00:00,2025-08-10 21:00:00,2025-08-11 05:00:00,3,25.4,85,22.7,29.2,,0.4,0.0,0.4,0.0,0.0,51.0,1008.6,1003.3,100.0,45.0,5.0,100.0,24140.0,0.0,0.01,0.49
single_runs_api,gfs_global,2025-08-10 18:00:00,2025-08-11 02:00:00,2025-08-10 22:00:00,2025-08-11 06:00:00,4,25.2,85,22.5,28.8,,1.0,0.0,1.0,0.0,0.0,55.0,1009.0,1003.7,100.0,0.0,5.0,100.0,22040.0,0.0,0.01,0.48
single_runs_api,gfs_global,2025-08-10 18:00:00,2025-08-11 02:00:00,2025-08-10 23:00:00,2025-08-11 07:00:00,5,25.3,84,22.4,28.9,,0.0,0.0,0.0,0.0,0.0,3.0,1009.6,1004.3,100.0,0.0,25.0,100.0,24140.0,0.0,0.02,0.51
single_runs_api,gfs_global,2025-08-10 18:00:00,2025-08-11 02:00:00,2025-08-11 00:00:00,2025-08-11 08:00:00,6,25.8,82,22.5,29.6,,0.4,0.0,0.4,0.0,0.0,51.0,1010.4,1005.1,101.0,20.0,33.0,100.0,24140.0,0.0,0.05,0.6
single_runs_api,gfs_global,2025-08-11 00:00:00,2025-08-11 08:00:00,2025-08-11 01:00:00,2025-08-11 09:00:00,1,26.3,80,22.5,30.0,,1.3,0.0,1.3,0.0,0.0,80.0,1010.8,1005.5,100.0,0.0,10.0,100.0,24140.0,0.0,0.13,0.68
single_runs_api,gfs_global,2025-08-11 00:00:00,2025-08-11 08:00:00,2025-08-11 02:00:00,2025-08-11 10:00:00,2,27.2,75,22.4,30.1,,2.7,0.0,2.7,0.0,0.0,81.0,1011.0,1005.7,100.0,5.0,5.0,100.0,17860.0,0.0,0.27,0.9
single_runs_api,gfs_global,2025-08-11 00:00:00,2025-08-11 08:00:00,2025-08-11 03:00:00,2025-08-11 11:00:00,3,27.7,73,22.4,30.4,,2.3,0.0,2.3,0.0,0.0,80.0,1011.1,1005.8,100.0,4.0,36.0,100.0,13960.0,0.0,0.38,1.0
single_runs_api,gfs_global,2025-08-11 00:00:00,2025-08-11 08:00:00,2025-08-11 04:00:00,2025-08-11 12:00:00,4,27.1,75,22.3,29.8,,2.4,0.0,2.4,0.0,0.0,80.0,1010.9,1005.6,100.0,25.0,100.0,100.0,4740.0,0.0,0.25,0.89
single_runs_api,gfs_global,2025-08-11 00:00:00,2025-08-11 08:00:00,2025-08-11 05:00:00,2025-08-11 13:00:00,5,26.4,79,22.4,29.5,,1.1,0.0,1.1,0.0,0.0,55.0,1010.3,1005.0,100.0,100.0,100.0,100.0,9460.0,0.0,0.12,0.72
single_runs_api,gfs_global,2025-08-11 00:00:00,2025-08-11 08:00:00,2025-08-11 06:00:00,2025-08-11 14:00:00,6,26.0,81,22.5,29.2,,0.2,0.0,0.2,0.0,0.0,51.0,1009.4,1004.1,100.0,100.0,100.0,100.0,22300.0,0.0,0.09,0.64
single_runs_api,gfs_global,2025-08-11 06:00:00,2025-08-11 14:00:00,2025-08-11 07:00:00,2025-08-11 15:00:00,1,26.8,76,22.2,29.8,,0.0,0.0,0.0,0.0,0.0,3.0,1008.8,1003.5,100.0,21.0,100.0,100.0,24140.0,0.0,0.16,0.84
single_runs_api,gfs_global,2025-08-11 06:00:00,2025-08-11 14:00:00,2025-08-11 08:00:00,2025-08-11 16:00:00,2,26.7,77,22.3,30.0,,0.0,0.0,0.0,0.0,0.0,3.0,1008.4,1003.1,100.0,26.0,100.0,100.0,20520.0,0.0,0.13,0.8
single_runs_api,gfs_global,2025-08-11 06:00:00,2025-08-11 14:00:00,2025-08-11 09:00:00,2025-08-11 17:00:00,3,26.6,78,22.4,30.2,,0.0,0.0,0.0,0.0,0.0,3.0,1008.3,1003.0,100.0,23.0,100.0,100.0,13980.0,0.0,0.11,0.76
single_runs_api,gfs_global,2025-08-11 06:00:00,2025-08-11 14:00:00,2025-08-11 10:00:00,2025-08-11 18:00:00,4,26.5,78,22.3,30.1,,0.0,0.0,0.0,0.0,0.0,3.0,1008.6,1003.3,100.0,22.0,100.0,100.0,14240.0,0.0,0.09,0.76
single_runs_api,gfs_global,2025-08-11 06:00:00,2025-08-11 14:00:00,2025-08-11 11:00:00,2025-08-11 19:00:00,5,26.1,79,22.1,29.5,,0.4,0.0,0.4,0.0,0.0,51.0,1009.1,1003.8,100.0,45.0,100.0,100.0,19620.0,0.0,0.07,0.71
single_runs_api,gfs_global,2025-08-11 06:00:00,2025-08-11 14:00:00,2025-08-11 12:00:00,2025-08-11 20:00:00,6,25.7,82,22.4,29.3,,0.1,0.0,0.1,0.0,0.0,51.0,1009.8,1004.5,100.0,70.0,100.0,100.0,24140.0,0.0,0.04,0.59
single_runs_api,gfs_global,2025-08-11 12:00:00,2025-08-11 20:00:00,2025-08-11 13:00:00,2025-08-11 21:00:00,1,26.5,79,22.5,30.8,,0.0,0.0,0.0,0.0,0.0,3.0,1010.2,1004.9,100.0,97.0,100.0,100.0,24140.0,0.0,0.01,0.73
single_runs_api,gfs_global,2025-08-11 12:00:00,2025-08-11 20:00:00,2025-08-11 14:00:00,2025-08-11 22:00:00,2,26.6,78,22.4,30.9,,0.1,0.0,0.1,0.0,0.0,51.0,1010.8,1005.5,100.0,37.0,100.0,100.0,24140.0,0.0,0.01,0.76
single_runs_api,gfs_global,2025-08-11 12:00:00,2025-08-11 20:00:00,2025-08-11 15:00:00,2025-08-11 23:00:00,3,26.6,79,22.6,31.0,,0.2,0.0,0.2,0.0,0.0,51.0,1010.8,1005.5,100.0,5.0,100.0,100.0,24140.0,0.0,0.01,0.73
single_runs_api,gfs_global,2025-08-11 12:00:00,2025-08-11 20:00:00,2025-08-11 16:00:00,2025-08-12 00:00:00,4,26.6,80,22.8,30.8,,0.0,0.0,0.0,0.0,0.0,3.0,1010.8,1005.5,100.0,5.0,100.0,100.0,24140.0,0.0,0.02,0.69
single_runs_api,gfs_global,2025-08-11 12:00:00,2025-08-11 20:00:00,2025-08-11 17:00:00,2025-08-12 01:00:00,5,26.4,81,22.8,30.1,,0.0,0.0,0.0,0.0,0.0,3.0,1010.4,1005.1,100.0,5.0,100.0,100.0,24140.0,0.0,0.03,0.65
single_runs_api,gfs_global,2025-08-11 12:00:00,2025-08-11 20:00:00,2025-08-11 18:00:00,2025-08-12 02:00:00,6,26.1,81,22.6,28.9,,0.5,0.0,0.5,0.0,0.0,53.0,1009.7,1004.4,100.0,14.0,100.0,100.0,24140.0,0.0,0.04,0.64
single_runs_api,gfs_global,2025-08-11 18:00:00,2025-08-12 02:00:00,2025-08-11 19:00:00,2025-08-12 03:00:00,1,26.1,83,23.0,29.8,,0.2,0.0,0.2,0.0,0.0,51.0,1008.6,1003.3,100.0,5.0,100.0,100.0,24140.0,0.0,0.02,0.57
single_runs_api,gfs_global,2025-08-11 18:00:00,2025-08-12 02:00:00,2025-08-11 20:00:00,2025-08-12 04:00:00,2,26.2,82,22.9,29.8,,0.0,0.0,0.0,0.0,0.0,3.0,1008.1,1002.8,100.0,32.0,100.0,100.0,24140.0,0.0,0.03,0.61
single_runs_api,gfs_global,2025-08-11 18:00:00,2025-08-12 02:00:00,2025-08-11 21:00:00,2025-08-12 05:00:00,3,26.3,82,22.9,30.0,,0.0,0.0,0.0,0.0,0.0,3.0,1007.7,1002.4,100.0,14.0,100.0,100.0,24140.0,0.0,0.02,0.61
single_runs_api,gfs_global,2025-08-11 18:00:00,2025-08-12 02:00:00,2025-08-11 22:00:00,2025-08-12 06:00:00,4,26.0,83,22.9,30.1,,0.2,0.0,0.2,0.0,0.0,51.0,1007.9,1002.6,100.0,5.0,93.0,100.0,24140.0,0.0,0.01,0.57
single_runs_api,gfs_global,2025-08-11 18:00:00,2025-08-12 02:00:00,2025-08-11 23:00:00,2025-08-12 07:00:00,5,26.0,83,22.9,30.1,,0.0,0.0,0.0,0.0,0.0,3.0,1008.4,1003.1,100.0,5.0,100.0,100.0,24140.0,0.0,0.01,0.57
single_runs_api,gfs_global,2025-08-11 18:00:00,2025-08-12 02:00:00,2025-08-12 00:00:00,2025-08-12 08:00:00,6,26.0,83,22.9,30.2,,0.0,0.0,0.0,0.0,0.0,3.0,1008.9,1003.6,100.0,5.0,100.0,100.0,24140.0,0.0,0.04,0.57
single_runs_api,gfs_global,2025-08-12 00:00:00,2025-08-12 08:00:00,2025-08-12 01:00:00,2025-08-12 09:00:00,1,27.5,80,23.7,31.9,,0.0,0.0,0.0,0.0,0.0,3.0,1009.1,1003.8,100.0,0.0,90.0,100.0,24140.0,0.0,0.11,0.73
single_runs_api,gfs_global,2025-08-12 00:00:00,2025-08-12 08:00:00,2025-08-12 02:00:00,2025-08-12 10:00:00,2,28.8,72,23.2,32.6,,0.0,0.0,0.0,0.0,0.0,3.0,1009.2,1004.0,100.0,0.0,70.0,100.0,24140.0,0.0,0.28,1.11
single_runs_api,gfs_global,2025-08-12 00:00:00,2025-08-12 08:00:00,2025-08-12 03:00:00,2025-08-12 11:00:00,3,28.8,72,23.2,32.3,,0.0,0.0,0.0,0.0,0.0,3.0,1009.1,1003.9,100.0,0.0,96.0,100.0,24140.0,0.0,0.27,1.11
single_runs_api,gfs_global,2025-08-12 00:00:00,2025-08-12 08:00:00,2025-08-12 04:00:00,2025-08-12 12:00:00,4,28.2,75,23.3,31.7,,0.0,0.0,0.0,0.0,0.0,3.0,1008.8,1003.6,100.0,0.0,100.0,100.0,24140.0,0.0,0.23,0.95
single_runs_api,gfs_global,2025-08-12 00:00:00,2025-08-12 08:00:00,2025-08-12 05:00:00,2025-08-12 13:00:00,5,28.3,73,23.0,31.6,,0.0,0.0,0.0,0.0,0.0,3.0,1008.6,1003.4,100.0,0.0,100.0,100.0,24140.0,0.0,0.29,1.04
single_runs_api,gfs_global,2025-08-12 00:00:00,2025-08-12 08:00:00,2025-08-12 06:00:00,2025-08-12 14:00:00,6,28.1,73,22.8,31.4,,0.0,0.0,0.0,0.0,0.0,3.0,1008.1,1002.9,100.0,0.0,100.0,100.0,24140.0,0.0,0.3,1.02
single_runs_api,gfs_global,2025-08-12 06:00:00,2025-08-12 14:00:00,2025-08-12 07:00:00,2025-08-12 15:00:00,1,28.9,68,22.4,32.0,,0.0,0.0,0.0,0.0,0.0,3.0,1007.4,1002.2,100.0,0.0,100.0,100.0,24140.0,0.0,0.35,1.27
single_runs_api,gfs_global,2025-08-12 06:00:00,2025-08-12 14:00:00,2025-08-12 08:00:00,2025-08-12 16:00:00,2,29.8,61,21.4,32.9,,0.0,0.0,0.0,0.0,0.0,3.0,1007.2,1002.0,100.0,0.0,42.0,100.0,24140.0,0.0,0.44,1.63
single_runs_api,gfs_global,2025-08-12 06:00:00,2025-08-12 14:00:00,2025-08-12 09:00:00,2025-08-12 17:00:00,3,29.9,59,21.0,33.1,,0.0,0.0,0.0,0.0,0.0,3.0,1007.1,1001.9,100.0,0.0,18.0,100.0,24140.0,0.0,0.35,1.73
single_runs_api,gfs_global,2025-08-12 06:00:00,2025-08-12 14:00:00,2025-08-12 10:00:00,2025-08-12 18:00:00,4,29.1,65,21.8,32.8,,0.0,0.0,0.0,0.0,0.0,3.0,1007.5,1002.3,100.0,0.0,100.0,100.0,24140.0,0.0,0.16,1.41
single_runs_api,gfs_global,2025-08-12 06:00:00,2025-08-12 14:00:00,2025-08-12 11:00:00,2025-08-12 19:00:00,5,28.3,68,21.8,32.0,,0.0,0.0,0.0,0.0,0.0,3.0,1008.3,1003.1,100.0,0.0,100.0,100.0,24140.0,0.0,0.08,1.23
single_runs_api,gfs_global,2025-08-12 06:00:00,2025-08-12 14:00:00,2025-08-12 12:00:00,2025-08-12 20:00:00,6,28.0,69,21.8,31.7,,0.0,0.0,0.0,0.0,0.0,3.0,1009.2,1003.9,100.0,0.0,82.0,100.0,24140.0,0.0,0.05,1.17
single_runs_api,gfs_global,2025-08-12 12:00:00,2025-08-12 20:00:00,2025-08-12 13:00:00,2025-08-12 21:00:00,1,27.2,74,22.1,30.1,,0.6,0.0,0.6,0.0,0.0,53.0,1010.3,1005.0,100.0,87.0,93.0,100.0,24140.0,0.0,0.05,0.94
single_runs_api,gfs_global,2025-08-12 12:00:00,2025-08-12 20:00:00,2025-08-12 14:00:00,2025-08-12 22:00:00,2,27.0,76,22.4,30.3,,0.4,0.0,0.4,0.0,0.0,51.0,1011.1,1005.8,100.0,100.0,76.0,100.0,24140.0,0.0,0.04,0.85
single_runs_api,gfs_global,2025-08-12 12:00:00,2025-08-12 20:00:00,2025-08-12 15:00:00,2025-08-12 23:00:00,3,26.6,78,22.4,30.0,,0.1,0.0,0.1,0.0,0.0,51.0,1011.6,1006.3,100.0,29.0,39.0,100.0,24140.0,0.0,0.03,0.76
single_runs_api,gfs_global,2025-08-12 12:00:00,2025-08-12 20:00:00,2025-08-12 16:00:00,2025-08-13 00:00:00,4,25.9,82,22.6,29.0,,0.8,0.1,0.7,0.0,0.0,53.0,1011.8,1006.5,100.0,37.0,11.0,100.0,24140.0,0.0,0.03,0.6
single_runs_api,gfs_global,2025-08-12 12:00:00,2025-08-12 20:00:00,2025-08-12 17:00:00,2025-08-13 01:00:00,5,25.6,83,22.5,28.6,,0.2,0.2,0.0,0.0,0.0,51.0,1011.1,1005.8,100.0,100.0,100.0,100.0,24140.0,0.0,0.03,0.56
single_runs_api,gfs_global,2025-08-12 12:00:00,2025-08-12 20:00:00,2025-08-12 18:00:00,2025-08-13 02:00:00,6,25.8,82,22.5,29.0,,0.0,0.0,0.0,0.0,0.0,3.0,1010.7,1005.4,100.0,20.0,100.0,100.0,24140.0,0.0,0.03,0.6
single_runs_api,gfs_global,2025-08-12 18:00:00,2025-08-13 02:00:00,2025-08-12 19:00:00,2025-08-13 03:00:00,1,26.1,79,22.1,28.8,,0.0,0.0,0.0,0.0,0.0,3.0,1010.2,1004.9,100.0,5.0,100.0,100.0,24140.0,0.0,0.04,0.71
single_runs_api,gfs_global,2025-08-12 18:00:00,2025-08-13 02:00:00,2025-08-12 20:00:00,2025-08-13 04:00:00,2,25.4,83,22.3,27.6,,0.5,0.0,0.5,0.0,0.0,53.0,1010.0,1004.7,100.0,5.0,100.0,100.0,9060.0,0.0,0.04,0.55
single_runs_api,gfs_global,2025-08-12 18:00:00,2025-08-13 02:00:00,2025-08-12 21:00:00,2025-08-13 05:00:00,3,24.8,87,22.5,26.3,,2.2,0.0,2.2,0.0,0.0,80.0,1010.8,1005.5,100.0,7.0,83.0,100.0,4820.0,0.0,0.04,0.41
single_runs_api,gfs_global,2025-08-12 18:00:00,2025-08-13 02:00:00,2025-08-12 22:00:00,2025-08-13 06:00:00,4,23.7,90,21.9,22.8,,1.7,0.1,1.6,0.0,0.0,80.0,1011.5,1006.2,100.0,100.0,100.0,100.0,7040.0,0.0,0.04,0.29
single_runs_api,gfs_global,2025-08-12 18:00:00,2025-08-13 02:00:00,2025-08-12 23:00:00,2025-08-13 07:00:00,5,23.2,92,21.8,23.4,,1.7,1.3,0.4,0.0,0.0,80.0,1011.9,1006.6,100.0,100.0,100.0,100.0,4840.0,0.0,0.02,0.23
single_runs_api,gfs_global,2025-08-12 18:00:00,2025-08-13 02:00:00,2025-08-13 00:00:00,2025-08-13 08:00:00,6,23.5,90,21.7,24.6,,1.6,1.6,0.0,0.0,0.0,61.0,1012.7,1007.4,100.0,100.0,100.0,100.0,11260.0,0.0,0.05,0.29
single_runs_api,gfs_global,2025-08-13 00:00:00,2025-08-13 08:00:00,2025-08-13 01:00:00,2025-08-13 09:00:00,1,25.1,80,21.4,25.9,,0.0,0.0,0.0,0.0,0.0,3.0,1012.4,1007.1,100.0,65.0,100.0,100.0,24140.0,0.0,0.09,0.64
single_runs_api,gfs_global,2025-08-13 00:00:00,2025-08-13 08:00:00,2025-08-13 02:00:00,2025-08-13 10:00:00,2,25.4,77,21.0,26.5,,0.0,0.0,0.0,0.0,0.0,3.0,1012.5,1007.2,100.0,14.0,100.0,100.0,24140.0,0.0,0.11,0.74
single_runs_api,gfs_global,2025-08-13 00:00:00,2025-08-13 08:00:00,2025-08-13 03:00:00,2025-08-13 11:00:00,3,25.5,76,20.9,26.9,,0.0,0.0,0.0,0.0,0.0,3.0,1011.8,1006.5,100.0,5.0,100.0,100.0,24140.0,0.0,0.11,0.78
single_runs_api,gfs_global,2025-08-13 00:00:00,2025-08-13 08:00:00,2025-08-13 04:00:00,2025-08-13 12:00:00,4,25.7,77,21.3,28.2,,0.0,0.0,0.0,0.0,0.0,3.0,1011.2,1005.9,100.0,5.0,100.0,100.0,24140.0,0.0,0.12,0.76
single_runs_api,gfs_global,2025-08-13 00:00:00,2025-08-13 08:00:00,2025-08-13 05:00:00,2025-08-13 13:00:00,5,26.2,74,21.2,29.7,,0.0,0.0,0.0,0.0,0.0,3.0,1010.6,1005.3,100.0,5.0,100.0,100.0,24140.0,0.0,0.14,0.88
single_runs_api,gfs_global,2025-08-13 00:00:00,2025-08-13 08:00:00,2025-08-13 06:00:00,2025-08-13 14:00:00,6,26.5,73,21.2,29.5,,0.0,0.0,0.0,0.0,0.0,3.0,1009.8,1004.5,100.0,5.0,100.0,100.0,24140.0,0.0,0.2,0.93
single_runs_api,gfs_global,2025-08-13 06:00:00,2025-08-13 14:00:00,2025-08-13 07:00:00,2025-08-13 15:00:00,1,27.3,72,21.8,30.1,,0.0,0.0,0.0,0.0,0.0,3.0,1008.3,1003.0,100.0,5.0,100.0,100.0,24140.0,0.0,0.23,1.01
single_runs_api,gfs_global,2025-08-13 06:00:00,2025-08-13 14:00:00,2025-08-13 08:00:00,2025-08-13 16:00:00,2,27.3,73,22.0,30.1,,0.0,0.0,0.0,0.0,0.0,3.0,1007.8,1002.5,100.0,5.0,100.0,100.0,24140.0,0.0,0.25,0.98
single_runs_api,gfs_global,2025-08-13 06:00:00,2025-08-13 14:00:00,2025-08-13 09:00:00,2025-08-13 17:00:00,3,27.7,72,22.2,30.6,,0.0,0.0,0.0,0.0,0.0,3.0,1007.9,1002.7,100.0,0.0,72.0,100.0,24140.0,0.0,0.28,1.04
single_runs_api,gfs_global,2025-08-13 06:00:00,2025-08-13 14:00:00,2025-08-13 10:00:00,2025-08-13 18:00:00,4,27.2,74,22.1,30.4,,0.0,0.0,0.0,0.0,0.0,3.0,1008.5,1003.2,100.0,0.0,89.0,100.0,24140.0,0.0,0.17,0.94
single_runs_api,gfs_global,2025-08-13 06:00:00,2025-08-13 14:00:00,2025-08-13 11:00:00,2025-08-13 19:00:00,5,26.6,77,22.2,30.1,,0.0,0.0,0.0,0.0,0.0,3.0,1009.5,1004.2,96.0,0.0,87.0,57.0,24140.0,0.0,0.08,0.8
single_runs_api,gfs_global,2025-08-13 06:00:00,2025-08-13 14:00:00,2025-08-13 12:00:00,2025-08-13 20:00:00,6,26.3,78,22.1,29.8,,0.0,0.0,0.0,0.0,0.0,3.0,1010.2,1004.9,93.0,0.0,90.0,15.0,24140.0,0.0,0.04,0.75
single_runs_api,gfs_global,2025-08-13 12:00:00,2025-08-13 20:00:00,2025-08-13 13:00:00,2025-08-13 21:00:00,1,26.5,78,22.3,30.2,,0.0,0.0,0.0,0.0,0.0,3.0,1010.5,1005.2,96.0,0.0,95.0,19.0,24140.0,0.0,0.03,0.76
single_runs_api,gfs_global,2025-08-13 12:00:00,2025-08-13 20:00:00,2025-08-13 14:00:00,2025-08-13 22:00:00,2,26.4,79,22.4,30.1,,0.0,0.0,0.0,0.0,0.0,3.0,1010.9,1005.6,92.0,0.0,63.0,76.0,24140.0,0.0,0.02,0.72
single_runs_api,gfs_global,2025-08-13 12:00:00,2025-08-13 20:00:00,2025-08-13 15:00:00,2025-08-13 23:00:00,3,26.2,80,22.4,30.0,,0.0,0.0,0.0,0.0,0.0,3.0,1011.1,1005.8,93.0,0.0,10.0,90.0,24140.0,0.0,0.02,0.68
single_runs_api,gfs_global,2025-08-13 12:00:00,2025-08-13 20:00:00,2025-08-13 16:00:00,2025-08-14 00:00:00,4,26.1,80,22.3,30.0,,0.0,0.0,0.0,0.0,0.0,2.0,1011.2,1005.9,76.0,0.0,48.0,48.0,24140.0,0.0,0.02,0.67
single_runs_api,gfs_global,2025-08-13 12:00:00,2025-08-13 20:00:00,2025-08-13 17:00:00,2025-08-14 01:00:00,5,26.0,81,22.5,30.3,,0.0,0.0,0.0,0.0,0.0,3.0,1010.9,1005.6,100.0,0.0,67.0,100.0,24140.0,0.0,0.01,0.64
single_runs_api,gfs_global,2025-08-13 12:00:00,2025-08-13 20:00:00,2025-08-13 18:00:00,2025-08-14 02:00:00,6,26.1,81,22.6,30.4,,0.3,0.0,0.3,0.0,0.0,51.0,1010.2,1004.9,100.0,0.0,100.0,100.0,24140.0,0.0,0.01,0.64
single_runs_api,gfs_global,2025-08-13 18:00:00,2025-08-14 02:00:00,2025-08-13 19:00:00,2025-08-14 03:00:00,1,26.3,84,23.3,29.7,,0.0,0.0,0.0,0.0,0.0,3.0,1009.6,1004.3,100.0,49.0,72.0,100.0,24140.0,0.0,0.03,0.55
single_runs_api,gfs_global,2025-08-13 18:00:00,2025-08-14 02:00:00,2025-08-13 20:00:00,2025-08-14 04:00:00,2,26.1,83,23.0,28.8,,0.0,0.0,0.0,0.0,0.0,3.0,1009.4,1004.1,89.0,15.0,75.0,79.0,19640.0,0.0,0.04,0.57
single_runs_api,gfs_global,2025-08-13 18:00:00,2025-08-14 02:00:00,2025-08-13 21:00:00,2025-08-14 05:00:00,3,26.1,80,22.3,28.7,,0.0,0.0,0.0,0.0,0.0,3.0,1009.5,1004.2,100.0,5.0,100.0,100.0,24140.0,0.0,0.04,0.67
single_runs_api,gfs_global,2025-08-13 18:00:00,2025-08-14 02:00:00,2025-08-13 22:00:00,2025-08-14 06:00:00,4,25.9,82,22.6,29.1,,0.0,0.0,0.0,0.0,0.0,3.0,1009.9,1004.6,100.0,5.0,100.0,100.0,24140.0,0.0,0.03,0.6
single_runs_api,gfs_global,2025-08-13 18:00:00,2025-08-14 02:00:00,2025-08-13 23:00:00,2025-08-14 07:00:00,5,26.0,83,22.9,29.3,,0.0,0.0,0.0,0.0,0.0,3.0,1009.6,1004.3,100.0,10.0,100.0,100.0,24140.0,0.0,0.03,0.57
single_runs_api,gfs_global,2025-08-13 18:00:00,2025-08-14 02:00:00,2025-08-14 00:00:00,2025-08-14 08:00:00,6,26.0,83,22.9,28.8,,0.0,0.0,0.0,0.0,0.0,3.0,1010.1,1004.8,100.0,13.0,100.0,92.0,24140.0,0.0,0.06,0.57
single_runs_api,gfs_global,2025-08-14 00:00:00,2025-08-14 08:00:00,2025-08-14 01:00:00,2025-08-14 09:00:00,1,26.2,82,22.9,29.3,,0.0,0.0,0.0,0.0,0.0,3.0,1010.8,1005.5,100.0,5.0,100.0,100.0,24140.0,0.0,0.07,0.61
single_runs_api,gfs_global,2025-08-14 00:00:00,2025-08-14 08:00:00,2025-08-14 02:00:00,2025-08-14 10:00:00,2,26.8,81,23.2,30.2,,0.0,0.0,0.0,0.0,0.0,3.0,1011.6,1006.3,100.0,5.0,100.0,100.0,24140.0,0.0,0.11,0.67
single_runs_api,gfs_global,2025-08-14 00:00:00,2025-08-14 08:00:00,2025-08-14 03:00:00,2025-08-14 11:00:00,3,27.0,81,23.4,30.7,,0.0,0.0,0.0,0.0,0.0,3.0,1011.4,1006.1,100.0,5.0,100.0,100.0,24140.0,0.0,0.13,0.68
single_runs_api,gfs_global,2025-08-14 00:00:00,2025-08-14 08:00:00,2025-08-14 04:00:00,2025-08-14 12:00:00,4,27.7,76,23.1,31.1,,0.0,0.0,0.0,0.0,0.0,3.0,1011.1,1005.8,100.0,18.0,100.0,18.0,24140.0,0.0,0.28,0.89
single_runs_api,gfs_global,2025-08-14 00:00:00,2025-08-14 08:00:00,2025-08-14 05:00:00,2025-08-14 13:00:00,5,29.2,69,22.9,33.5,,0.4,0.0,0.4,0.0,0.0,51.0,1010.3,1005.1,89.0,21.0,33.0,78.0,12760.0,0.0,0.59,1.25
single_runs_api,gfs_global,2025-08-14 00:00:00,2025-08-14 08:00:00,2025-08-14 06:00:00,2025-08-14 14:00:00,6,29.5,68,22.9,33.9,,0.4,0.0,0.4,0.0,0.0,51.0,1009.4,1004.2,73.0,1.0,5.0,67.0,14500.0,0.0,0.63,1.32
single_runs_api,gfs_global,2025-08-14 06:00:00,2025-08-14 14:00:00,2025-08-14 07:00:00,2025-08-14 15:00:00,1,29.2,69,22.9,34.0,,1.1,0.0,1.1,0.0,0.0,55.0,1008.6,1003.4,41.0,18.0,5.0,19.0,16400.0,0.0,0.61,1.25
single_runs_api,gfs_global,2025-08-14 06:00:00,2025-08-14 14:00:00,2025-08-14 08:00:00,2025-08-14 16:00:00,2,28.9,70,22.8,32.9,,0.5,0.0,0.5,0.0,0.0,53.0,1008.0,1002.8,82.0,13.0,11.0,75.0,20080.0,0.0,0.51,1.19
single_runs_api,gfs_global,2025-08-14 06:00:00,2025-08-14 14:00:00,2025-08-14 09:00:00,2025-08-14 17:00:00,3,28.5,71,22.7,31.5,,0.1,0.0,0.1,0.0,0.0,51.0,1007.4,1002.2,100.0,13.0,22.0,100.0,24140.0,0.0,0.38,1.13
single_runs_api,gfs_global,2025-08-14 06:00:00,2025-08-14 14:00:00,2025-08-14 10:00:00,2025-08-14 18:00:00,4,27.9,75,23.0,30.9,,0.3,0.0,0.3,0.0,0.0,51.0,1007.9,1002.7,79.0,5.0,5.0,77.0,22180.0,0.0,0.24,0.94
single_runs_api,gfs_global,2025-08-14 06:00:00,2025-08-14 14:00:00,2025-08-14 11:00:00,2025-08-14 19:00:00,5,26.7,81,23.1,29.9,,0.5,0.0,0.5,0.0,0.0,53.0,1008.5,1003.2,16.0,0.0,5.0,10.0,24140.0,0.0,0.1,0.66
single_runs_api,gfs_global,2025-08-14 06:00:00,2025-08-14 14:00:00,2025-08-14 12:00:00,2025-08-14 20:00:00,6,26.6,81,23.0,30.3,,0.0,0.0,0.0,0.0,0.0,3.0,1009.2,1003.9,93.0,0.0,91.0,55.0,24140.0,0.0,0.04,0.66
single_runs_api,gfs_global,2025-08-14 12:00:00,2025-08-14 20:00:00,2025-08-14 13:00:00,2025-08-14 21:00:00,1,27.1,81,23.5,31.1,,0.0,0.0,0.0,0.0,0.0,3.0,1009.2,1003.9,99.0,0.0,86.0,99.0,24140.0,0.0,0.03,0.68
single_runs_api,gfs_global,2025-08-14 12:00:00,2025-08-14 20:00:00,2025-08-14 14:00:00,2025-08-14 22:00:00,2,26.9,83,23.7,31.0,,0.1,0.0,0.1,0.0,0.0,51.0,1010.0,1004.7,100.0,0.0,5.0,100.0,24140.0,0.0,0.02,0.6
single_runs_api,gfs_global,2025-08-14 12:00:00,2025-08-14 20:00:00,2025-08-14 15:00:00,2025-08-14 23:00:00,3,26.4,84,23.4,30.5,,0.6,0.0,0.6,0.0,0.0,53.0,1010.5,1005.2,100.0,0.0,5.0,100.0,24140.0,0.0,0.02,0.55
single_runs_api,gfs_global,2025-08-14 12:00:00,2025-08-14 20:00:00,2025-08-14 16:00:00,2025-08-15 00:00:00,4,26.2,86,23.6,30.7,,1.0,0.0,1.0,0.0,0.0,55.0,1010.7,1005.4,100.0,0.0,5.0,100.0,24140.0,0.0,0.01,0.47
single_runs_api,gfs_global,2025-08-14 12:00:00,2025-08-14 20:00:00,2025-08-14 17:00:00,2025-08-15 01:00:00,5,26.3,85,23.5,31.1,,0.3,0.0,0.3,0.0,0.0,51.0,1010.1,1004.8,100.0,0.0,5.0,100.0,24140.0,0.0,0.01,0.51
single_runs_api,gfs_global,2025-08-14 12:00:00,2025-08-14 20:00:00,2025-08-14 18:00:00,2025-08-15 02:00:00,6,26.1,85,23.3,30.6,,0.5,0.0,0.5,0.0,0.0,53.0,1009.4,1004.1,75.0,0.0,5.0,73.0,17840.0,0.0,0.01,0.51
single_runs_api,gfs_global,2025-08-14 18:00:00,2025-08-15 02:00:00,2025-08-14 19:00:00,2025-08-15 03:00:00,1,25.5,87,23.1,29.7,,2.4,0.0,2.4,0.0,0.0,80.0,1008.7,1003.4,100.0,0.0,5.0,100.0,24140.0,0.0,0.01,0.42
single_runs_api,gfs_global,2025-08-14 18:00:00,2025-08-15 02:00:00,2025-08-14 20:00:00,2025-08-15 04:00:00,2,25.7,84,22.8,29.5,,1.7,0.0,1.7,0.0,0.0,80.0,1008.3,1003.0,100.0,0.0,27.0,100.0,24140.0,0.0,0.02,0.53
single_runs_api,gfs_global,2025-08-14 18:00:00,2025-08-15 02:00:00,2025-08-14 21:00:00,2025-08-15 05:00:00,3,25.8,83,22.7,29.6,,0.3,0.0,0.3,0.0,0.0,51.0,1008.2,1002.9,100.0,5.0,31.0,100.0,24140.0,0.0,0.02,0.56
single_runs_api,gfs_global,2025-08-14 18:00:00,2025-08-15 02:00:00,2025-08-14 22:00:00,2025-08-15 06:00:00,4,25.8,81,22.3,29.4,,0.2,0.0,0.2,0.0,0.0,51.0,1008.5,1003.2,100.0,0.0,6.0,100.0,24140.0,0.0,0.02,0.63
single_runs_api,gfs_global,2025-08-14 18:00:00,2025-08-15 02:00:00,2025-08-14 23:00:00,2025-08-15 07:00:00,5,25.5,83,22.4,29.0,,0.3,0.0,0.3,0.0,0.0,51.0,1008.9,1003.6,100.0,0.0,12.0,100.0,24140.0,0.0,0.02,0.55
single_runs_api,gfs_global,2025-08-14 18:00:00,2025-08-15 02:00:00,2025-08-15 00:00:00,2025-08-15 08:00:00,6,26.0,82,22.7,29.3,,0.1,0.0,0.1,0.0,0.0,51.0,1009.4,1004.1,100.0,0.0,68.0,100.0,24140.0,0.0,0.06,0.6
single_runs_api,gfs_global,2025-08-15 00:00:00,2025-08-15 08:00:00,2025-08-15 01:00:00,2025-08-15 09:00:00,1,27.0,76,22.4,30.3,,0.0,0.0,0.0,0.0,0.0,3.0,1009.7,1004.4,100.0,0.0,52.0,100.0,24140.0,0.0,0.15,0.85
single_runs_api,gfs_global,2025-08-15 00:00:00,2025-08-15 08:00:00,2025-08-15 02:00:00,2025-08-15 10:00:00,2,27.8,72,22.3,30.6,,0.0,0.0,0.0,0.0,0.0,3.0,1009.8,1004.5,100.0,0.0,5.0,100.0,24140.0,0.0,0.31,1.04
single_runs_api,gfs_global,2025-08-15 00:00:00,2025-08-15 08:00:00,2025-08-15 03:00:00,2025-08-15 11:00:00,3,28.3,71,22.5,31.4,,0.0,0.0,0.0,0.0,0.0,2.0,1009.4,1004.2,73.0,0.0,5.0,64.0,24140.0,0.0,0.46,1.11
single_runs_api,gfs_global,2025-08-15 00:00:00,2025-08-15 08:00:00,2025-08-15 04:00:00,2025-08-15 12:00:00,4,28.4,70,22.4,31.8,,0.0,0.0,0.0,0.0,0.0,3.0,1008.6,1003.4,100.0,8.0,5.0,100.0,24140.0,0.0,0.54,1.16
single_runs_api,gfs_global,2025-08-15 00:00:00,2025-08-15 08:00:00,2025-08-15 05:00:00,2025-08-15 13:00:00,5,28.8,68,22.3,32.6,,0.0,0.0,0.0,0.0,0.0,3.0,1008.0,1002.8,100.0,10.0,5.0,100.0,24140.0,0.0,0.61,1.26
single_runs_api,gfs_global,2025-08-15 00:00:00,2025-08-15 08:00:00,2025-08-15 06:00:00,2025-08-15 14:00:00,6,29.1,67,22.3,33.0,,0.0,0.0,0.0,0.0,0.0,3.0,1007.3,1002.1,100.0,-1.0,5.0,100.0,24140.0,0.0,0.65,1.33
single_runs_api,gfs_global,2025-08-15 06:00:00,2025-08-15 14:00:00,2025-08-15 07:00:00,2025-08-15 15:00:00,1,28.5,70,22.5,32.1,,0.0,0.0,0.0,0.0,0.0,3.0,1006.8,1001.6,81.0,12.0,67.0,24.0,24140.0,0.0,0.59,1.16
single_runs_api,gfs_global,2025-08-15 06:00:00,2025-08-15 14:00:00,2025-08-15 08:00:00,2025-08-15 16:00:00,2,28.3,70,22.3,31.1,,0.0,0.0,0.0,0.0,0.0,3.0,1006.6,1001.4,100.0,10.0,63.0,100.0,24140.0,0.0,0.5,1.15
single_runs_api,gfs_global,2025-08-15 06:00:00,2025-08-15 14:00:00,2025-08-15 09:00:00,2025-08-15 17:00:00,3,27.9,71,22.1,29.7,,0.0,0.0,0.0,0.0,0.0,3.0,1006.6,1001.4,87.0,39.0,62.0,41.0,24140.0,0.0,0.39,1.09
single_runs_api,gfs_global,2025-08-15 06:00:00,2025-08-15 14:00:00,2025-08-15 10:00:00,2025-08-15 18:00:00,4,27.5,72,22.0,29.5,,0.0,0.0,0.0,0.0,0.0,3.0,1006.9,1001.7,100.0,37.0,100.0,14.0,24140.0,0.0,0.23,1.03
single_runs_api,gfs_global,2025-08-15 06:00:00,2025-08-15 14:00:00,2025-08-15 11:00:00,2025-08-15 19:00:00,5,26.8,75,22.0,29.2,,0.0,0.0,0.0,0.0,0.0,3.0,1007.5,1002.2,100.0,23.0,85.0,100.0,24140.0,0.0,0.11,0.88
single_runs_api,gfs_global,2025-08-15 06:00:00,2025-08-15 14:00:00,2025-08-15 12:00:00,2025-08-15 20:00:00,6,26.5,76,21.9,29.4,,0.0,0.0,0.0,0.0,0.0,3.0,1008.2,1002.9,99.0,0.0,49.0,98.0,24140.0,0.0,0.06,0.83
single_runs_api,gfs_global,2025-08-15 12:00:00,2025-08-15 20:00:00,2025-08-15 13:00:00,2025-08-15 21:00:00,1,26.6,77,22.2,29.4,,0.0,0.0,0.0,0.0,0.0,3.0,1008.0,1002.7,100.0,0.0,67.0,100.0,24140.0,0.0,0.05,0.8
single_runs_api,gfs_global,2025-08-15 12:00:00,2025-08-15 20:00:00,2025-08-15 14:00:00,2025-08-15 22:00:00,2,26.6,78,22.4,29.5,,0.0,0.0,0.0,0.0,0.0,3.0,1008.6,1003.3,100.0,0.0,5.0,100.0,24140.0,0.0,0.04,0.76
single_runs_api,gfs_global,2025-08-15 12:00:00,2025-08-15 20:00:00,2025-08-15 15:00:00,2025-08-15 23:00:00,3,26.8,78,22.6,29.8,,0.0,0.0,0.0,0.0,0.0,3.0,1009.2,1003.9,100.0,0.0,10.0,100.0,24140.0,0.0,0.05,0.77
single_runs_api,gfs_global,2025-08-15 12:00:00,2025-08-15 20:00:00,2025-08-15 16:00:00,2025-08-16 00:00:00,4,26.2,81,22.6,29.8,,0.3,0.0,0.3,0.0,0.0,51.0,1009.4,1004.1,100.0,0.0,28.0,100.0,24140.0,0.0,0.03,0.64
single_runs_api,gfs_global,2025-08-15 12:00:00,2025-08-15 20:00:00,2025-08-15 17:00:00,2025-08-16 01:00:00,5,26.2,82,22.9,29.5,,0.0,0.0,0.0,0.0,0.0,3.0,1008.8,1003.5,90.0,0.0,30.0,85.0,24140.0,0.0,0.03,0.61
single_runs_api,gfs_global,2025-08-15 12:00:00,2025-08-15 20:00:00,2025-08-15 18:00:00,2025-08-16 02:00:00,6,26.1,82,22.8,29.8,,0.0,0.0,0.0,0.0,0.0,3.0,1008.5,1003.2,100.0,0.0,12.0,100.0,24140.0,0.0,0.02,0.61
single_runs_api,gfs_global,2025-08-15 18:00:00,2025-08-16 02:00:00,2025-08-15 19:00:00,2025-08-16 03:00:00,1,25.9,81,22.4,29.6,,0.0,0.0,0.0,0.0,0.0,3.0,1007.9,1002.6,100.0,0.0,21.0,100.0,24140.0,0.0,0.02,0.63
single_runs_api,gfs_global,2025-08-15 18:00:00,2025-08-16 02:00:00,2025-08-15 20:00:00,2025-08-16 04:00:00,2,25.9,81,22.4,29.3,,0.0,0.0,0.0,0.0,0.0,3.0,1007.4,1002.1,100.0,0.0,10.0,100.0,24140.0,0.0,0.02,0.63
single_runs_api,gfs_global,2025-08-15 18:00:00,2025-08-16 02:00:00,2025-08-15 21:00:00,2025-08-16 05:00:00,3,25.9,81,22.4,29.3,,0.0,0.0,0.0,0.0,0.0,3.0,1007.1,1001.8,100.0,0.0,63.0,100.0,24140.0,0.0,0.03,0.63
single_runs_api,gfs_global,2025-08-15 18:00:00,2025-08-16 02:00:00,2025-08-15 22:00:00,2025-08-16 06:00:00,4,26.0,80,22.3,29.3,,0.0,0.0,0.0,0.0,0.0,3.0,1007.3,1002.0,100.0,0.0,78.0,100.0,24140.0,0.0,0.03,0.67
single_runs_api,gfs_global,2025-08-15 18:00:00,2025-08-16 02:00:00,2025-08-15 23:00:00,2025-08-16 07:00:00,5,25.4,83,22.3,28.8,,1.1,0.0,1.1,0.0,0.0,55.0,1008.0,1002.7,100.0,0.0,75.0,100.0,14620.0,0.0,0.02,0.55
single_runs_api,gfs_global,2025-08-15 18:00:00,2025-08-16 02:00:00,2025-08-16 00:00:00,2025-08-16 08:00:00,6,26.0,82,22.7,29.6,,0.6,0.0,0.6,0.0,0.0,53.0,1008.8,1003.5,100.0,0.0,47.0,100.0,24140.0,0.0,0.05,0.6
single_runs_api,gfs_global,2025-08-16 00:00:00,2025-08-16 08:00:00,2025-08-16 01:00:00,2025-08-16 09:00:00,1,26.8,80,23.0,30.5,,1.3,0.0,1.3,0.0,0.0,80.0,1009.2,1003.9,100.0,5.0,68.0,100.0,19960.0,0.0,0.12,0.7
single_runs_api,gfs_global,2025-08-16 00:00:00,2025-08-16 08:00:00,2025-08-16 02:00:00,2025-08-16 10:00:00,2,26.4,82,23.0,30.1,,1.4,0.0,1.4,0.0,0.0,80.0,1009.4,1004.1,100.0,10.0,100.0,100.0,9940.0,0.0,0.1,0.62
single_runs_api,gfs_global,2025-08-16 00:00:00,2025-08-16 08:00:00,2025-08-16 03:00:00,2025-08-16 11:00:00,3,26.4,83,23.2,30.2,,1.5,0.0,1.5,0.0,0.0,80.0,1009.1,1003.8,100.0,5.0,100.0,100.0,10460.0,0.0,0.11,0.58
single_runs_api,gfs_global,2025-08-16 00:00:00,2025-08-16 08:00:00,2025-08-16 04:00:00,2025-08-16 12:00:00,4,27.5,77,23.1,31.2,,1.9,0.0,1.9,0.0,0.0,80.0,1008.8,1003.5,100.0,0.0,59.0,100.0,24140.0,0.0,0.33,0.84
single_runs_api,gfs_global,2025-08-16 00:00:00,2025-08-16 08:00:00,2025-08-16 05:00:00,2025-08-16 13:00:00,5,27.7,76,23.1,31.1,,1.3,0.0,1.3,0.0,0.0,80.0,1008.1,1002.9,100.0,0.0,54.0,100.0,24140.0,0.0,0.33,0.89
single_runs_api,gfs_global,2025-08-16 00:00:00,2025-08-16 08:00:00,2025-08-16 06:00:00,2025-08-16 14:00:00,6,27.9,76,23.2,31.6,,0.8,0.0,0.8,0.0,0.0,53.0,1007.1,1001.9,100.0,0.0,57.0,100.0,24140.0,0.0,0.4,0.9
single_runs_api,gfs_global,2025-08-16 06:00:00,2025-08-16 14:00:00,2025-08-16 07:00:00,2025-08-16 15:00:00,1,29.2,68,22.7,33.1,,0.2,0.0,0.2,0.0,0.0,51.0,1006.3,1001.1,100.0,3.0,5.0,100.0,24140.0,0.0,0.51,1.29
single_runs_api,gfs_global,2025-08-16 06:00:00,2025-08-16 14:00:00,2025-08-16 08:00:00,2025-08-16 16:00:00,2,29.0,69,22.7,32.2,,0.0,0.0,0.0,0.0,0.0,3.0,1005.6,1000.4,100.0,8.0,5.0,100.0,24140.0,0.0,0.39,1.24
single_runs_api,gfs_global,2025-08-16 06:00:00,2025-08-16 14:00:00,2025-08-16 09:00:00,2025-08-16 17:00:00,3,28.8,69,22.5,32.1,,0.0,0.0,0.0,0.0,0.0,3.0,1005.4,1000.2,100.0,6.0,10.0,100.0,24140.0,0.0,0.26,1.22
single_runs_api,gfs_global,2025-08-16 06:00:00,2025-08-16 14:00:00,2025-08-16 10:00:00,2025-08-16 18:00:00,4,28.4,73,23.1,32.3,,0.2,0.0,0.2,0.0,0.0,51.0,1005.9,1000.7,100.0,0.0,5.0,100.0,24140.0,0.0,0.16,1.04
single_runs_api,gfs_global,2025-08-16 06:00:00,2025-08-16 14:00:00,2025-08-16 11:00:00,2025-08-16 19:00:00,5,27.8,75,22.9,31.5,,0.1,0.0,0.1,0.0,0.0,51.0,1006.6,1001.4,100.0,0.0,5.0,100.0,24140.0,0.0,0.09,0.93
single_runs_api,gfs_global,2025-08-16 06:00:00,2025-08-16 14:00:00,2025-08-16 12:00:00,2025-08-16 20:00:00,6,27.3,76,22.7,30.7,,0.1,0.0,0.1,0.0,0.0,51.0,1007.3,1002.0,100.0,0.0,83.0,100.0,24140.0,0.0,0.06,0.87
single_runs_api,gfs_global,2025-08-16 12:00:00,2025-08-16 20:00:00,2025-08-16 13:00:00,2025-08-16 21:00:00,1,27.1,77,22.7,30.6,,0.2,0.0,0.2,0.0,0.0,51.0,1007.9,1002.6,100.0,0.0,43.0,100.0,24140.0,0.0,0.04,0.82
single_runs_api,gfs_global,2025-08-16 12:00:00,2025-08-16 20:00:00,2025-08-16 14:00:00,2025-08-16 22:00:00,2,26.7,80,22.9,30.2,,0.8,0.0,0.8,0.0,0.0,53.0,1008.6,1003.3,60.0,0.0,5.0,54.0,24140.0,0.0,0.03,0.7
single_runs_api,gfs_global,2025-08-16 12:00:00,2025-08-16 20:00:00,2025-08-16 15:00:00,2025-08-16 23:00:00,3,26.5,82,23.1,30.2,,0.2,0.0,0.2,0.0,0.0,51.0,1009.1,1003.8,89.0,0.0,5.0,83.0,24140.0,0.0,0.03,0.62
single_runs_api,gfs_global,2025-08-16 12:00:00,2025-08-16 20:00:00,2025-08-16 16:00:00,2025-08-17 00:00:00,4,26.5,82,23.1,29.8,,0.8,0.0,0.8,0.0,0.0,53.0,1009.2,1003.9,100.0,0.0,5.0,100.0,24140.0,0.0,0.03,0.62
single_runs_api,gfs_global,2025-08-16 12:00:00,2025-08-16 20:00:00,2025-08-16 17:00:00,2025-08-17 01:00:00,5,26.6,79,22.6,29.7,,0.0,0.0,0.0,0.0,0.0,3.0,1009.0,1003.7,100.0,0.0,5.0,100.0,24140.0,0.0,0.04,0.73
single_runs_api,gfs_global,2025-08-16 12:00:00,2025-08-16 20:00:00,2025-08-16 18:00:00,2025-08-17 02:00:00,6,26.4,79,22.4,29.6,,0.0,0.0,0.0,0.0,0.0,3.0,1008.1,1002.8,100.0,0.0,5.0,100.0,24140.0,0.0,0.04,0.72
single_runs_api,gfs_global,2025-08-16 18:00:00,2025-08-17 02:00:00,2025-08-16 19:00:00,2025-08-17 03:00:00,1,26.3,80,22.5,29.6,,0.0,0.0,0.0,0.0,0.0,3.0,1007.8,1002.5,100.0,0.0,10.0,100.0,24140.0,0.0,0.03,0.68
single_runs_api,gfs_global,2025-08-16 18:00:00,2025-08-17 02:00:00,2025-08-16 20:00:00,2025-08-17 04:00:00,2,26.2,80,22.4,29.5,,0.0,0.0,0.0,0.0,0.0,3.0,1007.4,1002.1,97.0,0.0,10.0,96.0,24140.0,0.0,0.03,0.68
single_runs_api,gfs_global,2025-08-16 18:00:00,2025-08-17 02:00:00,2025-08-16 21:00:00,2025-08-17 05:00:00,3,26.2,80,22.4,29.5,,0.0,0.0,0.0,0.0,0.0,3.0,1007.5,1002.2,100.0,4.0,5.0,100.0,24140.0,0.0,0.03,0.68
single_runs_api,gfs_global,2025-08-16 18:00:00,2025-08-17 02:00:00,2025-08-16 22:00:00,2025-08-17 06:00:00,4,26.0,82,22.7,29.5,,0.1,0.0,0.1,0.0,0.0,51.0,1008.0,1002.7,99.0,0.0,93.0,69.0,24140.0,0.0,0.02,0.6
single_runs_api,gfs_global,2025-08-16 18:00:00,2025-08-17 02:00:00,2025-08-16 23:00:00,2025-08-17 07:00:00,5,26.1,81,22.6,29.4,,0.0,0.0,0.0,0.0,0.0,3.0,1008.3,1003.0,96.0,0.0,90.0,58.0,24140.0,0.0,0.03,0.64
single_runs_api,gfs_global,2025-08-16 18:00:00,2025-08-17 02:00:00,2025-08-17 00:00:00,2025-08-17 08:00:00,6,26.7,80,22.9,30.3,,0.2,0.0,0.2,0.0,0.0,51.0,1009.0,1003.7,88.0,0.0,86.0,9.0,24140.0,0.0,0.06,0.7
single_runs_api,gfs_global,2025-08-17 00:00:00,2025-08-17 08:00:00,2025-08-17 01:00:00,2025-08-17 09:00:00,1,27.9,74,22.8,30.9,,0.8,0.0,0.8,0.0,0.0,53.0,1009.7,1004.4,55.0,0.0,5.0,50.0,24140.0,0.0,0.21,0.97
single_runs_api,gfs_global,2025-08-17 00:00:00,2025-08-17 08:00:00,2025-08-17 02:00:00,2025-08-17 10:00:00,2,28.9,69,22.6,31.9,,0.3,0.0,0.3,0.0,0.0,51.0,1010.1,1004.9,20.0,0.0,5.0,10.0,24140.0,0.0,0.38,1.23
single_runs_api,gfs_global,2025-08-17 00:00:00,2025-08-17 08:00:00,2025-08-17 03:00:00,2025-08-17 11:00:00,3,29.6,64,22.0,33.4,,0.2,0.0,0.2,0.0,0.0,51.0,1010.1,1004.9,13.0,0.0,5.0,5.0,24140.0,0.0,0.52,1.49
single_runs_api,gfs_global,2025-08-17 00:00:00,2025-08-17 08:00:00,2025-08-17 04:00:00,2025-08-17 12:00:00,4,30.1,62,22.0,34.8,,0.0,0.0,0.0,0.0,0.0,0.0,1009.8,1004.6,11.0,0.0,5.0,5.0,24140.0,0.0,0.63,1.62
single_runs_api,gfs_global,2025-08-17 00:00:00,2025-08-17 08:00:00,2025-08-17 05:00:00,2025-08-17 13:00:00,5,30.4,62,22.3,35.2,,0.1,0.0,0.1,0.0,0.0,51.0,1009.1,1003.9,30.0,4.0,10.0,17.0,24140.0,0.0,0.69,1.65
single_runs_api,gfs_global,2025-08-17 00:00:00,2025-08-17 08:00:00,2025-08-17 06:00:00,2025-08-17 14:00:00,6,30.5,61,22.1,35.4,,0.1,0.0,0.1,0.0,0.0,51.0,1008.4,1003.2,33.0,20.0,5.0,5.0,20820.0,0.0,0.69,1.7
single_runs_api,gfs_global,2025-08-17 06:00:00,2025-08-17 14:00:00,2025-08-17 07:00:00,2025-08-17 15:00:00,1,31.0,60,22.3,35.8,,0.0,0.0,0.0,0.0,0.0,1.0,1007.3,1002.1,31.0,18.0,5.0,10.0,20300.0,0.0,0.65,1.79
single_runs_api,gfs_global,2025-08-17 06:00:00,2025-08-17 14:00:00,2025-08-17 08:00:00,2025-08-17 16:00:00,2,30.5,62,22.4,34.0,,0.0,0.0,0.0,0.0,0.0,1.0,1006.8,1001.6,36.0,22.0,5.0,10.0,18660.0,0.0,0.48,1.65
single_runs_api,gfs_global,2025-08-17 06:00:00,2025-08-17 14:00:00,2025-08-17 09:00:00,2025-08-17 17:00:00,3,29.8,66,22.7,33.3,,0.5,0.0,0.5,0.0,0.0,53.0,1006.9,1001.7,100.0,37.0,5.0,100.0,20120.0,0.0,0.38,1.42
single_runs_api,gfs_global,2025-08-17 06:00:00,2025-08-17 14:00:00,2025-08-17 10:00:00,2025-08-17 18:00:00,4,29.3,67,22.5,32.9,,0.2,0.0,0.2,0.0,0.0,51.0,1007.2,1002.0,100.0,24.0,5.0,100.0,20000.0,0.0,0.27,1.34
single_runs_api,gfs_global,2025-08-17 06:00:00,2025-08-17 14:00:00,2025-08-17 11:00:00,2025-08-17 19:00:00,5,28.4,72,22.8,32.7,,0.1,0.0,0.1,0.0,0.0,51.0,1008.3,1003.1,15.0,0.0,5.0,10.0,24140.0,0.0,0.09,1.08
single_runs_api,gfs_global,2025-08-17 06:00:00,2025-08-17 14:00:00,2025-08-17 12:00:00,2025-08-17 20:00:00,6,28.1,72,22.5,32.0,,0.0,0.0,0.0,0.0,0.0,1.0,1009.3,1004.1,21.0,0.0,5.0,14.0,24140.0,0.0,0.05,1.06
single_runs_api,gfs_global,2025-08-17 12:00:00,2025-08-17 20:00:00,2025-08-17 13:00:00,2025-08-17 21:00:00,1,28.0,74,22.9,31.9,,0.0,0.0,0.0,0.0,0.0,1.0,1010.1,1004.8,38.0,16.0,10.0,14.0,24140.0,0.0,0.04,0.98
single_runs_api,gfs_global,2025-08-17 12:00:00,2025-08-17 20:00:00,2025-08-17 14:00:00,2025-08-17 22:00:00,2,27.8,75,22.9,31.9,,0.0,0.0,0.0,0.0,0.0,3.0,1010.9,1005.6,89.0,0.0,10.0,87.0,24140.0,0.0,0.03,0.93
single_runs_api,gfs_global,2025-08-17 12:00:00,2025-08-17 20:00:00,2025-08-17 15:00:00,2025-08-17 23:00:00,3,27.6,75,22.7,31.4,,0.0,0.0,0.0,0.0,0.0,3.0,1011.2,1005.9,99.0,0.0,5.0,98.0,24140.0,0.0,0.04,0.92
single_runs_api,gfs_global,2025-08-17 12:00:00,2025-08-17 20:00:00,2025-08-17 16:00:00,2025-08-18 00:00:00,4,27.4,75,22.5,31.2,,0.0,0.0,0.0,0.0,0.0,3.0,1011.2,1005.9,93.0,0.0,5.0,92.0,24140.0,0.0,0.03,0.91
single_runs_api,gfs_global,2025-08-17 12:00:00,2025-08-17 20:00:00,2025-08-17 17:00:00,2025-08-18 01:00:00,5,27.2,75,22.4,30.8,,0.0,0.0,0.0,0.0,0.0,3.0,1010.6,1005.3,85.0,0.0,80.0,14.0,24140.0,0.0,0.04,0.9
single_runs_api,gfs_global,2025-08-17 12:00:00,2025-08-17 20:00:00,2025-08-17 18:00:00,2025-08-18 02:00:00,6,27.0,75,22.2,30.5,,0.0,0.0,0.0,0.0,0.0,2.0,1009.8,1004.5,54.0,0.0,52.0,5.0,24140.0,0.0,0.03,0.89
single_runs_api,gfs_global,2025-08-17 18:00:00,2025-08-18 02:00:00,2025-08-17 19:00:00,2025-08-18 03:00:00,1,26.8,78,22.6,30.9,,0.0,0.0,0.0,0.0,0.0,3.0,1009.1,1003.8,100.0,0.0,73.0,100.0,24140.0,0.0,0.02,0.77
single_runs_api,gfs_global,2025-08-17 18:00:00,2025-08-18 02:00:00,2025-08-17 20:00:00,2025-08-18 04:00:00,2,26.6,80,22.8,31.1,,0.2,0.0,0.2,0.0,0.0,51.0,1008.9,1003.6,66.0,0.0,57.0,10.0,24140.0,0.0,0.01,0.69
single_runs_api,gfs_global,2025-08-17 18:00:00,2025-08-18 02:00:00,2025-08-17 21:00:00,2025-08-18 05:00:00,3,26.5,81,22.9,31.4,,0.1,0.0,0.1,0.0,0.0,51.0,1008.9,1003.6,15.0,0.0,5.0,10.0,24140.0,0.0,0.0,0.66
single_runs_api,gfs_global,2025-08-17 18:00:00,2025-08-18 02:00:00,2025-08-17 22:00:00,2025-08-18 06:00:00,4,26.4,81,22.8,31.2,,0.1,0.0,0.1,0.0,0.0,51.0,1009.6,1004.3,23.0,0.0,5.0,19.0,24140.0,0.0,0.0,0.65
single_runs_api,gfs_global,2025-08-17 18:00:00,2025-08-18 02:00:00,2025-08-17 23:00:00,2025-08-18 07:00:00,5,26.4,81,22.8,31.4,,0.0,0.0,0.0,0.0,0.0,3.0,1010.0,1004.7,100.0,0.0,100.0,23.0,24140.0,0.0,0.0,0.65
single_runs_api,gfs_global,2025-08-17 18:00:00,2025-08-18 02:00:00,2025-08-18 00:00:00,2025-08-18 08:00:00,6,27.1,79,23.1,32.3,,0.0,0.0,0.0,0.0,0.0,1.0,1010.6,1005.3,44.0,0.0,26.0,19.0,24140.0,0.0,0.03,0.75
single_runs_api,gfs_global,2025-08-18 00:00:00,2025-08-18 08:00:00,2025-08-18 01:00:00,2025-08-18 09:00:00,1,28.1,75,23.2,32.4,,0.4,0.0,0.4,0.0,0.0,51.0,1011.1,1005.8,24.0,0.0,5.0,19.0,21980.0,0.0,0.2,0.95
single_runs_api,gfs_global,2025-08-18 00:00:00,2025-08-18 08:00:00,2025-08-18 02:00:00,2025-08-18 10:00:00,2,29.0,70,22.9,32.6,,0.2,0.0,0.2,0.0,0.0,51.0,1011.4,1006.2,72.0,0.0,52.0,41.0,24140.0,0.0,0.36,1.2
single_runs_api,gfs_global,2025-08-18 00:00:00,2025-08-18 08:00:00,2025-08-18 03:00:00,2025-08-18 11:00:00,3,29.6,66,22.5,33.1,,0.5,0.0,0.5,0.0,0.0,53.0,1011.3,1006.1,88.0,0.0,5.0,85.0,14180.0,0.0,0.49,1.41
single_runs_api,gfs_global,2025-08-18 00:00:00,2025-08-18 08:00:00,2025-08-18 04:00:00,2025-08-18 12:00:00,4,30.0,63,22.2,34.0,,0.0,0.0,0.0,0.0,0.0,3.0,1010.9,1005.7,100.0,8.0,5.0,100.0,6980.0,0.0,0.62,1.57
single_runs_api,gfs_global,2025-08-18 00:00:00,2025-08-18 08:00:00,2025-08-18 05:00:00,2025-08-18 13:00:00,5,30.0,62,21.9,33.7,,0.0,0.0,0.0,0.0,0.0,3.0,1010.3,1005.1,100.0,12.0,5.0,100.0,19280.0,0.0,0.61,1.61
single_runs_api,gfs_global,2025-08-18 00:00:00,2025-08-18 08:00:00,2025-08-18 06:00:00,2025-08-18 14:00:00,6,30.0,63,22.2,34.4,,0.2,0.0,0.2,0.0,0.0,51.0,1009.6,1004.4,100.0,7.0,64.0,100.0,18500.0,0.0,0.67,1.57
single_runs_api,gfs_global,2025-08-18 06:00:00,2025-08-18 14:00:00,2025-08-18 07:00:00,2025-08-18 15:00:00,1,29.8,65,22.5,33.8,,0.7,0.0,0.7,0.0,0.0,53.0,1009.0,1003.8,93.0,15.0,86.0,29.0,24140.0,0.0,0.61,1.46
single_runs_api,gfs_global,2025-08-18 06:00:00,2025-08-18 14:00:00,2025-08-18 08:00:00,2025-08-18 16:00:00,2,29.4,67,22.6,32.9,,0.5,0.0,0.5,0.0,0.0,53.0,1008.8,1003.6,91.0,15.0,85.0,14.0,24140.0,0.0,0.49,1.35
single_runs_api,gfs_global,2025-08-18 06:00:00,2025-08-18 14:00:00,2025-08-18 09:00:00,2025-08-18 17:00:00,3,29.2,68,22.7,32.3,,0.0,0.0,0.0,0.0,0.0,3.0,1008.8,1003.6,99.0,14.0,97.0,31.0,24140.0,0.0,0.39,1.29
single_runs_api,gfs_global,2025-08-18 06:00:00,2025-08-18 14:00:00,2025-08-18 10:00:00,2025-08-18 18:00:00,4,28.6,71,22.8,31.9,,0.1,0.0,0.1,0.0,0.0,51.0,1009.4,1004.2,100.0,0.0,100.0,100.0,24140.0,0.0,0.21,1.13
single_runs_api,gfs_global,2025-08-18 06:00:00,2025-08-18 14:00:00,2025-08-18 11:00:00,2025-08-18 19:00:00,5,28.0,74,22.9,31.5,,0.2,0.0,0.2,0.0,0.0,51.0,1009.9,1004.6,100.0,0.0,100.0,100.0,24140.0,0.0,0.1,0.98
single_runs_api,gfs_global,2025-08-18 06:00:00,2025-08-18 14:00:00,2025-08-18 12:00:00,2025-08-18 20:00:00,6,28.0,72,22.5,31.2,,0.0,0.0,0.0,0.0,0.0,3.0,1010.5,1005.2,100.0,0.0,100.0,39.0,24140.0,0.0,0.07,1.06
single_runs_api,gfs_global,2025-08-18 12:00:00,2025-08-18 20:00:00,2025-08-18 13:00:00,2025-08-18 21:00:00,1,27.7,76,23.1,31.5,,0.0,0.0,0.0,0.0,0.0,2.0,1010.6,1005.3,79.0,5.0,63.0,10.0,7560.0,0.0,0.04,0.89
single_runs_api,gfs_global,2025-08-18 12:00:00,2025-08-18 20:00:00,2025-08-18 14:00:00,2025-08-18 22:00:00,2,27.7,76,23.1,31.6,,0.0,0.0,0.0,0.0,0.0,3.0,1011.0,1005.7,100.0,5.0,100.0,10.0,24140.0,0.0,0.04,0.89
single_runs_api,gfs_global,2025-08-18 12:00:00,2025-08-18 20:00:00,2025-08-18 15:00:00,2025-08-18 23:00:00,3,27.6,77,23.2,31.4,,0.0,0.0,0.0,0.0,0.0,3.0,1011.1,1005.8,100.0,5.0,100.0,83.0,24140.0,0.0,0.04,0.85
single_runs_api,gfs_global,2025-08-18 12:00:00,2025-08-18 20:00:00,2025-08-18 16:00:00,2025-08-19 00:00:00,4,27.5,78,23.3,31.6,,0.0,0.0,0.0,0.0,0.0,3.0,1011.4,1006.1,100.0,5.0,100.0,77.0,24140.0,0.0,0.03,0.81
single_runs_api,gfs_global,2025-08-18 12:00:00,2025-08-18 20:00:00,2025-08-18 17:00:00,2025-08-19 01:00:00,5,27.3,79,23.3,31.7,,0.0,0.0,0.0,0.0,0.0,3.0,1011.0,1005.7,100.0,0.0,100.0,44.0,24140.0,0.0,0.02,0.76
single_runs_api,gfs_global,2025-08-18 12:00:00,2025-08-18 20:00:00,2025-08-18 18:00:00,2025-08-19 02:00:00,6,26.9,81,23.3,32.0,,0.0,0.0,0.0,0.0,0.0,2.0,1010.5,1005.2,60.0,0.0,55.0,10.0,24140.0,0.0,0.0,0.67
single_runs_api,gfs_global,2025-08-18 18:00:00,2025-08-19 02:00:00,2025-08-18 19:00:00,2025-08-19 03:00:00,1,26.8,81,23.2,31.8,,0.0,0.0,0.0,0.0,0.0,3.0,1009.8,1004.5,100.0,0.0,100.0,14.0,24140.0,0.0,0.0,0.67
single_runs_api,gfs_global,2025-08-18 18:00:00,2025-08-19 02:00:00,2025-08-18 20:00:00,2025-08-19 04:00:00,2,26.6,82,23.2,31.5,,0.0,0.0,0.0,0.0,0.0,1.0,1009.9,1004.6,25.0,0.0,5.0,19.0,13780.0,0.0,0.0,0.63
single_runs_api,gfs_global,2025-08-18 18:00:00,2025-08-19 02:00:00,2025-08-18 21:00:00,2025-08-19 05:00:00,3,26.6,82,23.2,31.7,,0.0,0.0,0.0,0.0,0.0,3.0,1010.0,1004.7,83.0,0.0,63.0,47.0,24140.0,0.0,0.0,0.63
single_runs_api,gfs_global,2025-08-18 18:00:00,2025-08-19 02:00:00,2025-08-18 22:00:00,2025-08-19 06:00:00,4,26.5,82,23.1,31.4,,0.0,0.0,0.0,0.0,0.0,2.0,1010.2,1004.9,62.0,0.0,5.0,55.0,24140.0,0.0,0.0,0.62
single_runs_api,gfs_global,2025-08-18 18:00:00,2025-08-19 02:00:00,2025-08-18 23:00:00,2025-08-19 07:00:00,5,26.3,83,23.1,31.4,,0.0,0.0,0.0,0.0,0.0,1.0,1010.6,1005.3,20.0,0.0,8.0,10.0,13900.0,0.0,0.0,0.58
single_runs_api,gfs_global,2025-08-18 18:00:00,2025-08-19 02:00:00,2025-08-19 00:00:00,2025-08-19 08:00:00,6,26.1,84,23.2,31.2,,2.5,0.0,2.5,0.0,0.0,81.0,1011.3,1006.0,18.0,0.0,5.0,10.0,24140.0,0.0,0.03,0.54
single_runs_api,gfs_global,2025-08-19 00:00:00,2025-08-19 08:00:00,2025-08-19 01:00:00,2025-08-19 09:00:00,1,27.7,75,22.8,32.3,,1.9,0.0,1.9,0.0,0.0,80.0,1011.6,1006.3,23.0,0.0,5.0,14.0,24140.0,0.0,0.19,0.93
single_runs_api,gfs_global,2025-08-19 00:00:00,2025-08-19 08:00:00,2025-08-19 02:00:00,2025-08-19 10:00:00,2,28.6,70,22.6,33.1,,2.7,0.0,2.7,0.0,0.0,81.0,1012.1,1006.8,93.0,0.0,5.0,91.0,24140.0,0.0,0.34,1.17
single_runs_api,gfs_global,2025-08-19 00:00:00,2025-08-19 08:00:00,2025-08-19 03:00:00,2025-08-19 11:00:00,3,28.9,69,22.6,33.2,,1.1,0.0,1.1,0.0,0.0,55.0,1011.7,1006.5,100.0,0.0,100.0,99.0,24140.0,0.0,0.26,1.23
single_runs_api,gfs_global,2025-08-19 00:00:00,2025-08-19 08:00:00,2025-08-19 04:00:00,2025-08-19 12:00:00,4,29.9,65,22.6,34.5,,0.0,0.0,0.0,0.0,0.0,3.0,1011.1,1005.9,100.0,0.0,46.0,100.0,24140.0,0.0,0.54,1.47
single_runs_api,gfs_global,2025-08-19 00:00:00,2025-08-19 08:00:00,2025-08-19 05:00:00,2025-08-19 13:00:00,5,30.4,63,22.5,35.5,,0.0,0.0,0.0,0.0,0.0,3.0,1010.3,1005.1,100.0,34.0,50.0,100.0,24140.0,0.0,0.66,1.6
single_runs_api,gfs_global,2025-08-19 00:00:00,2025-08-19 08:00:00,2025-08-19 06:00:00,2025-08-19 14:00:00,6,30.2,63,22.3,35.0,,0.0,0.0,0.0,0.0,0.0,3.0,1009.3,1004.1,93.0,29.0,54.0,87.0,24140.0,0.0,0.66,1.58
single_runs_api,gfs_global,2025-08-19 06:00:00,2025-08-19 14:00:00,2025-08-19 07:00:00,2025-08-19 15:00:00,1,29.6,64,22.0,34.0,,0.0,0.0,0.0,0.0,0.0,3.0,1009.2,1004.0,95.0,46.0,5.0,88.0,24140.0,0.0,0.61,1.49
single_runs_api,gfs_global,2025-08-19 06:00:00,2025-08-19 14:00:00,2025-08-19 08:00:00,2025-08-19 16:00:00,2,29.4,64,21.9,33.2,,0.0,0.0,0.0,0.0,0.0,1.0,1008.4,1003.2,49.0,36.0,16.0,10.0,24140.0,0.0,0.55,1.47
single_runs_api,gfs_global,2025-08-19 06:00:00,2025-08-19 14:00:00,2025-08-19 09:00:00,2025-08-19 17:00:00,3,29.0,64,21.5,31.8,,0.0,0.0,0.0,0.0,0.0,1.0,1008.1,1002.9,31.0,20.0,15.0,5.0,24140.0,0.0,0.42,1.44
single_runs_api,gfs_global,2025-08-19 06:00:00,2025-08-19 14:00:00,2025-08-19 10:00:00,2025-08-19 18:00:00,4,28.9,63,21.1,31.8,,0.0,0.0,0.0,0.0,0.0,1.0,1008.6,1003.4,22.0,14.0,5.0,0.0,24140.0,0.0,0.27,1.47
single_runs_api,gfs_global,2025-08-19 06:00:00,2025-08-19 14:00:00,2025-08-19 11:00:00,2025-08-19 19:00:00,5,28.2,67,21.5,31.8,,0.0,0.0,0.0,0.0,0.0,1.0,1009.2,1004.0,20.0,7.0,5.0,5.0,24140.0,0.0,0.1,1.26
single_runs_api,gfs_global,2025-08-19 06:00:00,2025-08-19 14:00:00,2025-08-19 12:00:00,2025-08-19 20:00:00,6,27.9,67,21.2,31.4,,0.0,0.0,0.0,0.0,0.0,3.0,1009.8,1004.5,100.0,0.0,71.0,100.0,24140.0,0.0,0.04,1.24
single_runs_api,gfs_global,2025-08-19 12:00:00,2025-08-19 20:00:00,2025-08-19 13:00:00,2025-08-19 21:00:00,1,26.9,73,21.6,30.8,,0.0,0.0,0.0,0.0,0.0,3.0,1010.8,1005.5,100.0,9.0,100.0,100.0,24140.0,0.0,0.01,0.95
single_runs_api,gfs_global,2025-08-19 12:00:00,2025-08-19 20:00:00,2025-08-19 14:00:00,2025-08-19 22:00:00,2,26.7,73,21.4,30.4,,0.0,0.0,0.0,0.0,0.0,3.0,1011.4,1006.1,100.0,17.0,100.0,100.0,24140.0,0.0,0.02,0.94
single_runs_api,gfs_global,2025-08-19 12:00:00,2025-08-19 20:00:00,2025-08-19 15:00:00,2025-08-19 23:00:00,3,26.5,74,21.5,30.3,,0.0,0.0,0.0,0.0,0.0,3.0,1011.8,1006.5,100.0,17.0,100.0,100.0,24140.0,0.0,0.01,0.9
single_runs_api,gfs_global,2025-08-19 12:00:00,2025-08-19 20:00:00,2025-08-19 16:00:00,2025-08-20 00:00:00,4,26.4,74,21.4,30.0,,0.0,0.0,0.0,0.0,0.0,3.0,1011.6,1006.3,100.0,35.0,88.0,100.0,24140.0,0.0,0.02,0.89
single_runs_api,gfs_global,2025-08-19 12:00:00,2025-08-19 20:00:00,2025-08-19 17:00:00,2025-08-20 01:00:00,5,26.4,74,21.4,29.8,,0.0,0.0,0.0,0.0,0.0,3.0,1011.3,1006.0,100.0,0.0,100.0,100.0,24140.0,0.0,0.02,0.89
single_runs_api,gfs_global,2025-08-19 12:00:00,2025-08-19 20:00:00,2025-08-19 18:00:00,2025-08-20 02:00:00,6,26.6,74,21.6,30.0,,0.0,0.0,0.0,0.0,0.0,3.0,1010.3,1005.0,98.0,5.0,96.0,31.0,24140.0,0.0,0.03,0.9
single_runs_api,gfs_global,2025-08-19 18:00:00,2025-08-20 02:00:00,2025-08-19 19:00:00,2025-08-20 03:00:00,1,26.5,76,21.9,30.5,,0.0,0.0,0.0,0.0,0.0,3.0,1009.6,1004.3,100.0,5.0,100.0,90.0,24140.0,0.0,0.01,0.83
single_runs_api,gfs_global,2025-08-19 18:00:00,2025-08-20 02:00:00,2025-08-19 20:00:00,2025-08-20 04:00:00,2,26.4,77,22.0,30.7,,0.0,0.0,0.0,0.0,0.0,3.0,1009.0,1003.7,100.0,5.0,100.0,78.0,24140.0,0.0,0.0,0.79
single_runs_api,gfs_global,2025-08-19 18:00:00,2025-08-20 02:00:00,2025-08-19 21:00:00,2025-08-20 05:00:00,3,26.3,77,21.9,30.7,,0.0,0.0,0.0,0.0,0.0,3.0,1009.0,1003.7,100.0,21.0,100.0,100.0,24140.0,0.0,0.0,0.78
single_runs_api,gfs_global,2025-08-19 18:00:00,2025-08-20 02:00:00,2025-08-19 22:00:00,2025-08-20 06:00:00,4,26.1,78,21.9,30.3,,0.0,0.0,0.0,0.0,0.0,3.0,1009.5,1004.2,100.0,61.0,100.0,100.0,24140.0,0.0,0.0,0.74
single_runs_api,gfs_global,2025-08-19 18:00:00,2025-08-20 02:00:00,2025-08-19 23:00:00,2025-08-20 07:00:00,5,25.9,80,22.2,30.0,,0.0,0.0,0.0,0.0,0.0,3.0,1009.6,1004.3,100.0,100.0,100.0,100.0,24140.0,0.0,0.01,0.67
single_runs_api,gfs_global,2025-08-19 18:00:00,2025-08-20 02:00:00,2025-08-20 00:00:00,2025-08-20 08:00:00,6,26.0,80,22.3,30.4,,0.0,0.0,0.0,0.0,0.0,3.0,1010.1,1004.8,100.0,10.0,100.0,100.0,24140.0,0.0,0.03,0.67
single_runs_api,gfs_global,2025-08-20 00:00:00,2025-08-20 08:00:00,2025-08-20 01:00:00,2025-08-20 09:00:00,1,26.9,78,22.7,31.2,,0.2,0.0,0.2,0.0,0.0,51.0,1010.7,1005.4,100.0,0.0,26.0,100.0,24140.0,0.0,0.14,0.78
single_runs_api,gfs_global,2025-08-20 00:00:00,2025-08-20 08:00:00,2025-08-20 02:00:00,2025-08-20 10:00:00,2,28.4,72,22.8,32.3,,0.0,0.0,0.0,0.0,0.0,3.0,1010.9,1005.6,100.0,0.0,46.0,100.0,24140.0,0.0,0.33,1.08
single_runs_api,gfs_global,2025-08-20 00:00:00,2025-08-20 08:00:00,2025-08-20 03:00:00,2025-08-20 11:00:00,3,29.5,66,22.5,33.2,,0.0,0.0,0.0,0.0,0.0,2.0,1010.5,1005.3,79.0,0.0,41.0,61.0,22140.0,0.0,0.51,1.4
single_runs_api,gfs_global,2025-08-20 00:00:00,2025-08-20 08:00:00,2025-08-20 04:00:00,2025-08-20 12:00:00,4,29.7,64,22.1,33.7,,1.2,0.0,1.2,0.0,0.0,55.0,1010.5,1005.3,100.0,0.0,14.0,100.0,17660.0,0.0,0.59,1.5
single_runs_api,gfs_global,2025-08-20 00:00:00,2025-08-20 08:00:00,2025-08-20 05:00:00,2025-08-20 13:00:00,5,29.3,65,22.0,31.8,,0.0,0.0,0.0,0.0,0.0,3.0,1010.1,1004.9,100.0,0.0,93.0,100.0,18420.0,0.0,0.42,1.42
single_runs_api,gfs_global,2025-08-20 00:00:00,2025-08-20 08:00:00,2025-08-20 06:00:00,2025-08-20 14:00:00,6,28.0,70,22.0,30.8,,0.2,0.0,0.2,0.0,0.0,51.0,1009.3,1004.0,100.0,29.0,100.0,100.0,6180.0,0.0,0.19,1.13
single_runs_api,gfs_global,2025-08-20 06:00:00,2025-08-20 14:00:00,2025-08-20 07:00:00,2025-08-20 15:00:00,1,27.0,77,22.6,30.8,,3.0,0.0,3.0,0.0,0.0,81.0,1008.9,1003.6,100.0,10.0,100.0,100.0,23420.0,0.0,0.11,0.82
single_runs_api,gfs_global,2025-08-20 06:00:00,2025-08-20 14:00:00,2025-08-20 08:00:00,2025-08-20 16:00:00,2,27.2,75,22.4,30.5,,0.9,0.1,0.8,0.0,0.0,53.0,1008.8,1003.5,100.0,100.0,100.0,100.0,22120.0,0.0,0.09,0.9
single_runs_api,gfs_global,2025-08-20 06:00:00,2025-08-20 14:00:00,2025-08-20 09:00:00,2025-08-20 17:00:00,3,27.2,74,22.1,29.4,,0.0,0.0,0.0,0.0,0.0,3.0,1008.0,1002.7,100.0,62.0,100.0,100.0,6580.0,0.0,0.12,0.94
single_runs_api,gfs_global,2025-08-20 06:00:00,2025-08-20 14:00:00,2025-08-20 10:00:00,2025-08-20 18:00:00,4,26.2,78,22.0,29.1,,1.6,0.0,1.6,0.0,0.0,80.0,1008.5,1003.2,100.0,5.0,100.0,100.0,4640.0,0.0,0.09,0.75
single_runs_api,gfs_global,2025-08-20 06:00:00,2025-08-20 14:00:00,2025-08-20 11:00:00,2025-08-20 19:00:00,5,25.7,80,22.0,29.2,,1.1,0.0,1.1,0.0,0.0,55.0,1010.0,1004.7,100.0,34.0,100.0,100.0,7260.0,0.0,0.05,0.66
single_runs_api,gfs_global,2025-08-20 06:00:00,2025-08-20 14:00:00,2025-08-20 12:00:00,2025-08-20 20:00:00,6,25.6,81,22.1,28.8,,0.2,0.0,0.2,0.0,0.0,51.0,1010.9,1005.6,100.0,71.0,100.0,100.0,21320.0,0.0,0.05,0.62
single_runs_api,gfs_global,2025-08-20 12:00:00,2025-08-20 20:00:00,2025-08-20 13:00:00,2025-08-20 21:00:00,1,26.0,82,22.7,29.4,,0.0,0.0,0.0,0.0,0.0,3.0,1011.0,1005.7,100.0,14.0,100.0,100.0,24140.0,0.0,0.03,0.6
single_runs_api,gfs_global,2025-08-20 12:00:00,2025-08-20 20:00:00,2025-08-20 14:00:00,2025-08-20 22:00:00,2,26.2,79,22.2,29.2,,0.0,0.0,0.0,0.0,0.0,3.0,1011.9,1006.6,100.0,5.0,100.0,100.0,24140.0,0.0,0.04,0.71
single_runs_api,gfs_global,2025-08-20 12:00:00,2025-08-20 20:00:00,2025-08-20 15:00:00,2025-08-20 23:00:00,3,26.5,77,22.1,30.1,,0.0,0.0,0.0,0.0,0.0,3.0,1012.4,1007.1,100.0,10.0,100.0,100.0,24140.0,0.0,0.03,0.79
single_runs_api,gfs_global,2025-08-20 12:00:00,2025-08-20 20:00:00,2025-08-20 16:00:00,2025-08-21 00:00:00,4,26.5,77,22.1,29.9,,0.0,0.0,0.0,0.0,0.0,3.0,1012.3,1007.0,100.0,10.0,100.0,100.0,24140.0,0.0,0.03,0.79
single_runs_api,gfs_global,2025-08-20 12:00:00,2025-08-20 20:00:00,2025-08-20 17:00:00,2025-08-21 01:00:00,5,26.5,78,22.3,29.9,,0.0,0.0,0.0,0.0,0.0,3.0,1011.6,1006.3,100.0,5.0,100.0,100.0,24140.0,0.0,0.03,0.76
single_runs_api,gfs_global,2025-08-20 12:00:00,2025-08-20 20:00:00,2025-08-20 18:00:00,2025-08-21 02:00:00,6,26.5,78,22.3,30.0,,0.0,0.0,0.0,0.0,0.0,3.0,1010.8,1005.5,100.0,5.0,100.0,100.0,24140.0,0.0,0.03,0.76
single_runs_api,gfs_global,2025-08-21 00:00:00,2025-08-21 08:00:00,2025-08-21 01:00:00,2025-08-21 09:00:00,1,26.7,82,23.3,31.7,,0.0,0.0,0.0,0.0,0.0,3.0,1011.4,1006.1,100.0,14.0,100.0,100.0,24140.0,0.0,0.07,0.63
single_runs_api,gfs_global,2025-08-21 00:00:00,2025-08-21 08:00:00,2025-08-21 02:00:00,2025-08-21 10:00:00,2,27.4,78,23.2,32.1,,0.0,0.0,0.0,0.0,0.0,3.0,1011.5,1006.2,100.0,5.0,74.0,100.0,24140.0,0.0,0.14,0.8
single_runs_api,gfs_global,2025-08-21 00:00:00,2025-08-21 08:00:00,2025-08-21 03:00:00,2025-08-21 11:00:00,3,26.9,82,23.5,31.9,,0.0,0.0,0.0,0.0,0.0,3.0,1011.3,1006.0,100.0,45.0,100.0,100.0,24140.0,0.0,0.07,0.64
single_runs_api,gfs_global,2025-08-21 00:00:00,2025-08-21 08:00:00,2025-08-21 04:00:00,2025-08-21 12:00:00,4,26.8,82,23.4,32.0,,0.9,0.0,0.9,0.0,0.0,53.0,1011.2,1005.9,100.0,5.0,100.0,100.0,24140.0,0.0,0.09,0.63
single_runs_api,gfs_global,2025-08-21 00:00:00,2025-08-21 08:00:00,2025-08-21 05:00:00,2025-08-21 13:00:00,5,27.7,75,22.8,32.4,,1.9,0.0,1.9,0.0,0.0,80.0,1011.0,1005.7,100.0,5.0,100.0,100.0,19420.0,0.0,0.27,0.93
single_runs_api,gfs_global,2025-08-21 00:00:00,2025-08-21 08:00:00,2025-08-21 06:00:00,2025-08-21 14:00:00,6,28.3,71,22.5,32.6,,0.7,0.0,0.7,0.0,0.0,53.0,1010.1,1004.9,100.0,5.0,100.0,100.0,17680.0,0.0,0.29,1.11
single_runs_api,gfs_global,2025-08-21 06:00:00,2025-08-21 14:00:00,2025-08-21 07:00:00,2025-08-21 15:00:00,1,29.8,66,22.7,34.7,,1.1,0.0,1.1,0.0,0.0,55.0,1009.2,1004.0,66.0,0.0,59.0,54.0,6360.0,0.0,0.63,1.42
single_runs_api,gfs_global,2025-08-21 06:00:00,2025-08-21 14:00:00,2025-08-21 08:00:00,2025-08-21 16:00:00,2,29.5,67,22.7,33.7,,0.7,0.0,0.7,0.0,0.0,53.0,1008.7,1003.5,99.0,27.0,88.0,84.0,17760.0,0.0,0.49,1.36
single_runs_api,gfs_global,2025-08-21 06:00:00,2025-08-21 14:00:00,2025-08-21 09:00:00,2025-08-21 17:00:00,3,29.4,66,22.4,33.3,,0.3,0.0,0.3,0.0,0.0,51.0,1008.4,1003.2,100.0,16.0,100.0,100.0,24140.0,0.0,0.31,1.39
single_runs_api,gfs_global,2025-08-21 06:00:00,2025-08-21 14:00:00,2025-08-21 10:00:00,2025-08-21 18:00:00,4,28.6,71,22.8,32.8,,0.1,0.0,0.1,0.0,0.0,51.0,1008.4,1003.2,100.0,0.0,100.0,100.0,24140.0,0.0,0.14,1.13
single_runs_api,gfs_global,2025-08-21 06:00:00,2025-08-21 14:00:00,2025-08-21 11:00:00,2025-08-21 19:00:00,5,28.0,74,22.9,32.6,,0.0,0.0,0.0,0.0,0.0,3.0,1008.7,1003.5,100.0,0.0,94.0,100.0,19880.0,0.0,0.07,0.98
single_runs_api,gfs_global,2025-08-21 06:00:00,2025-08-21 14:00:00,2025-08-21 12:00:00,2025-08-21 20:00:00,6,27.6,75,22.7,32.4,,0.0,0.0,0.0,0.0,0.0,2.0,1009.6,1004.3,70.0,0.0,61.0,61.0,24140.0,0.0,0.01,0.92
single_runs_api,gfs_global,2025-08-21 12:00:00,2025-08-21 20:00:00,2025-08-21 13:00:00,2025-08-21 21:00:00,1,27.6,77,23.2,32.1,,0.0,0.0,0.0,0.0,0.0,2.0,1010.1,1004.8,76.0,0.0,51.0,73.0,24140.0,0.0,0.02,0.85
single_runs_api,gfs_global,2025-08-21 12:00:00,2025-08-21 20:00:00,2025-08-21 14:00:00,2025-08-21 22:00:00,2,27.4,78,23.2,31.6,,0.2,0.0,0.2,0.0,0.0,51.0,1010.9,1005.6,68.0,0.0,63.0,10.0,24140.0,0.0,0.03,0.8
single_runs_api,gfs_global,2025-08-21 12:00:00,2025-08-21 20:00:00,2025-08-21 15:00:00,2025-08-21 23:00:00,3,26.7,82,23.3,30.6,,0.9,0.0,0.9,0.0,0.0,53.0,1011.3,1006.0,43.0,0.0,33.0,14.0,14500.0,0.0,0.03,0.63
single_runs_api,gfs_global,2025-08-21 12:00:00,2025-08-21 20:00:00,2025-08-21 16:00:00,2025-08-22 00:00:00,4,26.7,84,23.7,31.1,,0.5,0.0,0.5,0.0,0.0,53.0,1011.5,1006.2,85.0,0.0,5.0,81.0,24140.0,0.0,0.02,0.56
single_runs_api,gfs_global,2025-08-21 12:00:00,2025-08-21 20:00:00,2025-08-21 17:00:00,2025-08-22 01:00:00,5,26.4,85,23.6,30.9,,0.0,0.0,0.0,0.0,0.0,1.0,1011.0,1005.7,27.0,0.0,5.0,19.0,24140.0,0.0,0.01,0.51
single_runs_api,gfs_global,2025-08-21 12:00:00,2025-08-21 20:00:00,2025-08-21 18:00:00,2025-08-22 02:00:00,6,25.9,86,23.3,30.2,,0.4,0.0,0.4,0.0,0.0,51.0,1010.2,1004.9,45.0,0.0,5.0,37.0,14960.0,0.0,0.01,0.47
single_runs_api,gfs_global,2025-08-21 18:00:00,2025-08-22 02:00:00,2025-08-21 19:00:00,2025-08-22 03:00:00,1,25.4,86,22.9,29.8,,1.4,0.0,1.4,0.0,0.0,80.0,1010.1,1004.8,21.0,0.0,5.0,14.0,24140.0,0.0,0.0,0.45
single_runs_api,gfs_global,2025-08-21 18:00:00,2025-08-22 02:00:00,2025-08-21 20:00:00,2025-08-22 04:00:00,2,25.7,85,23.0,30.4,,0.1,0.0,0.1,0.0,0.0,51.0,1009.5,1004.2,28.0,0.0,11.0,14.0,24140.0,0.0,0.0,0.49
single_runs_api,gfs_global,2025-08-21 18:00:00,2025-08-22 02:00:00,2025-08-21 21:00:00,2025-08-22 05:00:00,3,25.5,85,22.8,30.2,,0.1,0.0,0.1,0.0,0.0,51.0,1009.6,1004.3,23.0,0.0,5.0,14.0,24140.0,0.0,0.0,0.49
single_runs_api,gfs_global,2025-08-21 18:00:00,2025-08-22 02:00:00,2025-08-21 22:00:00,2025-08-22 06:00:00,4,25.0,85,22.3,29.4,,1.1,0.0,1.1,0.0,0.0,55.0,1010.1,1004.8,13.0,0.0,5.0,5.0,24140.0,0.0,0.0,0.47
single_runs_api,gfs_global,2025-08-21 18:00:00,2025-08-22 02:00:00,2025-08-21 23:00:00,2025-08-22 07:00:00,5,25.4,83,22.3,30.0,,0.0,0.0,0.0,0.0,0.0,2.0,1010.4,1005.1,59.0,0.0,53.0,10.0,24140.0,0.0,0.0,0.55
single_runs_api,gfs_global,2025-08-21 18:00:00,2025-08-22 02:00:00,2025-08-22 00:00:00,2025-08-22 08:00:00,6,26.3,80,22.5,31.1,,0.0,0.0,0.0,0.0,0.0,1.0,1010.9,1005.6,25.0,0.0,5.0,19.0,24140.0,0.0,0.03,0.68
single_runs_api,gfs_global,2025-08-22 00:00:00,2025-08-22 08:00:00,2025-08-22 01:00:00,2025-08-22 09:00:00,1,28.0,73,22.7,32.2,,0.2,0.0,0.2,0.0,0.0,51.0,1011.1,1005.8,20.0,0.0,5.0,10.0,24140.0,0.0,0.2,1.02
single_runs_api,gfs_global,2025-08-22 00:00:00,2025-08-22 08:00:00,2025-08-22 02:00:00,2025-08-22 10:00:00,2,28.9,68,22.4,32.4,,0.0,0.0,0.0,0.0,0.0,1.0,1011.2,1006.0,23.0,0.0,5.0,14.0,24140.0,0.0,0.38,1.27
single_runs_api,gfs_global,2025-08-22 00:00:00,2025-08-22 08:00:00,2025-08-22 03:00:00,2025-08-22 11:00:00,3,29.6,65,22.3,33.8,,0.0,0.0,0.0,0.0,0.0,1.0,1010.9,1005.7,47.0,0.0,5.0,42.0,24140.0,0.0,0.53,1.45
single_runs_api,gfs_global,2025-08-22 00:00:00,2025-08-22 08:00:00,2025-08-22 04:00:00,2025-08-22 12:00:00,4,30.2,63,22.3,35.1,,0.0,0.0,0.0,0.0,0.0,2.0,1010.4,1005.2,51.0,7.0,5.0,40.0,24140.0,0.0,0.64,1.58
single_runs_api,gfs_global,2025-08-22 00:00:00,2025-08-22 08:00:00,2025-08-22 05:00:00,2025-08-22 13:00:00,5,30.4,63,22.5,35.3,,0.0,0.0,0.0,0.0,0.0,1.0,1009.7,1004.5,31.0,6.0,5.0,18.0,24140.0,0.0,0.69,1.6
single_runs_api,gfs_global,2025-08-22 00:00:00,2025-08-22 08:00:00,2025-08-22 06:00:00,2025-08-22 14:00:00,6,30.4,63,22.5,35.2,,0.0,0.0,0.0,0.0,0.0,1.0,1009.0,1003.8,22.0,11.0,5.0,5.0,24140.0,0.0,0.69,1.6
single_runs_api,gfs_global,2025-08-22 06:00:00,2025-08-22 14:00:00,2025-08-22 07:00:00,2025-08-22 15:00:00,1,30.6,62,22.5,35.2,,0.0,0.0,0.0,0.0,0.0,1.0,1008.0,1002.8,27.0,16.0,5.0,5.0,24140.0,0.0,0.66,1.66
single_runs_api,gfs_global,2025-08-22 06:00:00,2025-08-22 14:00:00,2025-08-22 08:00:00,2025-08-22 16:00:00,2,30.5,62,22.4,34.7,,0.1,0.0,0.1,0.0,0.0,51.0,1007.4,1002.2,26.0,12.0,10.0,5.0,24140.0,0.0,0.56,1.65
single_runs_api,gfs_global,2025-08-22 06:00:00,2025-08-22 14:00:00,2025-08-22 09:00:00,2025-08-22 17:00:00,3,30.4,61,22.0,33.9,,0.0,0.0,0.0,0.0,0.0,0.0,1007.0,1001.8,12.0,0.0,5.0,5.0,24140.0,0.0,0.44,1.69
single_runs_api,gfs_global,2025-08-22 06:00:00,2025-08-22 14:00:00,2025-08-22 10:00:00,2025-08-22 18:00:00,4,30.1,62,22.0,33.7,,0.0,0.0,0.0,0.0,0.0,3.0,1007.0,1001.8,100.0,0.0,5.0,100.0,24140.0,0.0,0.26,1.62
single_runs_api,gfs_global,2025-08-22 06:00:00,2025-08-22 14:00:00,2025-08-22 11:00:00,2025-08-22 19:00:00,5,29.0,68,22.5,32.8,,0.0,0.0,0.0,0.0,0.0,3.0,1007.7,1002.5,100.0,0.0,5.0,100.0,24140.0,0.0,0.1,1.28
single_runs_api,gfs_global,2025-08-22 06:00:00,2025-08-22 14:00:00,2025-08-22 12:00:00,2025-08-22 20:00:00,6,28.7,70,22.7,32.5,,0.0,0.0,0.0,0.0,0.0,3.0,1008.5,1003.3,100.0,0.0,5.0,100.0,24140.0,0.0,0.05,1.18
single_runs_api,gfs_global,2025-08-22 12:00:00,2025-08-22 20:00:00,2025-08-22 13:00:00,2025-08-22 21:00:00,1,28.4,73,23.1,32.1,,0.0,0.0,0.0,0.0,0.0,2.0,1009.2,1004.0,63.0,0.0,5.0,60.0,24140.0,0.0,0.05,1.04
single_runs_api,gfs_global,2025-08-22 12:00:00,2025-08-22 20:00:00,2025-08-22 14:00:00,2025-08-22 22:00:00,2,28.1,73,22.8,31.8,,0.0,0.0,0.0,0.0,0.0,0.0,1010.0,1004.7,15.0,0.0,10.0,5.0,24140.0,0.0,0.04,1.02
single_runs_api,gfs_global,2025-08-22 12:00:00,2025-08-22 20:00:00,2025-08-22 15:00:00,2025-08-22 23:00:00,3,28.0,73,22.7,31.9,,0.0,0.0,0.0,0.0,0.0,0.0,1010.5,1005.2,16.0,0.0,10.0,5.0,22160.0,0.0,0.04,1.02
single_runs_api,gfs_global,2025-08-22 12:00:00,2025-08-22 20:00:00,2025-08-22 16:00:00,2025-08-23 00:00:00,4,27.8,72,22.3,31.4,,0.0,0.0,0.0,0.0,0.0,3.0,1010.4,1005.1,100.0,0.0,5.0,100.0,24140.0,0.0,0.04,1.04
single_runs_api,gfs_global,2025-08-22 12:00:00,2025-08-22 20:00:00,2025-08-22 17:00:00,2025-08-23 01:00:00,5,27.6,73,22.3,31.2,,0.0,0.0,0.0,0.0,0.0,0.0,1009.9,1004.6,12.0,0.0,5.0,5.0,24140.0,0.0,0.04,0.99
single_runs_api,gfs_global,2025-08-22 12:00:00,2025-08-22 20:00:00,2025-08-22 18:00:00,2025-08-23 02:00:00,6,27.3,75,22.4,31.0,,0.0,0.0,0.0,0.0,0.0,1.0,1009.4,1004.1,26.0,0.0,5.0,17.0,24140.0,0.0,0.03,0.9
single_runs_api,gfs_global,2025-08-22 18:00:00,2025-08-23 02:00:00,2025-08-22 19:00:00,2025-08-23 03:00:00,1,26.8,79,22.8,30.5,,0.0,0.0,0.0,0.0,0.0,0.0,1008.6,1003.3,18.0,0.0,5.0,10.0,24140.0,0.0,0.03,0.74
single_runs_api,gfs_global,2025-08-22 18:00:00,2025-08-23 02:00:00,2025-08-22 20:00:00,2025-08-23 04:00:00,2,26.0,84,23.1,30.7,,1.1,0.0,1.1,0.0,0.0,55.0,1008.4,1003.1,100.0,0.0,5.0,100.0,24140.0,0.0,0.0,0.54
single_runs_api,gfs_global,2025-08-22 18:00:00,2025-08-23 02:00:00,2025-08-22 21:00:00,2025-08-23 05:00:00,3,26.5,79,22.5,30.9,,0.9,0.0,0.9,0.0,0.0,53.0,1008.7,1003.4,23.0,0.0,5.0,14.0,24140.0,0.0,0.01,0.73
single_runs_api,gfs_global,2025-08-22 18:00:00,2025-08-23 02:00:00,2025-08-22 22:00:00,2025-08-23 06:00:00,4,26.3,78,22.1,30.7,,0.6,0.0,0.6,0.0,0.0,53.0,1009.2,1003.9,14.0,0.0,5.0,5.0,24140.0,0.0,0.0,0.75
single_runs_api,gfs_global,2025-08-22 18:00:00,2025-08-23 02:00:00,2025-08-22 23:00:00,2025-08-23 07:00:00,5,26.5,75,21.7,30.9,,0.3,0.0,0.3,0.0,0.0,51.0,1009.6,1004.3,22.0,0.0,5.0,14.0,24140.0,0.0,0.0,0.86
single_runs_api,gfs_global,2025-08-22 18:00:00,2025-08-23 02:00:00,2025-08-23 00:00:00,2025-08-23 08:00:00,6,27.5,72,22.0,31.9,,0.1,0.0,0.1,0.0,0.0,51.0,1010.4,1005.1,20.0,0.0,5.0,10.0,24140.0,0.0,0.04,1.03
single_runs_api,gfs_global,2025-08-23 00:00:00,2025-08-23 08:00:00,2025-08-23 01:00:00,2025-08-23 09:00:00,1,28.3,67,21.6,32.1,,0.0,0.0,0.0,0.0,0.0,0.0,1011.1,1005.8,19.0,0.0,10.0,10.0,10960.0,0.0,0.21,1.27
single_runs_api,gfs_global,2025-08-23 00:00:00,2025-08-23 08:00:00,2025-08-23 02:00:00,2025-08-23 10:00:00,2,28.8,66,21.8,32.3,,0.7,0.0,0.7,0.0,0.0,53.0,1011.4,1006.2,21.0,0.0,5.0,10.0,19640.0,0.0,0.37,1.34
single_runs_api,gfs_global,2025-08-23 00:00:00,2025-08-23 08:00:00,2025-08-23 03:00:00,2025-08-23 11:00:00,3,29.1,66,22.1,33.3,,1.6,0.0,1.6,0.0,0.0,80.0,1011.1,1005.9,33.0,0.0,5.0,28.0,24140.0,0.0,0.52,1.37
single_runs_api,gfs_global,2025-08-23 00:00:00,2025-08-23 08:00:00,2025-08-23 04:00:00,2025-08-23 12:00:00,4,29.7,63,21.9,34.4,,0.7,0.0,0.7,0.0,0.0,53.0,1010.8,1005.6,14.0,0.0,5.0,10.0,19480.0,0.0,0.63,1.54
single_runs_api,gfs_global,2025-08-23 00:00:00,2025-08-23 08:00:00,2025-08-23 05:00:00,2025-08-23 13:00:00,5,30.2,62,22.1,35.4,,0.6,0.0,0.6,0.0,0.0,53.0,1010.0,1004.8,14.0,0.0,5.0,5.0,9160.0,0.0,0.69,1.63
single_runs_api,gfs_global,2025-08-23 00:00:00,2025-08-23 08:00:00,2025-08-23 06:00:00,2025-08-23 14:00:00,6,30.2,62,22.1,35.2,,0.3,0.0,0.3,0.0,0.0,51.0,1008.8,1003.6,29.0,21.0,5.0,5.0,22140.0,0.0,0.69,1.63
single_runs_api,gfs_global,2025-08-23 06:00:00,2025-08-23 14:00:00,2025-08-23 07:00:00,2025-08-23 15:00:00,1,30.3,61,21.9,34.8,,0.2,0.0,0.2,0.0,0.0,51.0,1007.8,1002.6,67.0,6.0,5.0,62.0,17900.0,0.0,0.65,1.68
single_runs_api,gfs_global,2025-08-23 06:00:00,2025-08-23 14:00:00,2025-08-23 08:00:00,2025-08-23 16:00:00,2,30.1,62,22.0,34.1,,0.1,0.0,0.1,0.0,0.0,51.0,1007.4,1002.2,28.0,14.0,10.0,5.0,22060.0,0.0,0.56,1.62
single_runs_api,gfs_global,2025-08-23 06:00:00,2025-08-23 14:00:00,2025-08-23 09:00:00,2025-08-23 17:00:00,3,30.0,62,21.9,33.3,,0.0,0.0,0.0,0.0,0.0,1.0,1007.0,1001.8,25.0,8.0,10.0,10.0,24140.0,0.0,0.43,1.61
single_runs_api,gfs_global,2025-08-23 06:00:00,2025-08-23 14:00:00,2025-08-23 10:00:00,2025-08-23 18:00:00,4,29.5,63,21.7,32.5,,0.0,0.0,0.0,0.0,0.0,0.0,1007.0,1001.8,17.0,0.0,5.0,10.0,24140.0,0.0,0.28,1.52
single_runs_api,gfs_global,2025-08-23 06:00:00,2025-08-23 14:00:00,2025-08-23 11:00:00,2025-08-23 19:00:00,5,28.4,68,21.9,31.8,,0.0,0.0,0.0,0.0,0.0,2.0,1007.8,1002.6,68.0,0.0,11.0,61.0,24140.0,0.0,0.11,1.23
single_runs_api,gfs_global,2025-08-23 06:00:00,2025-08-23 14:00:00,2025-08-23 12:00:00,2025-08-23 20:00:00,6,28.2,68,21.7,31.5,,0.0,0.0,0.0,0.0,0.0,3.0,1008.7,1003.5,86.0,0.0,83.0,5.0,24140.0,0.0,0.05,1.22
single_runs_api,gfs_global,2025-08-23 12:00:00,2025-08-23 20:00:00,2025-08-23 13:00:00,2025-08-23 21:00:00,1,28.5,67,21.7,31.8,,0.0,0.0,0.0,0.0,0.0,3.0,1009.1,1003.9,95.0,0.0,94.0,10.0,24140.0,0.0,0.05,1.28
single_runs_api,gfs_global,2025-08-23 12:00:00,2025-08-23 20:00:00,2025-08-23 14:00:00,2025-08-23 22:00:00,2,28.2,69,21.9,31.3,,0.0,0.0,0.0,0.0,0.0,2.0,1009.7,1004.5,59.0,0.0,54.0,5.0,24140.0,0.0,0.05,1.18
single_runs_api,gfs_global,2025-08-23 12:00:00,2025-08-23 20:00:00,2025-08-23 15:00:00,2025-08-23 23:00:00,3,28.0,72,22.5,31.5,,0.0,0.0,0.0,0.0,0.0,1.0,1010.1,1004.8,35.0,0.0,30.0,5.0,24140.0,0.0,0.05,1.06
single_runs_api,gfs_global,2025-08-23 12:00:00,2025-08-23 20:00:00,2025-08-23 16:00:00,2025-08-24 00:00:00,4,27.7,75,22.8,31.8,,0.0,0.0,0.0,0.0,0.0,1.0,1010.3,1005.0,22.0,0.0,18.0,5.0,24140.0,0.0,0.03,0.93
single_runs_api,gfs_global,2025-08-23 12:00:00,2025-08-23 20:00:00,2025-08-23 17:00:00,2025-08-24 01:00:00,5,27.5,75,22.6,31.6,,0.0,0.0,0.0,0.0,0.0,1.0,1010.1,1004.8,29.0,0.0,26.0,5.0,24140.0,0.0,0.02,0.92
single_runs_api,gfs_global,2025-08-23 12:00:00,2025-08-23 20:00:00,2025-08-23 18:00:00,2025-08-24 02:00:00,6,27.5,75,22.6,31.8,,0.0,0.0,0.0,0.0,0.0,3.0,1009.3,1004.0,91.0,0.0,90.0,0.0,24140.0,0.0,0.02,0.92
single_runs_api,gfs_global,2025-08-23 18:00:00,2025-08-24 02:00:00,2025-08-23 19:00:00,2025-08-24 03:00:00,1,27.0,78,22.9,31.5,,0.7,0.0,0.7,0.0,0.0,53.0,1009.0,1003.7,100.0,6.0,100.0,5.0,10240.0,0.0,0.01,0.78
single_runs_api,gfs_global,2025-08-23 18:00:00,2025-08-24 02:00:00,2025-08-23 20:00:00,2025-08-24 04:00:00,2,27.1,78,22.9,31.9,,0.9,0.0,0.9,0.0,0.0,53.0,1008.8,1003.5,100.0,5.0,100.0,100.0,24140.0,0.0,0.0,0.79
single_runs_api,gfs_global,2025-08-23 18:00:00,2025-08-24 02:00:00,2025-08-23 21:00:00,2025-08-24 05:00:00,3,26.3,81,22.7,30.9,,1.5,0.0,1.5,0.0,0.0,80.0,1009.1,1003.8,100.0,0.0,56.0,100.0,17400.0,0.0,0.0,0.65
single_runs_api,gfs_global,2025-08-23 18:00:00,2025-08-24 02:00:00,2025-08-23 22:00:00,2025-08-24 06:00:00,4,25.7,82,22.4,30.2,,2.1,0.0,2.1,0.0,0.0,80.0,1009.5,1004.2,100.0,0.0,5.0,100.0,22140.0,0.0,0.0,0.59
single_runs_api,gfs_global,2025-08-23 18:00:00,2025-08-24 02:00:00,2025-08-23 23:00:00,2025-08-24 07:00:00,5,25.8,81,22.3,30.2,,1.1,0.0,1.1,0.0,0.0,55.0,1010.1,1004.8,72.0,0.0,7.0,68.0,24140.0,0.0,0.0,0.63
single_runs_api,gfs_global,2025-08-23 18:00:00,2025-08-24 02:00:00,2025-08-24 00:00:00,2025-08-24 08:00:00,6,26.5,77,22.1,31.0,,0.5,0.0,0.5,0.0,0.0,53.0,1011.0,1005.7,30.0,0.0,19.0,10.0,24140.0,0.0,0.04,0.79
single_runs_api,gfs_global,2025-08-24 00:00:00,2025-08-24 08:00:00,2025-08-24 01:00:00,2025-08-24 09:00:00,1,25.4,84,22.5,28.7,,0.4,0.0,0.4,0.0,0.0,51.0,1012.1,1006.8,100.0,0.0,100.0,10.0,24140.0,0.0,0.14,0.52
single_runs_api,gfs_global,2025-08-24 00:00:00,2025-08-24 08:00:00,2025-08-24 02:00:00,2025-08-24 10:00:00,2,25.9,81,22.4,28.8,,1.1,0.0,1.1,0.0,0.0,55.0,1012.4,1007.1,100.0,5.0,100.0,59.0,10140.0,0.0,0.2,0.63
single_runs_api,gfs_global,2025-08-24 00:00:00,2025-08-24 08:00:00,2025-08-24 03:00:00,2025-08-24 11:00:00,3,27.2,75,22.4,29.6,,2.7,0.0,2.7,0.0,0.0,81.0,1012.7,1007.4,89.0,10.0,82.0,24.0,4460.0,0.0,0.4,0.9
single_runs_api,gfs_global,2025-08-24 00:00:00,2025-08-24 08:00:00,2025-08-24 04:00:00,2025-08-24 12:00:00,4,25.9,82,22.6,28.0,,0.7,0.0,0.7,0.0,0.0,53.0,1012.3,1007.0,100.0,29.0,100.0,18.0,18300.0,0.0,0.16,0.6
single_runs_api,gfs_global,2025-08-24 00:00:00,2025-08-24 08:00:00,2025-08-24 05:00:00,2025-08-24 13:00:00,5,25.5,83,22.4,27.4,,0.1,0.0,0.1,0.0,0.0,51.0,1011.5,1006.2,100.0,36.0,100.0,79.0,24140.0,0.0,0.16,0.55
single_runs_api,gfs_global,2025-08-24 00:00:00,2025-08-24 08:00:00,2025-08-24 06:00:00,2025-08-24 14:00:00,6,25.8,81,22.3,27.6,,0.1,0.0,0.1,0.0,0.0,51.0,1010.4,1005.1,100.0,36.0,100.0,100.0,24140.0,0.0,0.19,0.63
single_runs_api,gfs_global,2025-08-24 06:00:00,2025-08-24 14:00:00,2025-08-24 07:00:00,2025-08-24 15:00:00,1,27.4,74,22.3,29.7,,0.0,0.0,0.0,0.0,0.0,3.0,1009.5,1004.2,100.0,43.0,100.0,84.0,24140.0,0.0,0.4,0.95
single_runs_api,gfs_global,2025-08-24 06:00:00,2025-08-24 14:00:00,2025-08-24 08:00:00,2025-08-24 16:00:00,2,26.9,77,22.5,29.5,,0.0,0.0,0.0,0.0,0.0,3.0,1009.1,1003.8,100.0,85.0,100.0,100.0,24140.0,0.0,0.24,0.81
single_runs_api,gfs_global,2025-08-24 06:00:00,2025-08-24 14:00:00,2025-08-24 09:00:00,2025-08-24 17:00:00,3,26.6,78,22.4,29.2,,0.0,0.0,0.0,0.0,0.0,3.0,1008.5,1003.2,100.0,74.0,100.0,96.0,24140.0,0.0,0.13,0.76
single_runs_api,gfs_global,2025-08-24 06:00:00,2025-08-24 14:00:00,2025-08-24 10:00:00,2025-08-24 18:00:00,4,26.3,80,22.5,29.1,,0.0,0.0,0.0,0.0,0.0,3.0,1008.8,1003.5,100.0,84.0,100.0,100.0,24140.0,0.0,0.08,0.68
single_runs_api,gfs_global,2025-08-24 06:00:00,2025-08-24 14:00:00,2025-08-24 11:00:00,2025-08-24 19:00:00,5,26.1,80,22.3,29.1,,0.0,0.0,0.0,0.0,0.0,3.0,1009.2,1003.9,100.0,100.0,100.0,10.0,24140.0,0.0,0.06,0.67
single_runs_api,gfs_global,2025-08-24 06:00:00,2025-08-24 14:00:00,2025-08-24 12:00:00,2025-08-24 20:00:00,6,26.0,81,22.5,29.4,,0.0,0.0,0.0,0.0,0.0,3.0,1009.9,1004.6,100.0,100.0,100.0,5.0,24140.0,0.0,0.05,0.64
single_runs_api,gfs_global,2025-08-24 12:00:00,2025-08-24 20:00:00,2025-08-24 13:00:00,2025-08-24 21:00:00,1,26.1,82,22.8,29.9,,0.0,0.0,0.0,0.0,0.0,3.0,1010.6,1005.3,100.0,5.0,100.0,5.0,24140.0,0.0,0.02,0.61
single_runs_api,gfs_global,2025-08-24 12:00:00,2025-08-24 20:00:00,2025-08-24 14:00:00,2025-08-24 22:00:00,2,26.2,82,22.9,30.4,,0.0,0.0,0.0,0.0,0.0,3.0,1011.3,1006.0,100.0,5.0,100.0,10.0,24140.0,0.0,0.01,0.61
single_runs_api,gfs_global,2025-08-24 12:00:00,2025-08-24 20:00:00,2025-08-24 15:00:00,2025-08-24 23:00:00,3,26.3,82,22.9,30.3,,0.0,0.0,0.0,0.0,0.0,3.0,1011.7,1006.4,99.0,5.0,99.0,10.0,24140.0,0.0,0.02,0.61
single_runs_api,gfs_global,2025-08-24 12:00:00,2025-08-24 20:00:00,2025-08-24 16:00:00,2025-08-25 00:00:00,4,26.4,81,22.8,30.2,,0.0,0.0,0.0,0.0,0.0,3.0,1011.9,1006.6,100.0,5.0,100.0,0.0,24140.0,0.0,0.02,0.65
single_runs_api,gfs_global,2025-08-24 12:00:00,2025-08-24 20:00:00,2025-08-24 17:00:00,2025-08-25 01:00:00,5,26.4,79,22.4,30.1,,0.0,0.0,0.0,0.0,0.0,3.0,1011.6,1006.3,100.0,5.0,100.0,5.0,24140.0,0.0,0.02,0.72
single_runs_api,gfs_global,2025-08-24 12:00:00,2025-08-24 20:00:00,2025-08-24 18:00:00,2025-08-25 02:00:00,6,26.3,78,22.1,29.8,,0.0,0.0,0.0,0.0,0.0,3.0,1010.4,1005.1,100.0,0.0,100.0,17.0,24140.0,0.0,0.03,0.75
single_runs_api,gfs_global,2025-08-24 18:00:00,2025-08-25 02:00:00,2025-08-24 19:00:00,2025-08-25 03:00:00,1,26.3,78,22.1,29.6,,0.0,0.0,0.0,0.0,0.0,3.0,1009.7,1004.4,100.0,0.0,100.0,100.0,24140.0,0.0,0.03,0.75
single_runs_api,gfs_global,2025-08-24 18:00:00,2025-08-25 02:00:00,2025-08-24 20:00:00,2025-08-25 04:00:00,2,26.2,79,22.2,29.6,,0.0,0.0,0.0,0.0,0.0,3.0,1009.4,1004.1,100.0,0.0,100.0,100.0,24140.0,0.0,0.03,0.71
single_runs_api,gfs_global,2025-08-24 18:00:00,2025-08-25 02:00:00,2025-08-24 21:00:00,2025-08-25 05:00:00,3,26.1,77,21.7,29.1,,0.0,0.0,0.0,0.0,0.0,3.0,1009.3,1004.0,100.0,0.0,100.0,100.0,24140.0,0.0,0.04,0.78
single_runs_api,gfs_global,2025-08-24 18:00:00,2025-08-25 02:00:00,2025-08-24 22:00:00,2025-08-25 06:00:00,4,25.6,78,21.4,28.2,,0.0,0.0,0.0,0.0,0.0,3.0,1009.2,1003.9,92.0,0.0,87.0,85.0,24140.0,0.0,0.04,0.72
single_runs_api,gfs_global,2025-08-24 18:00:00,2025-08-25 02:00:00,2025-08-24 23:00:00,2025-08-25 07:00:00,5,25.8,78,21.6,28.5,,0.0,0.0,0.0,0.0,0.0,3.0,1009.6,1004.3,100.0,0.0,5.0,100.0,24140.0,0.0,0.04,0.73
single_runs_api,gfs_global,2025-08-24 18:00:00,2025-08-25 02:00:00,2025-08-25 00:00:00,2025-08-25 08:00:00,6,26.6,78,22.4,29.5,,0.0,0.0,0.0,0.0,0.0,3.0,1010.4,1005.1,100.0,0.0,95.0,100.0,24140.0,0.0,0.08,0.76
single_runs_api,gfs_global,2025-08-25 00:00:00,2025-08-25 08:00:00,2025-08-25 01:00:00,2025-08-25 09:00:00,1,28.0,75,23.1,31.0,,0.0,0.0,0.0,0.0,0.0,3.0,1011.3,1006.0,100.0,0.0,76.0,100.0,24140.0,0.0,0.19,0.94
single_runs_api,gfs_global,2025-08-25 00:00:00,2025-08-25 08:00:00,2025-08-25 02:00:00,2025-08-25 10:00:00,2,29.1,68,22.6,31.3,,0.0,0.0,0.0,0.0,0.0,3.0,1011.3,1006.1,100.0,0.0,57.0,100.0,24140.0,0.0,0.38,1.29
single_runs_api,gfs_global,2025-08-25 00:00:00,2025-08-25 08:00:00,2025-08-25 03:00:00,2025-08-25 11:00:00,3,29.7,66,22.6,32.5,,0.0,0.0,0.0,0.0,0.0,3.0,1011.4,1006.2,100.0,0.0,5.0,100.0,24140.0,0.0,0.5,1.41
single_runs_api,gfs_global,2025-08-25 00:00:00,2025-08-25 08:00:00,2025-08-25 04:00:00,2025-08-25 12:00:00,4,30.4,63,22.5,34.1,,0.0,0.0,0.0,0.0,0.0,3.0,1010.7,1005.5,90.0,0.0,14.0,87.0,6560.0,0.0,0.62,1.6
single_runs_api,gfs_global,2025-08-25 00:00:00,2025-08-25 08:00:00,2025-08-25 05:00:00,2025-08-25 13:00:00,5,30.7,61,22.3,35.2,,0.0,0.0,0.0,0.0,0.0,3.0,1010.0,1004.8,100.0,3.0,10.0,100.0,24140.0,0.0,0.67,1.72
single_runs_api,gfs_global,2025-08-25 00:00:00,2025-08-25 08:00:00,2025-08-25 06:00:00,2025-08-25 14:00:00,6,30.3,62,22.2,33.8,,0.0,0.0,0.0,0.0,0.0,3.0,1009.1,1003.9,100.0,0.0,5.0,100.0,24140.0,0.0,0.54,1.64
single_runs_api,gfs_global,2025-08-25 06:00:00,2025-08-25 14:00:00,2025-08-25 07:00:00,2025-08-25 15:00:00,1,29.8,65,22.5,32.7,,0.0,0.0,0.0,0.0,0.0,3.0,1008.0,1002.8,100.0,0.0,50.0,100.0,24140.0,0.0,0.34,1.46
single_runs_api,gfs_global,2025-08-25 06:00:00,2025-08-25 14:00:00,2025-08-25 08:00:00,2025-08-25 16:00:00,2,28.5,73,23.2,31.4,,0.0,0.0,0.0,0.0,0.0,3.0,1007.6,1002.4,100.0,0.0,100.0,100.0,24140.0,0.0,0.19,1.05
single_runs_api,gfs_global,2025-08-25 06:00:00,2025-08-25 14:00:00,2025-08-25 09:00:00,2025-08-25 17:00:00,3,28.9,72,23.3,31.6,,0.0,0.0,0.0,0.0,0.0,3.0,1007.4,1002.2,100.0,0.0,100.0,100.0,24140.0,0.0,0.25,1.11
single_runs_api,gfs_global,2025-08-25 06:00:00,2025-08-25 14:00:00,2025-08-25 10:00:00,2025-08-25 18:00:00,4,28.7,72,23.1,31.6,,0.0,0.0,0.0,0.0,0.0,3.0,1007.9,1002.7,100.0,0.0,84.0,100.0,24140.0,0.0,0.25,1.1
single_runs_api,gfs_global,2025-08-25 06:00:00,2025-08-25 14:00:00,2025-08-25 11:00:00,2025-08-25 19:00:00,5,27.8,75,22.9,30.8,,0.1,0.0,0.1,0.0,0.0,51.0,1008.6,1003.3,94.0,0.0,91.0,53.0,24140.0,0.0,0.11,0.93
single_runs_api,gfs_global,2025-08-25 06:00:00,2025-08-25 14:00:00,2025-08-25 12:00:00,2025-08-25 20:00:00,6,27.7,74,22.6,30.6,,0.0,0.0,0.0,0.0,0.0,3.0,1009.0,1003.7,100.0,0.0,100.0,100.0,24140.0,0.0,0.06,0.96
single_runs_api,gfs_global,2025-08-25 12:00:00,2025-08-25 20:00:00,2025-08-25 13:00:00,2025-08-25 21:00:00,1,27.7,75,22.8,31.4,,0.0,0.0,0.0,0.0,0.0,2.0,1009.5,1004.2,64.0,0.0,62.0,0.0,24140.0,0.0,0.04,0.93
single_runs_api,gfs_global,2025-08-25 12:00:00,2025-08-25 20:00:00,2025-08-25 14:00:00,2025-08-25 22:00:00,2,27.6,75,22.7,31.2,,0.0,0.0,0.0,0.0,0.0,2.0,1010.3,1005.0,70.0,0.0,67.0,0.0,24140.0,0.0,0.04,0.92
single_runs_api,gfs_global,2025-08-25 12:00:00,2025-08-25 20:00:00,2025-08-25 15:00:00,2025-08-25 23:00:00,3,27.4,78,23.2,31.1,,0.0,0.0,0.0,0.0,0.0,0.0,1010.7,1005.4,9.0,0.0,5.0,0.0,24140.0,0.0,0.04,0.8
single_runs_api,gfs_global,2025-08-25 12:00:00,2025-08-25 20:00:00,2025-08-25 16:00:00,2025-08-26 00:00:00,4,27.3,79,23.3,31.5,,0.0,0.0,0.0,0.0,0.0,1.0,1010.7,1005.4,20.0,0.0,17.0,0.0,24140.0,0.0,0.03,0.76
single_runs_api,gfs_global,2025-08-25 12:00:00,2025-08-25 20:00:00,2025-08-25 17:00:00,2025-08-26 01:00:00,5,27.2,80,23.4,31.5,,0.0,0.0,0.0,0.0,0.0,2.0,1010.3,1005.0,67.0,0.0,63.0,0.0,24140.0,0.0,0.02,0.72
single_runs_api,gfs_global,2025-08-25 12:00:00,2025-08-25 20:00:00,2025-08-25 18:00:00,2025-08-26 02:00:00,6,27.4,78,23.2,31.4,,0.0,0.0,0.0,0.0,0.0,3.0,1009.7,1004.4,100.0,0.0,100.0,0.0,24140.0,0.0,0.03,0.8
single_runs_api,gfs_global,2025-08-25 18:00:00,2025-08-26 02:00:00,2025-08-25 19:00:00,2025-08-26 03:00:00,1,27.1,78,22.9,31.1,,0.0,0.0,0.0,0.0,0.0,3.0,1009.5,1004.2,80.0,0.0,75.0,5.0,24140.0,0.0,0.03,0.79
single_runs_api,gfs_global,2025-08-25 18:00:00,2025-08-26 02:00:00,2025-08-25 20:00:00,2025-08-26 04:00:00,2,27.0,77,22.6,30.8,,0.1,0.0,0.1,0.0,0.0,51.0,1009.4,1004.1,95.0,5.0,93.0,6.0,24140.0,0.0,0.03,0.82
single_runs_api,gfs_global,2025-08-25 18:00:00,2025-08-26 02:00:00,2025-08-25 21:00:00,2025-08-26 05:00:00,3,27.2,75,22.4,30.9,,0.0,0.0,0.0,0.0,0.0,3.0,1009.4,1004.1,100.0,5.0,100.0,5.0,24140.0,0.0,0.03,0.9
single_runs_api,gfs_global,2025-08-25 18:00:00,2025-08-26 02:00:00,2025-08-25 22:00:00,2025-08-26 06:00:00,4,27.0,77,22.6,30.6,,0.0,0.0,0.0,0.0,0.0,3.0,1009.8,1004.5,100.0,5.0,100.0,67.0,24140.0,0.0,0.03,0.82
single_runs_api,gfs_global,2025-08-25 18:00:00,2025-08-26 02:00:00,2025-08-25 23:00:00,2025-08-26 07:00:00,5,26.7,80,22.9,30.3,,0.3,0.0,0.3,0.0,0.0,51.0,1010.3,1005.0,92.0,0.0,90.0,5.0,24140.0,0.0,0.03,0.7
single_runs_api,gfs_global,2025-08-25 18:00:00,2025-08-26 02:00:00,2025-08-26 00:00:00,2025-08-26 08:00:00,6,27.1,80,23.3,30.7,,0.0,0.0,0.0,0.0,0.0,2.0,1010.9,1005.6,66.0,0.0,56.0,5.0,24140.0,0.0,0.07,0.72
single_runs_api,gfs_global,2025-08-26 00:00:00,2025-08-26 08:00:00,2025-08-26 01:00:00,2025-08-26 09:00:00,1,28.3,75,23.4,31.5,,0.0,0.0,0.0,0.0,0.0,0.0,1011.1,1005.8,15.0,0.0,5.0,5.0,24140.0,0.0,0.22,0.96
single_runs_api,gfs_global,2025-08-26 00:00:00,2025-08-26 08:00:00,2025-08-26 02:00:00,2025-08-26 10:00:00,2,29.3,70,23.2,32.3,,0.0,0.0,0.0,0.0,0.0,0.0,1011.3,1006.1,19.0,0.0,5.0,10.0,24140.0,0.0,0.39,1.22
single_runs_api,gfs_global,2025-08-26 00:00:00,2025-08-26 08:00:00,2025-08-26 03:00:00,2025-08-26 11:00:00,3,30.1,65,22.8,33.8,,0.0,0.0,0.0,0.0,0.0,0.0,1011.2,1006.0,15.0,0.0,5.0,10.0,24140.0,0.0,0.54,1.49
single_runs_api,gfs_global,2025-08-26 00:00:00,2025-08-26 08:00:00,2025-08-26 04:00:00,2025-08-26 12:00:00,4,30.3,65,23.0,34.2,,0.3,0.0,0.4,0.0,0.0,51.0,1010.9,1005.7,18.0,9.0,0.0,10.0,24140.0,0.0,0.63,1.51
single_runs_api,gfs_global,2025-08-26 00:00:00,2025-08-26 08:00:00,2025-08-26 05:00:00,2025-08-26 13:00:00,5,30.2,67,23.4,34.2,,0.5,0.0,0.5,0.0,0.0,53.0,1010.1,1004.9,14.0,8.0,5.0,0.0,24140.0,0.0,0.67,1.41
single_runs_api,gfs_global,2025-08-26 00:00:00,2025-08-26 08:00:00,2025-08-26 06:00:00,2025-08-26 14:00:00,6,30.3,66,23.2,34.2,,0.2,0.0,0.2,0.0,0.0,51.0,1009.0,1003.8,15.0,7.0,5.0,0.0,24140.0,0.0,0.67,1.46
single_runs_api,gfs_global,2025-08-26 06:00:00,2025-08-26 14:00:00,2025-08-26 07:00:00,2025-08-26 15:00:00,1,30.7,64,23.1,34.7,,0.2,0.0,0.2,0.0,0.0,51.0,1008.4,1003.2,0.0,0.0,0.0,0.0,24140.0,0.0,0.65,1.59
single_runs_api,gfs_global,2025-08-26 06:00:00,2025-08-26 14:00:00,2025-08-26 08:00:00,2025-08-26 16:00:00,2,30.5,64,22.9,33.6,,0.2,0.0,0.2,0.0,0.0,51.0,1007.9,1002.7,0.0,0.0,0.0,0.0,24140.0,0.0,0.57,1.57
single_runs_api,gfs_global,2025-08-26 06:00:00,2025-08-26 14:00:00,2025-08-26 09:00:00,2025-08-26 17:00:00,3,30.1,65,22.8,32.6,,0.1,0.0,0.1,0.0,0.0,51.0,1007.6,1002.4,0.0,0.0,0.0,0.0,24140.0,0.0,0.44,1.49
single_runs_api,gfs_global,2025-08-26 06:00:00,2025-08-26 14:00:00,2025-08-26 10:00:00,2025-08-26 18:00:00,4,29.6,67,22.8,32.0,,0.1,0.0,0.1,0.0,0.0,51.0,1007.9,1002.7,0.0,0.0,0.0,0.0,24140.0,0.0,0.29,1.36
single_runs_api,gfs_global,2025-08-26 06:00:00,2025-08-26 14:00:00,2025-08-26 11:00:00,2025-08-26 19:00:00,5,28.8,70,22.8,31.9,,0.2,0.0,0.2,0.0,0.0,51.0,1008.5,1003.3,5.0,0.0,0.0,5.0,24140.0,0.0,0.13,1.18
single_runs_api,gfs_global,2025-08-26 06:00:00,2025-08-26 14:00:00,2025-08-26 12:00:00,2025-08-26 20:00:00,6,28.3,72,22.7,31.4,,0.0,0.0,0.0,0.0,0.0,0.0,1009.3,1004.1,0.0,0.0,0.0,0.0,24140.0,0.0,0.06,1.07
single_runs_api,gfs_global,2025-08-26 12:00:00,2025-08-26 20:00:00,2025-08-26 13:00:00,2025-08-26 21:00:00,1,28.0,75,23.1,31.7,,0.1,0.0,0.1,0.0,0.0,51.0,1010.2,1004.9,6.0,0.0,5.0,0.0,24140.0,0.0,0.05,0.94
single_runs_api,gfs_global,2025-08-26 12:00:00,2025-08-26 20:00:00,2025-08-26 14:00:00,2025-08-26 22:00:00,2,27.8,77,23.4,31.8,,0.1,0.0,0.1,0.0,0.0,51.0,1011.0,1005.7,6.0,0.0,5.0,0.0,24140.0,0.0,0.04,0.86
single_runs_api,gfs_global,2025-08-26 12:00:00,2025-08-26 20:00:00,2025-08-26 15:00:00,2025-08-26 23:00:00,3,27.7,77,23.3,31.4,,0.0,0.0,0.0,0.0,0.0,0.0,1011.1,1005.8,10.0,0.0,5.0,5.0,24140.0,0.0,0.04,0.85
single_runs_api,gfs_global,2025-08-26 12:00:00,2025-08-26 20:00:00,2025-08-26 16:00:00,2025-08-27 00:00:00,4,27.6,78,23.4,31.2,,0.0,0.0,0.0,0.0,0.0,0.0,1011.1,1005.8,5.0,0.0,5.0,0.0,24140.0,0.0,0.04,0.81
single_runs_api,gfs_global,2025-08-26 12:00:00,2025-08-26 20:00:00,2025-08-26 17:00:00,2025-08-27 01:00:00,5,27.4,79,23.4,30.9,,0.0,0.0,0.0,0.0,0.0,0.0,1010.4,1005.1,6.0,0.0,5.0,0.0,24140.0,0.0,0.04,0.76
single_runs_api,gfs_global,2025-08-26 12:00:00,2025-08-26 20:00:00,2025-08-26 18:00:00,2025-08-27 02:00:00,6,27.2,79,23.2,30.6,,0.0,0.0,0.0,0.0,0.0,0.0,1009.7,1004.4,6.0,0.0,5.0,0.0,24140.0,0.0,0.04,0.76
single_runs_api,gfs_global,2025-08-26 18:00:00,2025-08-27 02:00:00,2025-08-26 19:00:00,2025-08-27 03:00:00,1,27.1,79,23.1,30.5,,0.0,0.0,0.0,0.0,0.0,1.0,1009.3,1004.0,46.0,0.0,5.0,41.0,24140.0,0.0,0.04,0.75
single_runs_api,gfs_global,2025-08-26 18:00:00,2025-08-27 02:00:00,2025-08-26 20:00:00,2025-08-27 04:00:00,2,26.9,80,23.1,30.5,,0.0,0.0,0.0,0.0,0.0,2.0,1009.0,1003.7,79.0,0.0,5.0,76.0,20080.0,0.0,0.03,0.71
single_runs_api,gfs_global,2025-08-26 18:00:00,2025-08-27 02:00:00,2025-08-26 21:00:00,2025-08-27 05:00:00,3,26.8,80,23.0,30.7,,0.0,0.0,0.0,0.0,0.0,3.0,1009.1,1003.8,100.0,0.0,5.0,100.0,24140.0,0.0,0.03,0.7
single_runs_api,gfs_global,2025-08-26 18:00:00,2025-08-27 02:00:00,2025-08-26 22:00:00,2025-08-27 06:00:00,4,26.8,80,23.0,30.4,,0.1,0.0,0.1,0.0,0.0,51.0,1009.1,1003.8,100.0,0.0,5.0,100.0,24140.0,0.0,0.03,0.7
single_runs_api,gfs_global,2025-08-26 18:00:00,2025-08-27 02:00:00,2025-08-26 23:00:00,2025-08-27 07:00:00,5,26.8,80,23.0,30.5,,0.0,0.0,0.0,0.0,0.0,3.0,1009.4,1004.1,100.0,0.0,5.0,100.0,24140.0,0.0,0.03,0.7
single_runs_api,gfs_global,2025-08-26 18:00:00,2025-08-27 02:00:00,2025-08-27 00:00:00,2025-08-27 08:00:00,6,27.2,79,23.2,31.0,,0.1,0.0,0.1,0.0,0.0,51.0,1010.2,1004.9,100.0,0.0,5.0,100.0,24140.0,0.0,0.07,0.76
single_runs_api,gfs_global,2025-08-27 00:00:00,2025-08-27 08:00:00,2025-08-27 01:00:00,2025-08-27 09:00:00,1,28.2,75,23.3,31.7,,0.0,0.0,0.0,0.0,0.0,3.0,1010.8,1005.5,100.0,0.0,0.0,100.0,24140.0,0.0,0.16,0.95
single_runs_api,gfs_global,2025-08-27 00:00:00,2025-08-27 08:00:00,2025-08-27 02:00:00,2025-08-27 10:00:00,2,28.5,73,23.2,31.9,,0.1,0.0,0.1,0.0,0.0,51.0,1011.3,1006.0,100.0,0.0,5.0,100.0,24140.0,0.0,0.2,1.05
single_runs_api,gfs_global,2025-08-27 00:00:00,2025-08-27 08:00:00,2025-08-27 03:00:00,2025-08-27 11:00:00,3,29.4,68,22.9,32.5,,0.1,0.0,0.1,0.0,0.0,51.0,1010.7,1005.5,100.0,0.0,7.0,100.0,24140.0,0.0,0.34,1.31
single_runs_api,gfs_global,2025-08-27 00:00:00,2025-08-27 08:00:00,2025-08-27 04:00:00,2025-08-27 12:00:00,4,30.6,62,22.5,34.4,,0.0,0.0,0.0,0.0,0.0,2.0,1010.3,1005.1,77.0,0.0,61.0,73.0,24140.0,0.0,0.61,1.66
single_runs_api,gfs_global,2025-08-27 00:00:00,2025-08-27 08:00:00,2025-08-27 05:00:00,2025-08-27 13:00:00,5,30.1,64,22.5,32.7,,0.0,0.0,0.0,0.0,0.0,3.0,1009.7,1004.5,100.0,0.0,5.0,100.0,24140.0,0.0,0.45,1.53
single_runs_api,gfs_global,2025-08-27 00:00:00,2025-08-27 08:00:00,2025-08-27 06:00:00,2025-08-27 14:00:00,6,30.2,64,22.6,33.0,,0.0,0.0,0.0,0.0,0.0,3.0,1008.8,1003.6,100.0,20.0,100.0,100.0,24140.0,0.0,0.48,1.54
single_runs_api,gfs_global,2025-08-27 06:00:00,2025-08-27 14:00:00,2025-08-27 07:00:00,2025-08-27 15:00:00,1,29.7,67,22.9,32.2,,0.3,0.0,0.3,0.0,0.0,51.0,1008.1,1002.9,100.0,27.0,100.0,100.0,19300.0,0.0,0.31,1.37
single_runs_api,gfs_global,2025-08-27 06:00:00,2025-08-27 14:00:00,2025-08-27 08:00:00,2025-08-27 16:00:00,2,29.7,67,22.9,32.6,,0.0,0.0,0.0,0.0,0.0,3.0,1007.6,1002.4,100.0,0.0,100.0,100.0,24140.0,0.0,0.27,1.37
single_runs_api,gfs_global,2025-08-27 06:00:00,2025-08-27 14:00:00,2025-08-27 09:00:00,2025-08-27 17:00:00,3,29.4,69,23.1,32.3,,0.2,0.0,0.2,0.0,0.0,51.0,1007.3,1002.1,100.0,0.0,10.0,100.0,24140.0,0.0,0.26,1.27
single_runs_api,gfs_global,2025-08-27 06:00:00,2025-08-27 14:00:00,2025-08-27 10:00:00,2025-08-27 18:00:00,4,29.3,68,22.8,31.9,,0.0,0.0,0.0,0.0,0.0,3.0,1007.7,1002.5,100.0,0.0,0.0,100.0,14640.0,0.0,0.2,1.3
single_runs_api,gfs_global,2025-08-27 06:00:00,2025-08-27 14:00:00,2025-08-27 11:00:00,2025-08-27 19:00:00,5,28.7,67,21.9,31.2,,0.0,0.0,0.0,0.0,0.0,3.0,1008.5,1003.3,100.0,0.0,0.0,100.0,24140.0,0.0,0.13,1.3
single_runs_api,gfs_global,2025-08-27 06:00:00,2025-08-27 14:00:00,2025-08-27 12:00:00,2025-08-27 20:00:00,6,28.2,67,21.5,30.5,,0.0,0.0,0.0,0.0,0.0,3.0,1009.2,1004.0,100.0,0.0,0.0,100.0,24140.0,0.0,0.08,1.26
single_runs_api,gfs_global,2025-08-27 12:00:00,2025-08-27 20:00:00,2025-08-27 13:00:00,2025-08-27 21:00:00,1,27.9,68,21.4,30.4,,0.0,0.0,0.0,0.0,0.0,0.0,1010.1,1004.8,6.0,0.0,0.0,5.0,24140.0,0.0,0.07,1.2
single_runs_api,gfs_global,2025-08-27 12:00:00,2025-08-27 20:00:00,2025-08-27 14:00:00,2025-08-27 22:00:00,2,27.7,69,21.5,30.6,,0.0,0.0,0.0,0.0,0.0,3.0,1011.1,1005.8,81.0,0.0,0.0,81.0,24140.0,0.0,0.05,1.15
single_runs_api,gfs_global,2025-08-27 12:00:00,2025-08-27 20:00:00,2025-08-27 15:00:00,2025-08-27 23:00:00,3,27.5,70,21.5,30.2,,0.0,0.0,0.0,0.0,0.0,3.0,1011.6,1006.3,97.0,0.0,0.0,97.0,24140.0,0.0,0.06,1.1
single_runs_api,gfs_global,2025-08-27 12:00:00,2025-08-27 20:00:00,2025-08-27 16:00:00,2025-08-28 00:00:00,4,27.3,70,21.3,30.0,,0.0,0.0,0.0,0.0,0.0,3.0,1011.4,1006.1,100.0,0.0,0.0,100.0,24140.0,0.0,0.06,1.09
single_runs_api,gfs_global,2025-08-27 12:00:00,2025-08-27 20:00:00,2025-08-27 17:00:00,2025-08-28 01:00:00,5,27.1,71,21.4,30.1,,0.0,0.0,0.0,0.0,0.0,3.0,1010.5,1005.2,100.0,0.0,5.0,100.0,24140.0,0.0,0.04,1.04
single_runs_api,gfs_global,2025-08-27 12:00:00,2025-08-27 20:00:00,2025-08-27 18:00:00,2025-08-28 02:00:00,6,26.9,73,21.6,30.2,,0.0,0.0,0.0,0.0,0.0,3.0,1009.8,1004.5,100.0,0.0,5.0,100.0,24140.0,0.0,0.03,0.95
single_runs_api,gfs_global,2025-08-27 18:00:00,2025-08-28 02:00:00,2025-08-27 19:00:00,2025-08-28 03:00:00,1,26.7,75,21.9,30.1,,0.0,0.0,0.0,0.0,0.0,3.0,1009.3,1004.0,100.0,0.0,0.0,100.0,24140.0,0.0,0.03,0.87
single_runs_api,gfs_global,2025-08-27 18:00:00,2025-08-28 02:00:00,2025-08-27 20:00:00,2025-08-28 04:00:00,2,26.6,76,22.0,30.0,,0.0,0.0,0.0,0.0,0.0,1.0,1008.9,1003.6,42.0,0.0,5.0,36.0,24140.0,0.0,0.03,0.83
single_runs_api,gfs_global,2025-08-27 18:00:00,2025-08-28 02:00:00,2025-08-27 21:00:00,2025-08-28 05:00:00,3,26.4,78,22.2,29.9,,0.0,0.0,0.0,0.0,0.0,3.0,1009.1,1003.8,100.0,0.0,0.0,100.0,24140.0,0.0,0.03,0.76
single_runs_api,gfs_global,2025-08-27 18:00:00,2025-08-28 02:00:00,2025-08-27 22:00:00,2025-08-28 06:00:00,4,26.4,79,22.4,30.0,,0.0,0.0,0.0,0.0,0.0,1.0,1009.3,1004.0,46.0,0.0,0.0,46.0,24140.0,0.0,0.03,0.72
single_runs_api,gfs_global,2025-08-27 18:00:00,2025-08-28 02:00:00,2025-08-27 23:00:00,2025-08-28 07:00:00,5,26.0,82,22.7,29.8,,0.5,0.0,0.5,0.0,0.0,53.0,1009.9,1004.6,98.0,0.0,0.0,98.0,17240.0,0.0,0.02,0.6
single_runs_api,gfs_global,2025-08-27 18:00:00,2025-08-28 02:00:00,2025-08-28 00:00:00,2025-08-28 08:00:00,6,26.6,80,22.8,30.9,,1.0,0.0,1.0,0.0,0.0,55.0,1010.7,1005.4,20.0,0.0,5.0,14.0,19180.0,0.0,0.05,0.69
single_runs_api,gfs_global,2025-08-28 00:00:00,2025-08-28 08:00:00,2025-08-28 01:00:00,2025-08-28 09:00:00,1,28.0,74,22.9,33.0,,0.2,0.0,0.2,0.0,0.0,51.0,1011.7,1006.4,15.0,0.0,0.0,15.0,19400.0,0.0,0.2,0.98
single_runs_api,gfs_global,2025-08-28 00:00:00,2025-08-28 08:00:00,2025-08-28 02:00:00,2025-08-28 10:00:00,2,29.1,67,22.3,33.5,,0.4,0.0,0.4,0.0,0.0,51.0,1012.2,1007.0,68.0,0.0,0.0,68.0,20060.0,0.0,0.38,1.33
single_runs_api,gfs_global,2025-08-28 00:00:00,2025-08-28 08:00:00,2025-08-28 03:00:00,2025-08-28 11:00:00,3,30.2,61,21.8,34.5,,0.0,0.0,0.0,0.0,0.0,3.0,1011.9,1006.7,100.0,0.0,0.0,100.0,11520.0,0.0,0.53,1.67
single_runs_api,gfs_global,2025-08-28 00:00:00,2025-08-28 08:00:00,2025-08-28 04:00:00,2025-08-28 12:00:00,4,30.7,58,21.5,35.0,,0.1,0.0,0.1,0.0,0.0,51.0,1011.5,1006.3,100.0,0.0,0.0,100.0,13820.0,0.0,0.63,1.85
single_runs_api,gfs_global,2025-08-28 00:00:00,2025-08-28 08:00:00,2025-08-28 05:00:00,2025-08-28 13:00:00,5,30.9,55,20.8,34.4,,0.1,0.1,0.0,0.0,0.0,51.0,1010.6,1005.4,100.0,0.0,0.0,100.0,24140.0,0.0,0.68,2.0
single_runs_api,gfs_global,2025-08-28 00:00:00,2025-08-28 08:00:00,2025-08-28 06:00:00,2025-08-28 14:00:00,6,30.9,55,20.8,34.1,,0.1,0.0,0.1,0.0,0.0,51.0,1009.6,1004.4,100.0,0.0,0.0,100.0,24140.0,0.0,0.68,2.0
single_runs_api,gfs_global,2025-08-28 06:00:00,2025-08-28 14:00:00,2025-08-28 07:00:00,2025-08-28 15:00:00,1,30.6,57,21.1,33.8,,0.0,0.0,0.0,0.0,0.0,0.0,1008.8,1003.6,15.0,2.0,0.0,10.0,24140.0,0.0,0.68,1.88
single_runs_api,gfs_global,2025-08-28 06:00:00,2025-08-28 14:00:00,2025-08-28 08:00:00,2025-08-28 16:00:00,2,30.3,57,20.8,33.2,,0.0,0.0,0.0,0.0,0.0,3.0,1008.2,1003.0,100.0,0.0,0.0,100.0,22940.0,0.0,0.58,1.85
single_runs_api,gfs_global,2025-08-28 06:00:00,2025-08-28 14:00:00,2025-08-28 09:00:00,2025-08-28 17:00:00,3,29.7,59,20.8,32.0,,0.0,0.0,0.0,0.0,0.0,1.0,1007.9,1002.7,34.0,0.0,0.0,33.0,24140.0,0.0,0.45,1.71
single_runs_api,gfs_global,2025-08-28 06:00:00,2025-08-28 14:00:00,2025-08-28 10:00:00,2025-08-28 18:00:00,4,29.2,60,20.6,31.7,,0.0,0.0,0.0,0.0,0.0,3.0,1008.1,1002.9,100.0,0.0,0.0,100.0,24140.0,0.0,0.26,1.62
single_runs_api,gfs_global,2025-08-28 06:00:00,2025-08-28 14:00:00,2025-08-28 11:00:00,2025-08-28 19:00:00,5,28.1,66,21.1,30.9,,0.0,0.0,0.0,0.0,0.0,3.0,1008.6,1003.4,100.0,0.0,0.0,100.0,24140.0,0.0,0.1,1.29
single_runs_api,gfs_global,2025-08-28 06:00:00,2025-08-28 14:00:00,2025-08-28 12:00:00,2025-08-28 20:00:00,6,27.8,67,21.1,30.7,,0.0,0.0,0.0,0.0,0.0,3.0,1009.5,1004.2,100.0,0.0,5.0,100.0,24140.0,0.0,0.04,1.23
single_runs_api,gfs_global,2025-08-28 12:00:00,2025-08-28 20:00:00,2025-08-28 13:00:00,2025-08-28 21:00:00,1,27.3,71,21.5,30.7,,0.0,0.0,0.0,0.0,0.0,3.0,1010.4,1005.1,100.0,0.0,5.0,100.0,24140.0,0.0,0.03,1.05
single_runs_api,gfs_global,2025-08-28 12:00:00,2025-08-28 20:00:00,2025-08-28 14:00:00,2025-08-28 22:00:00,2,27.0,74,21.9,30.7,,0.0,0.0,0.0,0.0,0.0,3.0,1011.3,1006.0,100.0,0.0,5.0,100.0,24140.0,0.0,0.02,0.92
single_runs_api,gfs_global,2025-08-28 12:00:00,2025-08-28 20:00:00,2025-08-28 15:00:00,2025-08-28 23:00:00,3,26.8,75,22.0,30.5,,0.0,0.0,0.0,0.0,0.0,3.0,1011.9,1006.6,100.0,0.0,13.0,100.0,24140.0,0.0,0.02,0.88
single_runs_api,gfs_global,2025-08-28 12:00:00,2025-08-28 20:00:00,2025-08-28 16:00:00,2025-08-29 00:00:00,4,26.5,77,22.1,30.2,,0.0,0.0,0.0,0.0,0.0,3.0,1011.8,1006.5,100.0,0.0,28.0,100.0,24140.0,0.0,0.02,0.79
single_runs_api,gfs_global,2025-08-28 12:00:00,2025-08-28 20:00:00,2025-08-28 17:00:00,2025-08-29 01:00:00,5,26.2,78,22.0,29.9,,0.0,0.0,0.0,0.0,0.0,3.0,1011.4,1006.1,100.0,0.0,31.0,100.0,24140.0,0.0,0.02,0.75
single_runs_api,gfs_global,2025-08-28 12:00:00,2025-08-28 20:00:00,2025-08-28 18:00:00,2025-08-29 02:00:00,6,25.8,80,22.1,29.5,,0.0,0.0,0.0,0.0,0.0,3.0,1010.8,1005.5,100.0,0.0,27.0,100.0,24140.0,0.0,0.02,0.66
single_runs_api,gfs_global,2025-08-28 18:00:00,2025-08-29 02:00:00,2025-08-28 19:00:00,2025-08-29 03:00:00,1,25.5,80,21.8,29.1,,0.0,0.0,0.0,0.0,0.0,3.0,1010.3,1005.0,100.0,0.0,41.0,100.0,24140.0,0.0,0.01,0.65
single_runs_api,gfs_global,2025-08-28 18:00:00,2025-08-29 02:00:00,2025-08-28 20:00:00,2025-08-29 04:00:00,2,25.7,80,22.0,29.6,,0.0,0.0,0.0,0.0,0.0,3.0,1009.9,1004.6,100.0,0.0,96.0,100.0,24140.0,0.0,0.01,0.66
single_runs_api,gfs_global,2025-08-28 18:00:00,2025-08-29 02:00:00,2025-08-28 21:00:00,2025-08-29 05:00:00,3,25.9,80,22.2,29.7,,0.0,0.0,0.0,0.0,0.0,3.0,1009.9,1004.6,100.0,0.0,100.0,100.0,24140.0,0.0,0.02,0.67
single_runs_api,gfs_global,2025-08-28 18:00:00,2025-08-29 02:00:00,2025-08-28 22:00:00,2025-08-29 06:00:00,4,26.0,80,22.3,29.9,,0.0,0.0,0.0,0.0,0.0,3.0,1010.2,1004.9,100.0,0.0,60.0,100.0,24140.0,0.0,0.02,0.67
single_runs_api,gfs_global,2025-08-28 18:00:00,2025-08-29 02:00:00,2025-08-28 23:00:00,2025-08-29 07:00:00,5,25.9,81,22.4,29.9,,0.1,0.0,0.1,0.0,0.0,51.0,1010.6,1005.3,100.0,0.0,10.0,100.0,24140.0,0.0,0.01,0.63
single_runs_api,gfs_global,2025-08-28 18:00:00,2025-08-29 02:00:00,2025-08-29 00:00:00,2025-08-29 08:00:00,6,26.9,77,22.5,30.9,,0.0,0.0,0.0,0.0,0.0,3.0,1011.3,1006.0,99.0,0.0,5.0,99.0,24140.0,0.0,0.06,0.81
single_runs_api,gfs_global,2025-08-29 00:00:00,2025-08-29 08:00:00,2025-08-29 01:00:00,2025-08-29 09:00:00,1,28.3,71,22.6,32.2,,0.0,0.0,0.0,0.0,0.0,1.0,1011.7,1006.4,22.0,0.0,10.0,10.0,24140.0,0.0,0.21,1.12
single_runs_api,gfs_global,2025-08-29 00:00:00,2025-08-29 08:00:00,2025-08-29 02:00:00,2025-08-29 10:00:00,2,28.9,67,22.2,32.0,,0.0,0.0,0.0,0.0,0.0,3.0,1012.2,1007.0,100.0,0.0,5.0,100.0,24140.0,0.0,0.29,1.31
single_runs_api,gfs_global,2025-08-29 00:00:00,2025-08-29 08:00:00,2025-08-29 03:00:00,2025-08-29 11:00:00,3,29.4,65,22.1,32.0,,0.0,0.0,0.0,0.0,0.0,3.0,1011.7,1006.5,100.0,0.0,5.0,100.0,24140.0,0.0,0.44,1.43
single_runs_api,gfs_global,2025-08-29 00:00:00,2025-08-29 08:00:00,2025-08-29 04:00:00,2025-08-29 12:00:00,4,30.1,62,22.0,33.8,,0.0,0.0,0.0,0.0,0.0,3.0,1011.3,1006.1,100.0,0.0,5.0,100.0,24140.0,0.0,0.62,1.62
single_runs_api,gfs_global,2025-08-29 00:00:00,2025-08-29 08:00:00,2025-08-29 05:00:00,2025-08-29 13:00:00,5,30.4,60,21.7,34.5,,0.0,0.0,0.0,0.0,0.0,2.0,1010.4,1005.2,74.0,0.0,5.0,70.0,24140.0,0.0,0.7,1.73
single_runs_api,gfs_global,2025-08-29 00:00:00,2025-08-29 08:00:00,2025-08-29 06:00:00,2025-08-29 14:00:00,6,30.5,59,21.6,34.6,,0.0,0.0,0.0,0.0,0.0,0.0,1009.5,1004.3,5.0,0.0,5.0,0.0,24140.0,0.0,0.71,1.79
single_runs_api,gfs_global,2025-08-29 06:00:00,2025-08-29 14:00:00,2025-08-29 07:00:00,2025-08-29 15:00:00,1,30.6,58,21.4,34.6,,0.0,0.0,0.0,0.0,0.0,1.0,1008.6,1003.4,37.0,0.0,5.0,33.0,24140.0,0.0,0.68,1.84
single_runs_api,gfs_global,2025-08-29 06:00:00,2025-08-29 14:00:00,2025-08-29 08:00:00,2025-08-29 16:00:00,2,30.5,58,21.3,34.1,,0.0,0.0,0.0,0.0,0.0,2.0,1008.2,1003.0,73.0,0.0,5.0,71.0,24140.0,0.0,0.58,1.83
single_runs_api,gfs_global,2025-08-29 06:00:00,2025-08-29 14:00:00,2025-08-29 09:00:00,2025-08-29 17:00:00,3,30.4,59,21.5,33.4,,0.0,0.0,0.0,0.0,0.0,0.0,1008.0,1002.8,18.0,0.0,5.0,10.0,24140.0,0.0,0.45,1.78
single_runs_api,gfs_global,2025-08-29 06:00:00,2025-08-29 14:00:00,2025-08-29 10:00:00,2025-08-29 18:00:00,4,29.9,62,21.8,33.1,,0.0,0.0,0.0,0.0,0.0,2.0,1008.4,1003.2,76.0,0.0,5.0,72.0,24140.0,0.0,0.26,1.6
single_runs_api,gfs_global,2025-08-29 06:00:00,2025-08-29 14:00:00,2025-08-29 11:00:00,2025-08-29 19:00:00,5,29.1,67,22.3,32.7,,0.0,0.0,0.0,0.0,0.0,3.0,1008.8,1003.6,100.0,0.0,5.0,100.0,24140.0,0.0,0.11,1.33
single_runs_api,gfs_global,2025-08-29 06:00:00,2025-08-29 14:00:00,2025-08-29 12:00:00,2025-08-29 20:00:00,6,29.0,66,22.0,32.0,,0.0,0.0,0.0,0.0,0.0,3.0,1009.5,1004.3,100.0,0.0,5.0,100.0,24140.0,0.0,0.06,1.36
single_runs_api,gfs_global,2025-08-29 12:00:00,2025-08-29 20:00:00,2025-08-29 13:00:00,2025-08-29 21:00:00,1,28.7,68,22.2,31.9,,0.0,0.0,0.0,0.0,0.0,3.0,1010.1,1004.9,100.0,0.0,5.0,100.0,14400.0,0.0,0.06,1.26
single_runs_api,gfs_global,2025-08-29 12:00:00,2025-08-29 20:00:00,2025-08-29 14:00:00,2025-08-29 22:00:00,2,28.4,70,22.4,32.1,,0.1,0.0,0.1,0.0,0.0,51.0,1010.8,1005.5,63.0,0.0,5.0,58.0,24140.0,0.0,0.04,1.16
single_runs_api,gfs_global,2025-08-29 12:00:00,2025-08-29 20:00:00,2025-08-29 15:00:00,2025-08-29 23:00:00,3,28.4,69,22.1,32.2,,0.0,0.0,0.0,0.0,0.0,3.0,1011.3,1006.0,100.0,0.0,5.0,100.0,24140.0,0.0,0.03,1.2
single_runs_api,gfs_global,2025-08-29 12:00:00,2025-08-29 20:00:00,2025-08-29 16:00:00,2025-08-30 00:00:00,4,28.4,67,21.7,32.1,,0.0,0.0,0.0,0.0,0.0,3.0,1011.1,1005.8,100.0,0.0,5.0,100.0,24140.0,0.0,0.03,1.27
single_runs_api,gfs_global,2025-08-29 12:00:00,2025-08-29 20:00:00,2025-08-29 17:00:00,2025-08-30 01:00:00,5,28.3,67,21.6,31.6,,0.0,0.0,0.0,0.0,0.0,3.0,1010.8,1005.5,100.0,0.0,5.0,100.0,8560.0,0.0,0.05,1.27
single_runs_api,gfs_global,2025-08-29 12:00:00,2025-08-29 20:00:00,2025-08-29 18:00:00,2025-08-30 02:00:00,6,27.2,73,21.9,31.4,,1.1,0.0,1.1,0.0,0.0,55.0,1010.5,1005.2,100.0,22.0,10.0,100.0,24140.0,0.0,0.01,0.97
single_runs_api,gfs_global,2025-08-29 18:00:00,2025-08-30 02:00:00,2025-08-29 19:00:00,2025-08-30 03:00:00,1,26.8,75,22.0,31.1,,0.7,0.0,0.7,0.0,0.0,53.0,1010.2,1004.9,95.0,24.0,5.0,88.0,24140.0,0.0,0.0,0.88
single_runs_api,gfs_global,2025-08-29 18:00:00,2025-08-30 02:00:00,2025-08-29 20:00:00,2025-08-30 04:00:00,2,26.4,77,22.0,30.2,,0.1,0.0,0.1,0.0,0.0,51.0,1010.5,1005.2,94.0,54.0,27.0,81.0,24140.0,0.0,0.02,0.79
single_runs_api,gfs_global,2025-08-29 18:00:00,2025-08-30 02:00:00,2025-08-29 21:00:00,2025-08-30 05:00:00,3,25.6,83,22.5,29.4,,0.4,0.0,0.4,0.0,0.0,51.0,1010.8,1005.5,100.0,51.0,67.0,100.0,24140.0,0.0,0.01,0.56
single_runs_api,gfs_global,2025-08-29 18:00:00,2025-08-30 02:00:00,2025-08-29 22:00:00,2025-08-30 06:00:00,4,25.5,84,22.6,29.2,,1.2,0.0,1.2,0.0,0.0,55.0,1011.0,1005.7,97.0,83.0,58.0,73.0,24140.0,0.0,0.02,0.52
single_runs_api,gfs_global,2025-08-29 18:00:00,2025-08-30 02:00:00,2025-08-29 23:00:00,2025-08-30 07:00:00,5,24.7,90,22.9,27.7,,1.2,0.9,0.3,0.0,0.0,55.0,1011.3,1006.0,100.0,100.0,100.0,100.0,7820.0,0.0,0.01,0.31
single_runs_api,gfs_global,2025-08-29 18:00:00,2025-08-30 02:00:00,2025-08-30 00:00:00,2025-08-30 08:00:00,6,24.0,92,22.6,27.9,,4.0,4.0,0.0,0.0,0.0,63.0,1011.8,1006.5,100.0,100.0,100.0,100.0,8080.0,0.0,0.03,0.24
single_runs_api,gfs_global,2025-08-30 00:00:00,2025-08-30 08:00:00,2025-08-30 01:00:00,2025-08-30 09:00:00,1,25.3,86,22.8,29.8,,0.8,0.8,0.0,0.0,0.0,53.0,1012.2,1006.9,100.0,100.0,100.0,100.0,22500.0,0.0,0.03,0.45
single_runs_api,gfs_global,2025-08-30 00:00:00,2025-08-30 08:00:00,2025-08-30 02:00:00,2025-08-30 10:00:00,2,25.7,85,23.0,29.8,,0.4,0.4,0.0,0.0,0.0,51.0,1012.4,1007.1,100.0,6.0,100.0,100.0,24140.0,0.0,0.06,0.49
single_runs_api,gfs_global,2025-08-30 00:00:00,2025-08-30 08:00:00,2025-08-30 03:00:00,2025-08-30 11:00:00,3,26.6,82,23.2,30.3,,0.0,0.0,0.0,0.0,0.0,3.0,1012.0,1006.7,100.0,5.0,100.0,100.0,24140.0,0.0,0.11,0.63
single_runs_api,gfs_global,2025-08-30 00:00:00,2025-08-30 08:00:00,2025-08-30 04:00:00,2025-08-30 12:00:00,4,27.2,78,23.0,30.8,,0.0,0.0,0.0,0.0,0.0,3.0,1011.1,1005.8,100.0,7.0,100.0,100.0,24140.0,0.0,0.15,0.79
single_runs_api,gfs_global,2025-08-30 00:00:00,2025-08-30 08:00:00,2025-08-30 05:00:00,2025-08-30 13:00:00,5,27.2,77,22.8,30.8,,0.0,0.0,0.0,0.0,0.0,3.0,1010.1,1004.8,100.0,41.0,100.0,100.0,24140.0,0.0,0.15,0.83
single_runs_api,gfs_global,2025-08-30 00:00:00,2025-08-30 08:00:00,2025-08-30 06:00:00,2025-08-30 14:00:00,6,27.0,78,22.8,30.6,,0.0,0.0,0.0,0.0,0.0,3.0,1009.3,1004.0,100.0,6.0,100.0,10.0,24140.0,0.0,0.12,0.78
single_runs_api,gfs_global,2025-08-30 06:00:00,2025-08-30 14:00:00,2025-08-30 07:00:00,2025-08-30 15:00:00,1,29.2,67,22.4,32.1,,0.0,0.0,0.0,0.0,0.0,3.0,1008.2,1003.0,87.0,0.0,83.0,14.0,24140.0,0.0,0.39,1.33
single_runs_api,gfs_global,2025-08-30 06:00:00,2025-08-30 14:00:00,2025-08-30 08:00:00,2025-08-30 16:00:00,2,29.8,65,22.5,33.7,,0.0,0.0,0.0,0.0,0.0,2.0,1007.6,1002.4,68.0,3.0,5.0,61.0,24140.0,0.0,0.54,1.46
single_runs_api,gfs_global,2025-08-30 06:00:00,2025-08-30 14:00:00,2025-08-30 09:00:00,2025-08-30 17:00:00,3,29.5,66,22.5,32.7,,0.0,0.0,0.0,0.0,0.0,1.0,1007.5,1002.3,40.0,21.0,5.0,14.0,24140.0,0.0,0.42,1.4
single_runs_api,gfs_global,2025-08-30 06:00:00,2025-08-30 14:00:00,2025-08-30 10:00:00,2025-08-30 18:00:00,4,28.5,70,22.5,31.8,,0.0,0.0,0.0,0.0,0.0,3.0,1008.0,1002.8,100.0,17.0,5.0,100.0,24140.0,0.0,0.22,1.16
single_runs_api,gfs_global,2025-08-30 06:00:00,2025-08-30 14:00:00,2025-08-30 11:00:00,2025-08-30 19:00:00,5,27.5,76,22.9,31.5,,0.0,0.0,0.0,0.0,0.0,3.0,1008.5,1003.2,99.0,0.0,6.0,98.0,24140.0,0.0,0.08,0.88
single_runs_api,gfs_global,2025-08-30 06:00:00,2025-08-30 14:00:00,2025-08-30 12:00:00,2025-08-30 20:00:00,6,27.2,76,22.6,31.0,,0.0,0.0,0.0,0.0,0.0,3.0,1009.1,1003.8,100.0,0.0,21.0,100.0,24140.0,0.0,0.05,0.86
single_runs_api,gfs_global,2025-08-30 12:00:00,2025-08-30 20:00:00,2025-08-30 13:00:00,2025-08-30 21:00:00,1,27.3,78,23.1,31.2,,0.0,0.0,0.0,0.0,0.0,2.0,1009.5,1004.2,54.0,0.0,16.0,40.0,24140.0,0.0,0.03,0.8
single_runs_api,gfs_global,2025-08-30 12:00:00,2025-08-30 20:00:00,2025-08-30 14:00:00,2025-08-30 22:00:00,2,27.2,80,23.4,31.3,,0.0,0.0,0.0,0.0,0.0,3.0,1010.1,1004.8,100.0,0.0,30.0,100.0,24140.0,0.0,0.03,0.72
single_runs_api,gfs_global,2025-08-30 12:00:00,2025-08-30 20:00:00,2025-08-30 15:00:00,2025-08-30 23:00:00,3,27.0,81,23.4,30.9,,0.0,0.0,0.0,0.0,0.0,3.0,1010.6,1005.3,100.0,0.0,85.0,100.0,24140.0,0.0,0.03,0.68
single_runs_api,gfs_global,2025-08-30 12:00:00,2025-08-30 20:00:00,2025-08-30 16:00:00,2025-08-31 00:00:00,4,27.0,80,23.2,30.9,,0.0,0.0,0.0,0.0,0.0,3.0,1010.7,1005.4,100.0,0.0,78.0,100.0,24140.0,0.0,0.03,0.71
single_runs_api,gfs_global,2025-08-30 12:00:00,2025-08-30 20:00:00,2025-08-30 17:00:00,2025-08-31 01:00:00,5,27.2,79,23.2,31.3,,0.0,0.0,0.0,0.0,0.0,3.0,1010.4,1005.1,100.0,0.0,100.0,100.0,24140.0,0.0,0.03,0.76
single_runs_api,gfs_global,2025-08-30 12:00:00,2025-08-30 20:00:00,2025-08-30 18:00:00,2025-08-31 02:00:00,6,27.2,79,23.2,31.3,,0.0,0.0,0.0,0.0,0.0,3.0,1009.5,1004.2,100.0,0.0,100.0,100.0,24140.0,0.0,0.03,0.76
single_runs_api,gfs_global,2025-08-30 18:00:00,2025-08-31 02:00:00,2025-08-30 19:00:00,2025-08-31 03:00:00,1,27.1,79,23.1,30.9,,0.0,0.0,0.0,0.0,0.0,3.0,1009.0,1003.7,100.0,0.0,54.0,100.0,24140.0,0.0,0.03,0.75
single_runs_api,gfs_global,2025-08-30 18:00:00,2025-08-31 02:00:00,2025-08-30 20:00:00,2025-08-31 04:00:00,2,27.0,80,23.2,30.9,,0.1,0.0,0.1,0.0,0.0,51.0,1008.7,1003.4,100.0,0.0,80.0,100.0,24140.0,0.0,0.03,0.71
single_runs_api,gfs_global,2025-08-30 18:00:00,2025-08-31 02:00:00,2025-08-30 21:00:00,2025-08-31 05:00:00,3,26.8,81,23.2,30.7,,0.4,0.0,0.4,0.0,0.0,51.0,1009.1,1003.8,100.0,0.0,100.0,76.0,13820.0,0.0,0.03,0.67
single_runs_api,gfs_global,2025-08-30 18:00:00,2025-08-31 02:00:00,2025-08-30 22:00:00,2025-08-31 06:00:00,4,26.1,85,23.3,30.2,,1.3,0.0,1.3,0.0,0.0,80.0,1009.3,1004.0,100.0,3.0,64.0,100.0,24140.0,0.0,0.02,0.51
single_runs_api,gfs_global,2025-08-30 18:00:00,2025-08-31 02:00:00,2025-08-30 23:00:00,2025-08-31 07:00:00,5,26.4,83,23.2,30.4,,0.1,0.0,0.1,0.0,0.0,51.0,1009.7,1004.4,93.0,4.0,83.0,92.0,24140.0,0.0,0.02,0.58
single_runs_api,gfs_global,2025-08-30 18:00:00,2025-08-31 02:00:00,2025-08-31 00:00:00,2025-08-31 08:00:00,6,26.9,82,23.5,30.9,,0.6,0.0,0.6,0.0,0.0,53.0,1010.3,1005.0,100.0,0.0,72.0,100.0,24140.0,0.0,0.06,0.64
single_runs_api,gfs_global,2025-08-31 00:00:00,2025-08-31 08:00:00,2025-08-31 01:00:00,2025-08-31 09:00:00,1,28.3,74,23.2,31.4,,0.3,0.0,0.3,0.0,0.0,51.0,,,69.0,0.0,5.0,67.0,,0.0,0.23,1.0
single_runs_api,gfs_global,2025-08-31 00:00:00,2025-08-31 08:00:00,2025-08-31 02:00:00,2025-08-31 10:00:00,2,29.0,69,22.7,31.7,,0.0,0.0,0.0,0.0,0.0,1.0,,,42.0,0.0,5.0,38.0,,0.0,0.39,1.24
single_runs_api,gfs_global,2025-08-31 00:00:00,2025-08-31 08:00:00,2025-08-31 03:00:00,2025-08-31 11:00:00,3,29.3,68,22.8,32.7,,0.1,0.0,0.1,0.0,0.0,51.0,,,97.0,0.0,5.0,96.0,,0.0,0.48,1.3
single_runs_api,gfs_global,2025-08-31 00:00:00,2025-08-31 08:00:00,2025-08-31 04:00:00,2025-08-31 12:00:00,4,29.6,66,22.5,33.6,,0.4,0.0,0.4,0.0,0.0,51.0,,,100.0,0.0,14.0,100.0,,0.0,0.56,1.41
single_runs_api,gfs_global,2025-08-31 00:00:00,2025-08-31 08:00:00,2025-08-31 05:00:00,2025-08-31 13:00:00,5,30.3,63,22.4,34.9,,0.0,0.0,0.0,0.0,0.0,3.0,,,99.0,0.0,76.0,93.0,,0.0,0.68,1.59
single_runs_api,gfs_global,2025-08-31 00:00:00,2025-08-31 08:00:00,2025-08-31 06:00:00,2025-08-31 14:00:00,6,30.5,61,22.1,35.1,,0.1,0.0,0.1,0.0,0.0,51.0,,,18.0,0.0,5.0,10.0,,0.0,0.71,1.7
single_runs_api,gfs_global,2025-08-31 06:00:00,2025-08-31 14:00:00,2025-08-31 07:00:00,2025-08-31 15:00:00,1,30.5,61,22.1,34.9,,0.0,0.0,0.0,0.0,0.0,0.0,1007.4,1002.2,17.0,0.0,5.0,10.0,24140.0,0.0,0.66,1.7
single_runs_api,gfs_global,2025-08-31 06:00:00,2025-08-31 14:00:00,2025-08-31 08:00:00,2025-08-31 16:00:00,2,30.6,60,21.9,34.7,,0.0,0.0,0.0,0.0,0.0,0.0,1007.2,1002.0,8.0,0.0,5.0,0.0,24140.0,0.0,0.58,1.75
single_runs_api,gfs_global,2025-08-31 06:00:00,2025-08-31 14:00:00,2025-08-31 09:00:00,2025-08-31 17:00:00,3,30.5,60,21.8,33.7,,0.0,0.0,0.0,0.0,0.0,0.0,1007.0,1001.8,8.0,0.0,5.0,0.0,24140.0,0.0,0.44,1.74
single_runs_api,gfs_global,2025-08-31 06:00:00,2025-08-31 14:00:00,2025-08-31 10:00:00,2025-08-31 18:00:00,4,30.0,63,22.2,33.3,,0.0,0.0,0.0,0.0,0.0,1.0,1007.1,1001.9,23.0,0.0,11.0,10.0,24140.0,0.0,0.28,1.57
single_runs_api,gfs_global,2025-08-31 06:00:00,2025-08-31 14:00:00,2025-08-31 11:00:00,2025-08-31 19:00:00,5,28.7,70,22.7,32.5,,0.0,0.0,0.0,0.0,0.0,2.0,1007.6,1002.4,78.0,0.0,73.0,5.0,24140.0,0.0,0.1,1.18
single_runs_api,gfs_global,2025-08-31 06:00:00,2025-08-31 14:00:00,2025-08-31 12:00:00,2025-08-31 20:00:00,6,28.1,72,22.5,31.6,,0.2,0.0,0.2,0.0,0.0,51.0,1008.2,1003.0,100.0,0.0,76.0,100.0,24140.0,0.0,0.07,1.06
single_runs_api,gfs_global,2025-08-31 12:00:00,2025-08-31 20:00:00,2025-08-31 13:00:00,2025-08-31 21:00:00,1,28.0,73,22.7,31.1,,0.0,0.0,0.0,0.0,0.0,3.0,1008.8,1003.6,100.0,0.0,100.0,100.0,24140.0,0.0,0.06,1.02
single_runs_api,gfs_global,2025-08-31 12:00:00,2025-08-31 20:00:00,2025-08-31 14:00:00,2025-08-31 22:00:00,2,27.9,73,22.6,30.7,,0.0,0.0,0.0,0.0,0.0,3.0,1009.3,1004.0,100.0,0.0,82.0,100.0,24140.0,0.0,0.06,1.01
single_runs_api,gfs_global,2025-08-31 12:00:00,2025-08-31 20:00:00,2025-08-31 15:00:00,2025-08-31 23:00:00,3,27.9,73,22.6,30.6,,0.0,0.0,0.0,0.0,0.0,3.0,1009.6,1004.3,100.0,0.0,100.0,98.0,24140.0,0.0,0.07,1.01
single_runs_api,gfs_global,2025-08-31 12:00:00,2025-08-31 20:00:00,2025-08-31 16:00:00,2025-09-01 00:00:00,4,27.7,75,22.8,30.7,,0.0,0.0,0.0,0.0,0.0,3.0,1009.3,1004.0,100.0,0.0,40.0,100.0,24140.0,0.0,0.06,0.93
single_runs_api,gfs_global,2025-08-31 12:00:00,2025-08-31 20:00:00,2025-08-31 17:00:00,2025-09-01 01:00:00,5,27.7,76,23.1,31.2,,0.0,0.0,0.0,0.0,0.0,3.0,1008.8,1003.5,100.0,0.0,100.0,100.0,24140.0,0.0,0.05,0.89
single_runs_api,gfs_global,2025-08-31 12:00:00,2025-08-31 20:00:00,2025-08-31 18:00:00,2025-09-01 02:00:00,6,27.7,77,23.3,31.5,,0.0,0.0,0.0,0.0,0.0,3.0,1008.3,1003.0,100.0,0.0,100.0,100.0,24140.0,0.0,0.04,0.85
single_runs_api,gfs_global,2025-08-31 18:00:00,2025-09-01 02:00:00,2025-08-31 19:00:00,2025-09-01 03:00:00,1,27.6,79,23.6,31.9,,0.0,0.0,0.0,0.0,0.0,3.0,1007.8,1002.5,100.0,0.0,100.0,100.0,24140.0,0.0,0.03,0.77
single_runs_api,gfs_global,2025-08-31 18:00:00,2025-09-01 02:00:00,2025-08-31 20:00:00,2025-09-01 04:00:00,2,26.8,84,23.8,31.1,,0.8,0.0,0.8,0.0,0.0,53.0,1007.8,1002.5,97.0,0.0,8.0,97.0,24140.0,0.0,0.02,0.56
single_runs_api,gfs_global,2025-08-31 18:00:00,2025-09-01 02:00:00,2025-08-31 21:00:00,2025-09-01 05:00:00,3,26.6,84,23.6,30.9,,0.3,0.0,0.3,0.0,0.0,51.0,1007.8,1002.5,85.0,0.0,48.0,67.0,10040.0,0.0,0.02,0.56
single_runs_api,gfs_global,2025-08-31 18:00:00,2025-09-01 02:00:00,2025-08-31 22:00:00,2025-09-01 06:00:00,4,26.6,85,23.8,31.1,,0.3,0.0,0.3,0.0,0.0,51.0,1008.1,1002.8,96.0,0.0,5.0,95.0,24140.0,0.0,0.01,0.52
single_runs_api,gfs_global,2025-08-31 18:00:00,2025-09-01 02:00:00,2025-08-31 23:00:00,2025-09-01 07:00:00,5,26.2,85,23.4,30.2,,2.0,0.0,2.0,0.0,0.0,80.0,1008.4,1003.1,79.0,0.0,5.0,74.0,22060.0,0.0,0.02,0.51
single_runs_api,gfs_global,2025-08-31 18:00:00,2025-09-01 02:00:00,2025-09-01 00:00:00,2025-09-01 08:00:00,6,27.0,80,23.2,30.9,,1.0,0.0,1.0,0.0,0.0,55.0,1009.1,1003.8,78.0,0.0,68.0,10.0,19900.0,0.0,0.06,0.71
single_runs_api,gfs_global,2025-09-01 00:00:00,2025-09-01 08:00:00,2025-09-01 01:00:00,2025-09-01 09:00:00,1,28.2,73,22.9,31.7,,0.1,0.0,0.1,0.0,0.0,51.0,,,100.0,10.0,61.0,100.0,,0.0,0.17,1.03
single_runs_api,gfs_global,2025-09-01 00:00:00,2025-09-01 08:00:00,2025-09-01 02:00:00,2025-09-01 10:00:00,2,28.6,72,23.0,32.3,,0.3,0.0,0.3,0.0,0.0,51.0,,,100.0,0.0,16.0,100.0,,0.0,0.3,1.09
single_runs_api,gfs_global,2025-09-01 00:00:00,2025-09-01 08:00:00,2025-09-01 03:00:00,2025-09-01 11:00:00,3,29.3,68,22.8,32.7,,0.6,0.0,0.6,0.0,0.0,53.0,,,100.0,0.0,13.0,100.0,,0.0,0.41,1.3
single_runs_api,gfs_global,2025-09-01 00:00:00,2025-09-01 08:00:00,2025-09-01 04:00:00,2025-09-01 12:00:00,4,29.7,66,22.6,33.6,,0.1,0.0,0.1,0.0,0.0,51.0,,,100.0,0.0,65.0,100.0,,0.0,0.55,1.41
single_runs_api,gfs_global,2025-09-01 00:00:00,2025-09-01 08:00:00,2025-09-01 05:00:00,2025-09-01 13:00:00,5,29.8,66,22.7,33.3,,0.0,0.0,0.0,0.0,0.0,3.0,,,100.0,0.0,91.0,100.0,,0.0,0.53,1.42
single_runs_api,gfs_global,2025-09-01 00:00:00,2025-09-01 08:00:00,2025-09-01 06:00:00,2025-09-01 14:00:00,6,28.5,72,22.9,31.8,,0.0,0.0,0.0,0.0,0.0,3.0,,,100.0,5.0,100.0,100.0,,0.0,0.21,1.09
single_runs_api,gfs_global,2025-09-01 06:00:00,2025-09-01 14:00:00,2025-09-01 07:00:00,2025-09-01 15:00:00,1,27.3,76,22.7,31.3,,0.0,0.0,0.0,0.0,0.0,3.0,1007.4,1002.1,100.0,5.0,100.0,100.0,24140.0,0.0,0.17,0.87
single_runs_api,gfs_global,2025-09-01 06:00:00,2025-09-01 14:00:00,2025-09-01 08:00:00,2025-09-01 16:00:00,2,27.4,75,22.5,31.5,,0.0,0.0,0.0,0.0,0.0,3.0,1007.0,1001.8,100.0,5.0,100.0,100.0,24140.0,0.0,0.16,0.91
single_runs_api,gfs_global,2025-09-01 06:00:00,2025-09-01 14:00:00,2025-09-01 09:00:00,2025-09-01 17:00:00,3,27.3,74,22.2,31.4,,0.0,0.0,0.0,0.0,0.0,3.0,1006.5,1001.3,100.0,3.0,100.0,90.0,24140.0,0.0,0.16,0.94
single_runs_api,gfs_global,2025-09-01 06:00:00,2025-09-01 14:00:00,2025-09-01 10:00:00,2025-09-01 18:00:00,4,27.4,74,22.3,31.6,,0.0,0.0,0.0,0.0,0.0,3.0,1006.6,1001.4,100.0,15.0,100.0,10.0,24140.0,0.0,0.13,0.95
single_runs_api,gfs_global,2025-09-01 06:00:00,2025-09-01 14:00:00,2025-09-01 11:00:00,2025-09-01 19:00:00,5,27.2,75,22.4,31.3,,0.0,0.0,0.0,0.0,0.0,3.0,1007.1,1001.8,100.0,0.0,100.0,5.0,24140.0,0.0,0.07,0.9
single_runs_api,gfs_global,2025-09-01 06:00:00,2025-09-01 14:00:00,2025-09-01 12:00:00,2025-09-01 20:00:00,6,27.1,75,22.3,31.3,,0.0,0.0,0.0,0.0,0.0,2.0,1008.0,1002.7,78.0,0.0,67.0,29.0,24140.0,0.0,0.04,0.89
single_runs_api,gfs_global,2025-09-01 12:00:00,2025-09-01 20:00:00,2025-09-01 13:00:00,2025-09-01 21:00:00,1,26.9,77,22.5,31.4,,0.0,0.0,0.0,0.0,0.0,3.0,1008.9,1003.6,100.0,0.0,58.0,100.0,24140.0,0.0,0.01,0.81
single_runs_api,gfs_global,2025-09-01 12:00:00,2025-09-01 20:00:00,2025-09-01 14:00:00,2025-09-01 22:00:00,2,26.7,79,22.7,31.4,,0.0,0.0,0.0,0.0,0.0,3.0,1009.5,1004.2,100.0,0.0,29.0,100.0,24140.0,0.0,0.0,0.73
single_runs_api,gfs_global,2025-09-01 12:00:00,2025-09-01 20:00:00,2025-09-01 15:00:00,2025-09-01 23:00:00,3,26.7,80,22.9,31.2,,0.0,0.0,0.0,0.0,0.0,3.0,1009.9,1004.6,100.0,0.0,5.0,100.0,24140.0,0.0,0.01,0.7
single_runs_api,gfs_global,2025-09-01 12:00:00,2025-09-01 20:00:00,2025-09-01 16:00:00,2025-09-02 00:00:00,4,26.7,81,23.1,31.3,,0.2,0.0,0.2,0.0,0.0,51.0,1010.1,1004.8,100.0,18.0,27.0,100.0,24140.0,0.0,0.01,0.66
single_runs_api,gfs_global,2025-09-01 12:00:00,2025-09-01 20:00:00,2025-09-01 17:00:00,2025-09-02 01:00:00,5,26.6,82,23.2,31.0,,0.5,0.0,0.5,0.0,0.0,53.0,1009.7,1004.4,100.0,0.0,57.0,100.0,24140.0,0.0,0.01,0.63
single_runs_api,gfs_global,2025-09-01 12:00:00,2025-09-01 20:00:00,2025-09-01 18:00:00,2025-09-02 02:00:00,6,26.4,83,23.2,30.4,,1.4,0.0,1.4,0.0,0.0,80.0,1008.8,1003.5,84.0,0.0,77.0,23.0,8100.0,0.0,0.02,0.58
single_runs_api,gfs_global,2025-09-01 18:00:00,2025-09-02 02:00:00,2025-09-01 19:00:00,2025-09-02 03:00:00,1,26.1,85,23.3,30.4,,1.9,0.0,1.9,0.0,0.0,80.0,1008.2,1002.9,100.0,0.0,100.0,14.0,6160.0,0.0,0.01,0.51
single_runs_api,gfs_global,2025-09-01 18:00:00,2025-09-02 02:00:00,2025-09-01 20:00:00,2025-09-02 04:00:00,2,26.1,84,23.2,30.2,,0.6,0.0,0.6,0.0,0.0,53.0,1007.8,1002.5,100.0,5.0,100.0,14.0,24140.0,0.0,0.01,0.54
single_runs_api,gfs_global,2025-09-01 18:00:00,2025-09-02 02:00:00,2025-09-01 21:00:00,2025-09-02 05:00:00,3,26.3,82,22.9,30.1,,0.1,0.0,0.1,0.0,0.0,51.0,1008.0,1002.7,100.0,46.0,100.0,65.0,24140.0,0.0,0.02,0.61
single_runs_api,gfs_global,2025-09-01 18:00:00,2025-09-02 02:00:00,2025-09-01 22:00:00,2025-09-02 06:00:00,4,26.3,81,22.7,29.7,,0.0,0.0,0.0,0.0,0.0,3.0,1008.3,1003.0,100.0,62.0,100.0,100.0,24140.0,0.0,0.03,0.65
single_runs_api,gfs_global,2025-09-01 18:00:00,2025-09-02 02:00:00,2025-09-01 23:00:00,2025-09-02 07:00:00,5,26.3,81,22.7,29.7,,0.1,0.0,0.1,0.0,0.0,51.0,1008.7,1003.4,100.0,37.0,100.0,16.0,24140.0,0.0,0.03,0.65
single_runs_api,gfs_global,2025-09-01 18:00:00,2025-09-02 02:00:00,2025-09-02 00:00:00,2025-09-02 08:00:00,6,26.2,82,22.9,29.5,,0.5,0.0,0.5,0.0,0.0,53.0,1009.3,1004.0,100.0,10.0,100.0,16.0,24140.0,0.0,0.06,0.61
single_runs_api,gfs_global,2025-09-02 00:00:00,2025-09-02 08:00:00,2025-09-02 01:00:00,2025-09-02 09:00:00,1,26.4,81,22.8,30.1,,0.0,0.0,0.0,0.0,0.0,3.0,1010.6,1005.3,100.0,14.0,100.0,100.0,24140.0,0.0,0.08,0.65
single_runs_api,gfs_global,2025-09-02 00:00:00,2025-09-02 08:00:00,2025-09-02 02:00:00,2025-09-02 10:00:00,2,27.5,74,22.4,30.9,,0.0,0.0,0.0,0.0,0.0,3.0,1011.1,1005.8,100.0,72.0,100.0,100.0,24140.0,0.0,0.18,0.95
single_runs_api,gfs_global,2025-09-02 00:00:00,2025-09-02 08:00:00,2025-09-02 03:00:00,2025-09-02 11:00:00,3,27.1,76,22.5,30.9,,0.0,0.0,0.0,0.0,0.0,3.0,1011.0,1005.7,100.0,100.0,100.0,100.0,24140.0,0.0,0.12,0.86
single_runs_api,gfs_global,2025-09-02 00:00:00,2025-09-02 08:00:00,2025-09-02 04:00:00,2025-09-02 12:00:00,4,27.2,75,22.4,30.4,,0.0,0.0,0.0,0.0,0.0,3.0,1010.8,1005.5,100.0,100.0,100.0,100.0,24140.0,0.0,0.16,0.9
single_runs_api,gfs_global,2025-09-02 00:00:00,2025-09-02 08:00:00,2025-09-02 05:00:00,2025-09-02 13:00:00,5,27.1,76,22.5,30.2,,0.0,0.0,0.0,0.0,0.0,3.0,1010.2,1004.9,100.0,57.0,100.0,36.0,18980.0,0.0,0.19,0.86
single_runs_api,gfs_global,2025-09-02 00:00:00,2025-09-02 08:00:00,2025-09-02 06:00:00,2025-09-02 14:00:00,6,26.2,81,22.6,29.7,,0.1,0.1,0.0,0.0,0.0,51.0,1009.5,1004.2,100.0,100.0,100.0,100.0,15380.0,0.0,0.11,0.64
single_runs_api,gfs_global,2025-09-02 06:00:00,2025-09-02 14:00:00,2025-09-02 07:00:00,2025-09-02 15:00:00,1,26.7,80,22.9,29.5,,0.0,0.0,0.0,0.0,0.0,3.0,1008.6,1003.3,100.0,67.0,100.0,73.0,24100.0,0.0,0.18,0.7
single_runs_api,gfs_global,2025-09-02 06:00:00,2025-09-02 14:00:00,2025-09-02 08:00:00,2025-09-02 16:00:00,2,27.4,78,23.2,30.1,,0.0,0.0,0.0,0.0,0.0,3.0,1008.2,1002.9,84.0,52.0,73.0,10.0,24140.0,0.0,0.33,0.8
single_runs_api,gfs_global,2025-09-02 06:00:00,2025-09-02 14:00:00,2025-09-02 09:00:00,2025-09-02 17:00:00,3,27.1,80,23.3,30.0,,0.0,0.0,0.0,0.0,0.0,3.0,1007.8,1002.5,89.0,49.0,75.0,10.0,24140.0,0.0,0.23,0.72
single_runs_api,gfs_global,2025-09-02 06:00:00,2025-09-02 14:00:00,2025-09-02 10:00:00,2025-09-02 18:00:00,4,26.6,81,23.0,29.6,,0.0,0.0,0.0,0.0,0.0,3.0,1007.8,1002.5,100.0,60.0,100.0,100.0,24140.0,0.0,0.1,0.66
single_runs_api,gfs_global,2025-09-02 06:00:00,2025-09-02 14:00:00,2025-09-02 11:00:00,2025-09-02 19:00:00,5,26.4,81,22.8,30.0,,0.0,0.0,0.0,0.0,0.0,3.0,1008.8,1003.5,100.0,16.0,100.0,100.0,24140.0,0.0,0.06,0.65
single_runs_api,gfs_global,2025-09-02 06:00:00,2025-09-02 14:00:00,2025-09-02 12:00:00,2025-09-02 20:00:00,6,26.3,81,22.7,30.4,,0.0,0.0,0.0,0.0,0.0,3.0,1009.6,1004.3,100.0,12.0,100.0,90.0,24140.0,0.0,0.04,0.65
single_runs_api,gfs_global,2025-09-02 12:00:00,2025-09-02 20:00:00,2025-09-02 13:00:00,2025-09-02 21:00:00,1,26.4,81,22.8,31.0,,0.0,0.0,0.0,0.0,0.0,3.0,1009.9,1004.6,100.0,5.0,100.0,10.0,24140.0,0.0,0.0,0.65
single_runs_api,gfs_global,2025-09-02 12:00:00,2025-09-02 20:00:00,2025-09-02 14:00:00,2025-09-02 22:00:00,2,26.2,82,22.9,30.7,,0.0,0.0,0.0,0.0,0.0,3.0,1010.7,1005.4,84.0,0.0,75.0,73.0,24140.0,0.0,0.01,0.61
single_runs_api,gfs_global,2025-09-02 12:00:00,2025-09-02 20:00:00,2025-09-02 15:00:00,2025-09-02 23:00:00,3,26.3,82,22.9,30.4,,0.0,0.0,0.0,0.0,0.0,3.0,1011.0,1005.7,100.0,0.0,81.0,100.0,24140.0,0.0,0.02,0.61
single_runs_api,gfs_global,2025-09-02 12:00:00,2025-09-02 20:00:00,2025-09-02 16:00:00,2025-09-03 00:00:00,4,26.4,80,22.6,30.2,,0.0,0.0,0.0,0.0,0.0,2.0,1011.0,1005.7,68.0,0.0,62.0,14.0,24140.0,0.0,0.02,0.69
single_runs_api,gfs_global,2025-09-02 12:00:00,2025-09-02 20:00:00,2025-09-02 17:00:00,2025-09-03 01:00:00,5,26.2,81,22.6,29.9,,0.0,0.0,0.0,0.0,0.0,2.0,1010.5,1005.2,57.0,0.0,27.0,52.0,24140.0,0.0,0.02,0.64
single_runs_api,gfs_global,2025-09-02 12:00:00,2025-09-02 20:00:00,2025-09-02 18:00:00,2025-09-03 02:00:00,6,26.1,81,22.6,29.6,,0.0,0.0,0.0,0.0,0.0,3.0,1009.6,1004.3,96.0,0.0,77.0,75.0,24140.0,0.0,0.03,0.64
single_runs_api,gfs_global,2025-09-02 18:00:00,2025-09-03 02:00:00,2025-09-02 19:00:00,2025-09-03 03:00:00,1,26.0,81,22.5,29.5,,0.0,0.0,0.0,0.0,0.0,3.0,1009.0,1003.7,93.0,0.0,88.0,14.0,24140.0,0.0,0.02,0.64
single_runs_api,gfs_global,2025-09-02 18:00:00,2025-09-03 02:00:00,2025-09-02 20:00:00,2025-09-03 04:00:00,2,26.0,80,22.3,29.5,,0.0,0.0,0.0,0.0,0.0,3.0,1008.8,1003.5,100.0,0.0,73.0,100.0,24140.0,0.0,0.02,0.67
single_runs_api,gfs_global,2025-09-02 18:00:00,2025-09-03 02:00:00,2025-09-02 21:00:00,2025-09-03 05:00:00,3,25.7,81,22.2,29.2,,0.0,0.0,0.0,0.0,0.0,2.0,1008.7,1003.4,76.0,0.0,60.0,35.0,24140.0,0.0,0.02,0.63
single_runs_api,gfs_global,2025-09-02 18:00:00,2025-09-03 02:00:00,2025-09-02 22:00:00,2025-09-03 06:00:00,4,25.5,82,22.2,29.0,,0.0,0.0,0.0,0.0,0.0,1.0,1008.8,1003.5,22.0,0.0,5.0,14.0,24140.0,0.0,0.02,0.59
single_runs_api,gfs_global,2025-09-02 18:00:00,2025-09-03 02:00:00,2025-09-02 23:00:00,2025-09-03 07:00:00,5,25.1,85,22.4,29.0,,0.9,0.0,0.9,0.0,0.0,53.0,1009.6,1004.3,100.0,0.0,5.0,100.0,10140.0,0.0,0.01,0.48
single_runs_api,gfs_global,2025-09-02 18:00:00,2025-09-03 02:00:00,2025-09-03 00:00:00,2025-09-03 08:00:00,6,25.9,84,23.0,30.1,,1.3,0.0,1.3,0.0,0.0,80.0,1010.5,1005.2,100.0,0.0,5.0,100.0,24140.0,0.0,0.05,0.53
single_runs_api,gfs_global,2025-09-03 00:00:00,2025-09-03 08:00:00,2025-09-03 01:00:00,2025-09-03 09:00:00,1,27.4,76,22.8,30.9,,0.3,0.0,0.3,0.0,0.0,51.0,1011.3,1006.0,100.0,0.0,5.0,100.0,24140.0,0.0,0.19,0.87
single_runs_api,gfs_global,2025-09-03 00:00:00,2025-09-03 08:00:00,2025-09-03 02:00:00,2025-09-03 10:00:00,2,28.5,70,22.5,31.6,,0.1,0.0,0.1,0.0,0.0,51.0,1011.6,1006.3,93.0,0.0,6.0,90.0,24140.0,0.0,0.37,1.16
single_runs_api,gfs_global,2025-09-03 00:00:00,2025-09-03 08:00:00,2025-09-03 03:00:00,2025-09-03 11:00:00,3,29.0,69,22.7,32.7,,0.0,0.0,0.0,0.0,0.0,3.0,1011.3,1006.1,100.0,0.0,5.0,100.0,24140.0,0.0,0.49,1.24
single_runs_api,gfs_global,2025-09-03 00:00:00,2025-09-03 08:00:00,2025-09-03 04:00:00,2025-09-03 12:00:00,4,29.3,68,22.8,33.5,,0.0,0.0,0.0,0.0,0.0,3.0,1011.0,1005.8,100.0,0.0,46.0,100.0,24140.0,0.0,0.54,1.3
single_runs_api,gfs_global,2025-09-03 00:00:00,2025-09-03 08:00:00,2025-09-03 05:00:00,2025-09-03 13:00:00,5,29.1,68,22.6,32.6,,0.0,0.0,0.0,0.0,0.0,3.0,1009.9,1004.7,100.0,16.0,93.0,100.0,24140.0,0.0,0.45,1.29
single_runs_api,gfs_global,2025-09-03 00:00:00,2025-09-03 08:00:00,2025-09-03 06:00:00,2025-09-03 14:00:00,6,29.9,64,22.3,34.6,,0.1,0.0,0.1,0.0,0.0,51.0,1008.8,1003.6,100.0,-1.0,66.0,100.0,18240.0,0.0,0.62,1.51
single_runs_api,gfs_global,2025-09-03 06:00:00,2025-09-03 14:00:00,2025-09-03 07:00:00,2025-09-03 15:00:00,1,30.2,62,22.1,35.0,,0.1,0.0,0.1,0.0,0.0,51.0,1007.8,1002.6,59.0,0.0,5.0,52.0,18500.0,0.0,0.66,1.63
single_runs_api,gfs_global,2025-09-03 06:00:00,2025-09-03 14:00:00,2025-09-03 08:00:00,2025-09-03 16:00:00,2,30.1,62,22.0,33.9,,0.2,0.0,0.2,0.0,0.0,51.0,1007.5,1002.3,96.0,0.0,5.0,95.0,18500.0,0.0,0.56,1.62
single_runs_api,gfs_global,2025-09-03 06:00:00,2025-09-03 14:00:00,2025-09-03 09:00:00,2025-09-03 17:00:00,3,29.9,63,22.1,32.8,,0.0,0.0,0.0,0.0,0.0,3.0,1007.5,1002.3,100.0,15.0,5.0,100.0,22220.0,0.0,0.43,1.56
single_runs_api,gfs_global,2025-09-03 06:00:00,2025-09-03 14:00:00,2025-09-03 10:00:00,2025-09-03 18:00:00,4,29.2,67,22.4,32.4,,0.2,0.0,0.2,0.0,0.0,51.0,1007.9,1002.7,100.0,31.0,21.0,100.0,22580.0,0.0,0.25,1.33
single_runs_api,gfs_global,2025-09-03 06:00:00,2025-09-03 14:00:00,2025-09-03 11:00:00,2025-09-03 19:00:00,5,28.4,71,22.6,31.7,,0.1,0.0,0.1,0.0,0.0,51.0,1008.6,1003.4,71.0,31.0,34.0,51.0,18460.0,0.0,0.11,1.12
single_runs_api,gfs_global,2025-09-03 06:00:00,2025-09-03 14:00:00,2025-09-03 12:00:00,2025-09-03 20:00:00,6,28.0,71,22.2,31.0,,0.0,0.0,0.0,0.0,0.0,1.0,1009.2,1003.9,41.0,11.0,32.0,10.0,24140.0,0.0,0.08,1.09
single_runs_api,gfs_global,2025-09-03 12:00:00,2025-09-03 20:00:00,2025-09-03 13:00:00,2025-09-03 21:00:00,1,27.4,78,23.2,31.4,,0.0,0.0,0.0,0.0,0.0,1.0,1009.9,1004.6,20.0,0.0,5.0,14.0,24140.0,0.0,0.03,0.8
single_runs_api,gfs_global,2025-09-03 12:00:00,2025-09-03 20:00:00,2025-09-03 14:00:00,2025-09-03 22:00:00,2,27.2,80,23.4,31.5,,0.0,0.0,0.0,0.0,0.0,1.0,1010.3,1005.0,49.0,0.0,5.0,42.0,24140.0,0.0,0.02,0.72
single_runs_api,gfs_global,2025-09-03 12:00:00,2025-09-03 20:00:00,2025-09-03 15:00:00,2025-09-03 23:00:00,3,27.1,81,23.5,31.5,,0.0,0.0,0.0,0.0,0.0,0.0,1010.8,1005.5,12.0,0.0,5.0,5.0,24140.0,0.0,0.02,0.68
single_runs_api,gfs_global,2025-09-03 12:00:00,2025-09-03 20:00:00,2025-09-03 16:00:00,2025-09-04 00:00:00,4,26.2,86,23.6,30.8,,1.9,0.0,1.9,0.0,0.0,80.0,1010.9,1005.6,96.0,0.0,10.0,95.0,24140.0,0.0,0.01,0.47
single_runs_api,gfs_global,2025-09-03 12:00:00,2025-09-03 20:00:00,2025-09-03 17:00:00,2025-09-04 01:00:00,5,26.4,85,23.6,31.4,,0.3,0.0,0.3,0.0,0.0,51.0,1010.2,1004.9,87.0,0.0,5.0,86.0,24140.0,0.0,0.0,0.51
single_runs_api,gfs_global,2025-09-03 12:00:00,2025-09-03 20:00:00,2025-09-03 18:00:00,2025-09-04 02:00:00,6,26.3,85,23.5,31.5,,0.2,0.0,0.2,0.0,0.0,51.0,1009.5,1004.2,13.0,0.0,5.0,5.0,24140.0,0.0,0.0,0.51
single_runs_api,gfs_global,2025-09-03 18:00:00,2025-09-04 02:00:00,2025-09-03 19:00:00,2025-09-04 03:00:00,1,26.0,87,23.6,31.7,,0.3,0.0,0.3,0.0,0.0,51.0,1009.0,1003.7,17.0,0.0,5.0,14.0,24140.0,0.0,0.0,0.44
single_runs_api,gfs_global,2025-09-03 18:00:00,2025-09-04 02:00:00,2025-09-03 20:00:00,2025-09-04 04:00:00,2,25.9,87,23.5,31.5,,0.0,0.0,0.0,0.0,0.0,2.0,1008.7,1003.4,66.0,0.0,58.0,19.0,24140.0,0.0,0.0,0.43
single_runs_api,gfs_global,2025-09-03 18:00:00,2025-09-04 02:00:00,2025-09-03 21:00:00,2025-09-04 05:00:00,3,25.8,88,23.6,31.1,,0.0,0.0,0.0,0.0,0.0,2.0,1008.6,1003.3,66.0,0.0,10.0,62.0,24140.0,0.0,0.0,0.4
single_runs_api,gfs_global,2025-09-03 18:00:00,2025-09-04 02:00:00,2025-09-03 22:00:00,2025-09-04 06:00:00,4,25.7,87,23.3,30.1,,0.6,0.0,0.6,0.0,0.0,53.0,1008.4,1003.1,36.0,0.0,5.0,32.0,6340.0,0.0,0.01,0.43
single_runs_api,gfs_global,2025-09-03 18:00:00,2025-09-04 02:00:00,2025-09-03 23:00:00,2025-09-04 07:00:00,5,25.5,87,23.1,29.3,,3.5,0.0,3.5,0.0,0.0,81.0,1009.2,1003.9,100.0,0.0,57.0,100.0,10240.0,0.0,0.01,0.42
single_runs_api,gfs_global,2025-09-03 18:00:00,2025-09-04 02:00:00,2025-09-04 00:00:00,2025-09-04 08:00:00,6,26.0,86,23.4,30.1,,2.5,0.0,2.5,0.0,0.0,81.0,1009.8,1004.5,94.0,0.0,88.0,81.0,11140.0,0.0,0.05,0.47
single_runs_api,gfs_global,2025-09-04 00:00:00,2025-09-04 08:00:00,2025-09-04 01:00:00,2025-09-04 09:00:00,1,27.2,80,23.4,30.8,,2.0,0.0,2.0,0.0,0.0,80.0,1010.7,1005.4,100.0,0.0,5.0,100.0,18080.0,0.0,0.2,0.72
single_runs_api,gfs_global,2025-09-04 00:00:00,2025-09-04 08:00:00,2025-09-04 02:00:00,2025-09-04 10:00:00,2,28.2,74,23.1,31.6,,0.6,0.0,0.6,0.0,0.0,53.0,1011.1,1005.8,100.0,0.0,50.0,100.0,24140.0,0.0,0.36,0.99
single_runs_api,gfs_global,2025-09-04 00:00:00,2025-09-04 08:00:00,2025-09-04 03:00:00,2025-09-04 11:00:00,3,28.8,70,22.8,32.7,,0.2,0.0,0.2,0.0,0.0,51.0,1010.8,1005.6,100.0,0.0,5.0,100.0,24140.0,0.0,0.5,1.18
single_runs_api,gfs_global,2025-09-04 00:00:00,2025-09-04 08:00:00,2025-09-04 04:00:00,2025-09-04 12:00:00,4,29.3,68,22.8,34.1,,0.0,0.0,0.0,0.0,0.0,2.0,1010.2,1005.0,72.0,0.0,53.0,37.0,24140.0,0.0,0.61,1.3
single_runs_api,gfs_global,2025-09-04 00:00:00,2025-09-04 08:00:00,2025-09-04 05:00:00,2025-09-04 13:00:00,5,29.6,68,23.0,34.5,,0.0,0.0,0.0,0.0,0.0,3.0,1009.0,1003.8,96.0,9.0,71.0,84.0,24140.0,0.0,0.66,1.32
single_runs_api,gfs_global,2025-09-04 00:00:00,2025-09-04 08:00:00,2025-09-04 06:00:00,2025-09-04 14:00:00,6,29.8,68,23.2,34.7,,0.0,0.0,0.0,0.0,0.0,3.0,1008.1,1002.9,83.0,10.0,76.0,18.0,24140.0,0.0,0.64,1.34
single_runs_api,gfs_global,2025-09-04 06:00:00,2025-09-04 14:00:00,2025-09-04 07:00:00,2025-09-04 15:00:00,1,29.3,70,23.2,33.9,,0.3,0.0,0.3,0.0,0.0,51.0,1007.6,1002.4,87.0,20.0,78.0,14.0,20920.0,0.0,0.57,1.22
single_runs_api,gfs_global,2025-09-04 06:00:00,2025-09-04 14:00:00,2025-09-04 08:00:00,2025-09-04 16:00:00,2,29.3,70,23.2,33.6,,0.1,0.0,0.1,0.0,0.0,51.0,1007.1,1001.9,73.0,15.0,44.0,42.0,24140.0,0.0,0.53,1.22
single_runs_api,gfs_global,2025-09-04 06:00:00,2025-09-04 14:00:00,2025-09-04 09:00:00,2025-09-04 17:00:00,3,29.1,69,22.8,32.4,,0.0,0.0,0.0,0.0,0.0,2.0,1006.8,1001.6,73.0,1.0,52.0,41.0,24140.0,0.0,0.41,1.25
single_runs_api,gfs_global,2025-09-04 06:00:00,2025-09-04 14:00:00,2025-09-04 10:00:00,2025-09-04 18:00:00,4,28.9,69,22.6,32.2,,0.0,0.0,0.0,0.0,0.0,0.0,1006.8,1001.6,8.0,0.0,5.0,0.0,24140.0,0.0,0.26,1.23
single_runs_api,gfs_global,2025-09-04 06:00:00,2025-09-04 14:00:00,2025-09-04 11:00:00,2025-09-04 19:00:00,5,28.2,73,22.9,32.0,,0.0,0.0,0.0,0.0,0.0,0.0,1007.5,1002.3,13.0,0.0,5.0,5.0,24140.0,0.0,0.1,1.03
single_runs_api,gfs_global,2025-09-04 06:00:00,2025-09-04 14:00:00,2025-09-04 12:00:00,2025-09-04 20:00:00,6,27.8,74,22.7,31.5,,0.0,0.0,0.0,0.0,0.0,0.0,1008.3,1003.1,17.0,0.0,5.0,10.0,24140.0,0.0,0.06,0.97
single_runs_api,gfs_global,2025-09-04 12:00:00,2025-09-04 20:00:00,2025-09-04 13:00:00,2025-09-04 21:00:00,1,27.3,78,23.1,31.5,,0.2,0.0,0.2,0.0,0.0,51.0,1009.4,1004.1,16.0,0.0,5.0,10.0,24140.0,0.0,0.02,0.8
single_runs_api,gfs_global,2025-09-04 12:00:00,2025-09-04 20:00:00,2025-09-04 14:00:00,2025-09-04 22:00:00,2,27.1,79,23.1,31.1,,0.0,0.0,0.0,0.0,0.0,2.0,1010.2,1004.9,50.0,0.0,5.0,45.0,24140.0,0.0,0.03,0.75
single_runs_api,gfs_global,2025-09-04 12:00:00,2025-09-04 20:00:00,2025-09-04 15:00:00,2025-09-04 23:00:00,3,26.4,83,23.2,30.6,,1.0,0.0,1.0,0.0,0.0,55.0,1010.8,1005.5,30.0,0.0,18.0,10.0,14700.0,0.0,0.02,0.58
single_runs_api,gfs_global,2025-09-04 12:00:00,2025-09-04 20:00:00,2025-09-04 16:00:00,2025-09-05 00:00:00,4,26.5,82,23.1,30.7,,0.4,0.0,0.4,0.0,0.0,51.0,1010.7,1005.4,40.0,0.0,21.0,18.0,24140.0,0.0,0.02,0.62
single_runs_api,gfs_global,2025-09-04 12:00:00,2025-09-04 20:00:00,2025-09-04 17:00:00,2025-09-05 01:00:00,5,26.4,81,22.8,30.4,,0.0,0.0,0.0,0.0,0.0,0.0,1010.2,1004.9,18.0,0.0,5.0,10.0,24140.0,0.0,0.02,0.65
single_runs_api,gfs_global,2025-09-04 12:00:00,2025-09-04 20:00:00,2025-09-04 18:00:00,2025-09-05 02:00:00,6,26.2,81,22.6,30.1,,0.0,0.0,0.0,0.0,0.0,3.0,1009.3,1004.0,93.0,8.0,5.0,92.0,24140.0,0.0,0.02,0.64
single_runs_api,gfs_global,2025-09-04 18:00:00,2025-09-05 02:00:00,2025-09-04 19:00:00,2025-09-05 03:00:00,1,26.0,84,23.1,30.2,,0.0,0.0,0.0,0.0,0.0,1.0,1008.6,1003.3,24.0,0.0,5.0,14.0,24140.0,0.0,0.01,0.54
single_runs_api,gfs_global,2025-09-04 18:00:00,2025-09-05 02:00:00,2025-09-04 20:00:00,2025-09-05 04:00:00,2,25.7,86,23.1,30.0,,0.4,0.0,0.4,0.0,0.0,51.0,1008.5,1003.2,100.0,0.0,5.0,100.0,11000.0,0.0,0.01,0.46
single_runs_api,gfs_global,2025-09-04 18:00:00,2025-09-05 02:00:00,2025-09-04 21:00:00,2025-09-05 05:00:00,3,25.7,84,22.8,29.6,,0.4,0.0,0.4,0.0,0.0,51.0,1008.7,1003.4,100.0,0.0,5.0,100.0,24140.0,0.0,0.01,0.53
single_runs_api,gfs_global,2025-09-04 18:00:00,2025-09-05 02:00:00,2025-09-04 22:00:00,2025-09-05 06:00:00,4,25.5,85,22.8,29.3,,0.0,0.0,0.0,0.0,0.0,3.0,1009.3,1004.0,100.0,0.0,5.0,100.0,24140.0,0.0,0.01,0.49
single_runs_api,gfs_global,2025-09-04 18:00:00,2025-09-05 02:00:00,2025-09-04 23:00:00,2025-09-05 07:00:00,5,25.3,86,22.8,29.2,,0.0,0.0,0.0,0.0,0.0,3.0,1010.0,1004.7,100.0,0.0,5.0,100.0,24140.0,0.0,0.01,0.45
single_runs_api,gfs_global,2025-09-04 18:00:00,2025-09-05 02:00:00,2025-09-05 00:00:00,2025-09-05 08:00:00,6,25.9,84,23.0,29.7,,0.0,0.0,0.0,0.0,0.0,3.0,1010.7,1005.4,100.0,0.0,5.0,100.0,24140.0,0.0,0.06,0.53
single_runs_api,gfs_global,2025-09-05 00:00:00,2025-09-05 08:00:00,2025-09-05 01:00:00,2025-09-05 09:00:00,1,26.9,79,22.9,30.7,,1.6,0.0,1.6,0.0,0.0,80.0,1011.4,1006.1,19.0,0.0,5.0,14.0,8820.0,0.0,0.21,0.74
single_runs_api,gfs_global,2025-09-05 00:00:00,2025-09-05 08:00:00,2025-09-05 02:00:00,2025-09-05 10:00:00,2,27.6,75,22.7,31.3,,1.8,0.0,1.8,0.0,0.0,80.0,1011.8,1006.5,100.0,5.0,5.0,100.0,6000.0,0.0,0.36,0.92
single_runs_api,gfs_global,2025-09-05 00:00:00,2025-09-05 08:00:00,2025-09-05 03:00:00,2025-09-05 11:00:00,3,28.3,72,22.7,32.6,,1.2,0.0,1.2,0.0,0.0,55.0,1011.8,1006.5,93.0,0.0,5.0,92.0,20320.0,0.0,0.51,1.07
single_runs_api,gfs_global,2025-09-05 00:00:00,2025-09-05 08:00:00,2025-09-05 04:00:00,2025-09-05 12:00:00,4,29.2,68,22.7,33.6,,0.1,0.0,0.1,0.0,0.0,51.0,1011.0,1005.8,100.0,0.0,5.0,100.0,24140.0,0.0,0.61,1.29
single_runs_api,gfs_global,2025-09-05 00:00:00,2025-09-05 08:00:00,2025-09-05 05:00:00,2025-09-05 13:00:00,5,29.6,65,22.3,33.7,,0.0,0.0,0.0,0.0,0.0,1.0,1009.7,1004.5,33.0,13.0,5.0,19.0,24140.0,0.0,0.68,1.45
single_runs_api,gfs_global,2025-09-05 00:00:00,2025-09-05 08:00:00,2025-09-05 06:00:00,2025-09-05 14:00:00,6,29.8,64,22.2,34.0,,0.0,0.0,0.0,0.0,0.0,1.0,1008.8,1003.6,29.0,10.0,10.0,5.0,24140.0,0.0,0.68,1.51
single_runs_api,gfs_global,2025-09-05 06:00:00,2025-09-05 14:00:00,2025-09-05 07:00:00,2025-09-05 15:00:00,1,29.5,65,22.2,33.2,,0.0,0.0,0.0,0.0,0.0,3.0,1008.3,1003.1,100.0,19.0,10.0,100.0,24140.0,0.0,0.59,1.44
single_runs_api,gfs_global,2025-09-05 06:00:00,2025-09-05 14:00:00,2025-09-05 08:00:00,2025-09-05 16:00:00,2,29.2,66,22.2,32.5,,0.0,0.0,0.0,0.0,0.0,3.0,1008.0,1002.8,100.0,0.0,10.0,100.0,24140.0,0.0,0.5,1.37
single_runs_api,gfs_global,2025-09-05 06:00:00,2025-09-05 14:00:00,2025-09-05 09:00:00,2025-09-05 17:00:00,3,29.0,67,22.2,31.9,,0.0,0.0,0.0,0.0,0.0,1.0,1008.0,1002.8,25.0,0.0,10.0,14.0,24140.0,0.0,0.42,1.32
single_runs_api,gfs_global,2025-09-05 06:00:00,2025-09-05 14:00:00,2025-09-05 10:00:00,2025-09-05 18:00:00,4,28.4,70,22.4,31.4,,0.0,0.0,0.0,0.0,0.0,0.0,1008.1,1002.9,13.0,0.0,5.0,5.0,24140.0,0.0,0.26,1.16
single_runs_api,gfs_global,2025-09-05 06:00:00,2025-09-05 14:00:00,2025-09-05 11:00:00,2025-09-05 19:00:00,5,27.5,75,22.6,31.1,,0.0,0.0,0.0,0.0,0.0,0.0,1008.7,1003.4,18.0,0.0,10.0,10.0,24140.0,0.0,0.09,0.92
single_runs_api,gfs_global,2025-09-05 06:00:00,2025-09-05 14:00:00,2025-09-05 12:00:00,2025-09-05 20:00:00,6,27.2,76,22.6,31.1,,0.1,0.0,0.1,0.0,0.0,51.0,1009.5,1004.2,10.0,0.0,5.0,5.0,24140.0,0.0,0.05,0.86
single_runs_api,gfs_global,2025-09-05 12:00:00,2025-09-05 20:00:00,2025-09-05 13:00:00,2025-09-05 21:00:00,1,27.3,75,22.4,30.8,,0.2,0.0,0.2,0.0,0.0,51.0,1010.3,1005.0,10.0,0.0,5.0,5.0,24140.0,0.0,0.04,0.9
single_runs_api,gfs_global,2025-09-05 12:00:00,2025-09-05 20:00:00,2025-09-05 14:00:00,2025-09-05 22:00:00,2,27.3,75,22.4,30.9,,0.0,0.0,0.0,0.0,0.0,0.0,1010.7,1005.4,15.0,0.0,5.0,10.0,24140.0,0.0,0.04,0.9
single_runs_api,gfs_global,2025-09-05 12:00:00,2025-09-05 20:00:00,2025-09-05 15:00:00,2025-09-05 23:00:00,3,27.3,75,22.4,30.8,,0.2,0.0,0.2,0.0,0.0,51.0,1011.1,1005.8,14.0,0.0,5.0,10.0,24140.0,0.0,0.04,0.9
single_runs_api,gfs_global,2025-09-05 12:00:00,2025-09-05 20:00:00,2025-09-05 16:00:00,2025-09-06 00:00:00,4,26.8,78,22.6,30.2,,1.0,0.0,1.0,0.0,0.0,55.0,1011.3,1006.0,43.0,0.0,5.0,38.0,24140.0,0.0,0.04,0.77
single_runs_api,gfs_global,2025-09-05 12:00:00,2025-09-05 20:00:00,2025-09-05 17:00:00,2025-09-06 01:00:00,5,26.0,83,22.9,29.2,,2.9,0.0,2.9,0.0,0.0,81.0,1010.9,1005.6,68.0,0.0,5.0,66.0,24140.0,0.0,0.03,0.57
single_runs_api,gfs_global,2025-09-05 12:00:00,2025-09-05 20:00:00,2025-09-05 18:00:00,2025-09-06 02:00:00,6,26.3,80,22.5,29.2,,0.0,0.0,0.0,0.0,0.0,3.0,1010.0,1004.7,100.0,5.0,60.0,100.0,24140.0,0.0,0.04,0.68
single_runs_api,gfs_global,2025-09-05 18:00:00,2025-09-06 02:00:00,2025-09-05 19:00:00,2025-09-06 03:00:00,1,26.2,81,22.6,29.2,,0.2,0.0,0.2,0.0,0.0,51.0,1009.4,1004.1,50.0,18.0,34.0,14.0,24140.0,0.0,0.04,0.64
single_runs_api,gfs_global,2025-09-05 18:00:00,2025-09-06 02:00:00,2025-09-05 20:00:00,2025-09-06 04:00:00,2,26.3,81,22.7,28.7,,0.0,0.0,0.0,0.0,0.0,3.0,1009.1,1003.8,100.0,38.0,52.0,100.0,24140.0,0.0,0.05,0.65
single_runs_api,gfs_global,2025-09-05 18:00:00,2025-09-06 02:00:00,2025-09-05 21:00:00,2025-09-06 05:00:00,3,26.2,83,23.1,28.8,,0.0,0.0,0.0,0.0,0.0,3.0,1009.1,1003.8,100.0,35.0,73.0,100.0,24140.0,0.0,0.04,0.58
single_runs_api,gfs_global,2025-09-05 18:00:00,2025-09-06 02:00:00,2025-09-05 22:00:00,2025-09-06 06:00:00,4,26.3,81,22.7,28.9,,0.0,0.0,0.0,0.0,0.0,3.0,1009.3,1004.0,100.0,36.0,100.0,100.0,24140.0,0.0,0.05,0.65
single_runs_api,gfs_global,2025-09-05 18:00:00,2025-09-06 02:00:00,2025-09-05 23:00:00,2025-09-06 07:00:00,5,26.2,81,22.6,28.3,,0.1,0.0,0.1,0.0,0.0,51.0,1009.9,1004.6,100.0,1.0,83.0,100.0,24140.0,0.0,0.05,0.64
single_runs_api,gfs_global,2025-09-05 18:00:00,2025-09-06 02:00:00,2025-09-06 00:00:00,2025-09-06 08:00:00,6,26.6,80,22.8,28.8,,0.0,0.0,0.0,0.0,0.0,3.0,1010.6,1005.3,100.0,10.0,30.0,100.0,24140.0,0.0,0.09,0.69
single_runs_api,gfs_global,2025-09-06 00:00:00,2025-09-06 08:00:00,2025-09-06 01:00:00,2025-09-06 09:00:00,1,28.2,72,22.6,30.3,,0.0,0.0,0.0,0.0,0.0,2.0,1011.1,1005.8,67.0,0.0,40.0,40.0,24140.0,0.0,0.24,1.07
single_runs_api,gfs_global,2025-09-06 00:00:00,2025-09-06 08:00:00,2025-09-06 02:00:00,2025-09-06 10:00:00,2,28.1,74,23.0,30.6,,0.0,0.0,0.0,0.0,0.0,3.0,1011.5,1006.2,100.0,0.0,100.0,10.0,24140.0,0.0,0.21,0.99
single_runs_api,gfs_global,2025-09-06 00:00:00,2025-09-06 08:00:00,2025-09-06 03:00:00,2025-09-06 11:00:00,3,28.0,74,22.9,30.4,,0.0,0.0,0.0,0.0,0.0,3.0,1011.6,1006.3,100.0,0.0,100.0,24.0,24140.0,0.0,0.22,0.98
single_runs_api,gfs_global,2025-09-06 00:00:00,2025-09-06 08:00:00,2025-09-06 04:00:00,2025-09-06 12:00:00,4,28.0,74,22.9,30.5,,0.0,0.0,0.0,0.0,0.0,3.0,1011.2,1005.9,100.0,5.0,100.0,66.0,24140.0,0.0,0.2,0.98
single_runs_api,gfs_global,2025-09-06 00:00:00,2025-09-06 08:00:00,2025-09-06 05:00:00,2025-09-06 13:00:00,5,28.4,71,22.6,30.6,,0.0,0.0,0.0,0.0,0.0,3.0,1010.3,1005.1,100.0,0.0,100.0,100.0,24140.0,0.0,0.31,1.12
single_runs_api,gfs_global,2025-09-06 00:00:00,2025-09-06 08:00:00,2025-09-06 06:00:00,2025-09-06 14:00:00,6,29.4,67,22.6,32.7,,0.0,0.0,0.0,0.0,0.0,3.0,1009.5,1004.3,100.0,12.0,41.0,100.0,20560.0,0.0,0.56,1.35
single_runs_api,gfs_global,2025-09-06 06:00:00,2025-09-06 14:00:00,2025-09-06 07:00:00,2025-09-06 15:00:00,1,30.1,66,23.0,34.0,,0.2,0.0,0.2,0.0,0.0,51.0,1008.5,1003.3,89.0,0.0,15.0,81.0,24140.0,0.0,0.62,1.45
single_runs_api,gfs_global,2025-09-06 06:00:00,2025-09-06 14:00:00,2025-09-06 08:00:00,2025-09-06 16:00:00,2,30.2,65,22.9,33.7,,0.0,0.0,0.0,0.0,0.0,3.0,1008.0,1002.8,100.0,0.0,5.0,100.0,24140.0,0.0,0.55,1.5
single_runs_api,gfs_global,2025-09-06 06:00:00,2025-09-06 14:00:00,2025-09-06 09:00:00,2025-09-06 17:00:00,3,29.8,66,22.7,32.3,,0.0,0.0,0.0,0.0,0.0,3.0,1007.7,1002.5,100.0,0.0,5.0,100.0,24140.0,0.0,0.4,1.42
single_runs_api,gfs_global,2025-09-06 06:00:00,2025-09-06 14:00:00,2025-09-06 10:00:00,2025-09-06 18:00:00,4,29.3,67,22.5,31.9,,0.0,0.0,0.0,0.0,0.0,3.0,1008.3,1003.1,100.0,16.0,5.0,100.0,24140.0,0.0,0.26,1.34
single_runs_api,gfs_global,2025-09-06 06:00:00,2025-09-06 14:00:00,2025-09-06 11:00:00,2025-09-06 19:00:00,5,28.5,69,22.2,30.9,,0.0,0.0,0.0,0.0,0.0,3.0,1009.0,1003.8,100.0,0.0,5.0,100.0,24140.0,0.0,0.13,1.2
single_runs_api,gfs_global,2025-09-06 06:00:00,2025-09-06 14:00:00,2025-09-06 12:00:00,2025-09-06 20:00:00,6,28.1,72,22.5,30.6,,0.0,0.0,0.0,0.0,0.0,3.0,1010.0,1004.7,100.0,0.0,57.0,100.0,24140.0,0.0,0.1,1.06
single_runs_api,gfs_global,2025-09-06 12:00:00,2025-09-06 20:00:00,2025-09-06 13:00:00,2025-09-06 21:00:00,1,27.8,76,23.1,31.0,,0.2,0.0,0.2,0.0,0.0,51.0,1010.4,1005.1,100.0,9.0,5.0,100.0,24140.0,0.0,0.06,0.89
single_runs_api,gfs_global,2025-09-06 12:00:00,2025-09-06 20:00:00,2025-09-06 14:00:00,2025-09-06 22:00:00,2,27.7,77,23.3,31.2,,0.1,0.0,0.1,0.0,0.0,51.0,1011.0,1005.7,100.0,0.0,10.0,100.0,18140.0,0.0,0.05,0.85
single_runs_api,gfs_global,2025-09-06 12:00:00,2025-09-06 20:00:00,2025-09-06 15:00:00,2025-09-06 23:00:00,3,27.7,76,23.1,31.4,,0.0,0.0,0.0,0.0,0.0,3.0,1011.4,1006.1,99.0,0.0,16.0,99.0,24140.0,0.0,0.04,0.89
single_runs_api,gfs_global,2025-09-06 12:00:00,2025-09-06 20:00:00,2025-09-06 16:00:00,2025-09-07 00:00:00,4,27.3,79,23.3,31.2,,0.3,0.0,0.3,0.0,0.0,51.0,1011.0,1005.7,28.0,0.0,10.0,17.0,24140.0,0.0,0.03,0.76
single_runs_api,gfs_global,2025-09-06 12:00:00,2025-09-06 20:00:00,2025-09-06 17:00:00,2025-09-07 01:00:00,5,27.3,79,23.3,31.2,,0.0,0.0,0.0,0.0,0.0,3.0,1010.1,1004.8,95.0,0.0,10.0,93.0,24140.0,0.0,0.03,0.76
single_runs_api,gfs_global,2025-09-06 12:00:00,2025-09-06 20:00:00,2025-09-06 18:00:00,2025-09-07 02:00:00,6,27.0,79,23.0,30.6,,0.2,0.0,0.2,0.0,0.0,51.0,1009.0,1003.7,44.0,0.0,5.0,38.0,24140.0,0.0,0.03,0.75
single_runs_api,gfs_global,2025-09-06 18:00:00,2025-09-07 02:00:00,2025-09-06 19:00:00,2025-09-07 03:00:00,1,26.7,80,22.9,30.4,,0.3,0.0,0.3,0.0,0.0,51.0,1008.7,1003.4,82.0,0.0,28.0,72.0,24140.0,0.0,0.03,0.7
single_runs_api,gfs_global,2025-09-06 18:00:00,2025-09-07 02:00:00,2025-09-06 20:00:00,2025-09-07 04:00:00,2,26.5,81,22.9,29.9,,0.6,0.0,0.6,0.0,0.0,53.0,1008.7,1003.4,100.0,0.0,14.0,100.0,24140.0,0.0,0.03,0.66
single_runs_api,gfs_global,2025-09-06 18:00:00,2025-09-07 02:00:00,2025-09-06 21:00:00,2025-09-07 05:00:00,3,26.1,81,22.6,29.0,,1.4,0.0,1.4,0.0,0.0,80.0,1009.1,1003.8,60.0,0.0,5.0,51.0,9520.0,0.0,0.04,0.64
single_runs_api,gfs_global,2025-09-06 18:00:00,2025-09-07 02:00:00,2025-09-06 22:00:00,2025-09-07 06:00:00,4,25.8,82,22.5,28.8,,1.9,0.0,1.9,0.0,0.0,80.0,1009.7,1004.4,100.0,0.0,5.0,100.0,24140.0,0.0,0.03,0.6
single_runs_api,gfs_global,2025-09-06 18:00:00,2025-09-07 02:00:00,2025-09-06 23:00:00,2025-09-07 07:00:00,5,26.0,81,22.5,29.1,,0.9,0.0,0.9,0.0,0.0,53.0,1010.1,1004.8,100.0,18.0,5.0,100.0,24140.0,0.0,0.03,0.64
single_runs_api,gfs_global,2025-09-06 18:00:00,2025-09-07 02:00:00,2025-09-07 00:00:00,2025-09-07 08:00:00,6,26.8,78,22.6,29.6,,0.0,0.0,0.0,0.0,0.0,3.0,1010.4,1005.1,100.0,49.0,23.0,100.0,24140.0,0.0,0.08,0.77
single_runs_api,gfs_global,2025-09-07 00:00:00,2025-09-07 08:00:00,2025-09-07 01:00:00,2025-09-07 09:00:00,1,26.2,82,22.9,29.5,,0.9,0.0,0.9,0.0,0.0,53.0,1011.4,1006.1,100.0,68.0,100.0,100.0,3920.0,0.0,0.1,0.61
single_runs_api,gfs_global,2025-09-07 00:00:00,2025-09-07 08:00:00,2025-09-07 02:00:00,2025-09-07 10:00:00,2,26.1,83,23.0,29.2,,1.0,0.0,1.0,0.0,0.0,55.0,1011.9,1006.6,100.0,57.0,100.0,28.0,5820.0,0.0,0.11,0.57
single_runs_api,gfs_global,2025-09-07 00:00:00,2025-09-07 08:00:00,2025-09-07 03:00:00,2025-09-07 11:00:00,3,25.9,85,23.2,29.0,,1.7,0.1,1.6,0.0,0.0,80.0,1011.8,1006.5,100.0,91.0,100.0,10.0,24140.0,0.0,0.12,0.5
single_runs_api,gfs_global,2025-09-07 00:00:00,2025-09-07 08:00:00,2025-09-07 04:00:00,2025-09-07 12:00:00,4,26.2,84,23.3,29.2,,0.7,0.0,0.7,0.0,0.0,53.0,1011.3,1006.0,100.0,100.0,100.0,100.0,17740.0,0.0,0.11,0.54
single_runs_api,gfs_global,2025-09-07 00:00:00,2025-09-07 08:00:00,2025-09-07 05:00:00,2025-09-07 13:00:00,5,25.6,87,23.2,28.6,,1.0,0.1,0.9,0.0,0.0,55.0,1010.7,1005.4,100.0,100.0,100.0,100.0,5360.0,0.0,0.09,0.43
single_runs_api,gfs_global,2025-09-07 00:00:00,2025-09-07 08:00:00,2025-09-07 06:00:00,2025-09-07 14:00:00,6,25.3,89,23.3,28.3,,1.4,0.1,1.3,0.0,0.0,80.0,1009.9,1004.6,100.0,80.0,100.0,100.0,5440.0,0.0,0.08,0.35
single_runs_api,gfs_global,2025-09-07 06:00:00,2025-09-07 14:00:00,2025-09-07 07:00:00,2025-09-07 15:00:00,1,25.4,88,23.2,29.3,,1.1,0.1,1.0,0.0,0.0,55.0,1009.2,1003.9,100.0,42.0,100.0,100.0,24140.0,0.0,0.1,0.39
single_runs_api,gfs_global,2025-09-07 06:00:00,2025-09-07 14:00:00,2025-09-07 08:00:00,2025-09-07 16:00:00,2,25.9,85,23.2,29.9,,0.0,0.0,0.0,0.0,0.0,3.0,1008.4,1003.1,100.0,31.0,100.0,100.0,24140.0,0.0,0.13,0.5
single_runs_api,gfs_global,2025-09-07 06:00:00,2025-09-07 14:00:00,2025-09-07 09:00:00,2025-09-07 17:00:00,3,26.1,84,23.2,30.3,,0.1,0.1,0.0,0.0,0.0,51.0,1008.1,1002.8,100.0,5.0,100.0,100.0,24060.0,0.0,0.1,0.54
single_runs_api,gfs_global,2025-09-07 06:00:00,2025-09-07 14:00:00,2025-09-07 10:00:00,2025-09-07 18:00:00,4,26.1,84,23.2,30.6,,0.0,0.0,0.0,0.0,0.0,3.0,1008.4,1003.1,100.0,5.0,100.0,100.0,24140.0,0.0,0.07,0.54
single_runs_api,gfs_global,2025-09-07 06:00:00,2025-09-07 14:00:00,2025-09-07 11:00:00,2025-09-07 19:00:00,5,25.9,84,23.0,30.3,,0.0,0.0,0.0,0.0,0.0,3.0,1008.9,1003.6,100.0,10.0,100.0,100.0,24140.0,0.0,0.04,0.53
single_runs_api,gfs_global,2025-09-07 06:00:00,2025-09-07 14:00:00,2025-09-07 12:00:00,2025-09-07 20:00:00,6,26.0,83,22.9,30.5,,0.0,0.0,0.0,0.0,0.0,3.0,1009.4,1004.1,100.0,5.0,100.0,100.0,24140.0,0.0,0.03,0.57
single_runs_api,gfs_global,2025-09-07 12:00:00,2025-09-07 20:00:00,2025-09-07 13:00:00,2025-09-07 21:00:00,1,26.5,81,22.9,30.6,,0.0,0.0,0.0,0.0,0.0,3.0,1010.1,1004.8,100.0,5.0,100.0,100.0,24140.0,0.0,0.02,0.66
single_runs_api,gfs_global,2025-09-07 12:00:00,2025-09-07 20:00:00,2025-09-07 14:00:00,2025-09-07 22:00:00,2,26.3,83,23.1,30.5,,0.1,0.0,0.1,0.0,0.0,51.0,1010.7,1005.4,100.0,5.0,100.0,100.0,24140.0,0.0,0.01,0.58
single_runs_api,gfs_global,2025-09-07 12:00:00,2025-09-07 20:00:00,2025-09-07 15:00:00,2025-09-07 23:00:00,3,25.9,85,23.2,30.4,,0.1,0.0,0.1,0.0,0.0,51.0,1011.3,1006.0,100.0,0.0,22.0,100.0,24140.0,0.0,0.01,0.5
single_runs_api,gfs_global,2025-09-07 12:00:00,2025-09-07 20:00:00,2025-09-07 16:00:00,2025-09-08 00:00:00,4,25.7,86,23.1,30.3,,0.8,0.0,0.8,0.0,0.0,53.0,1011.3,1006.0,100.0,0.0,51.0,100.0,22060.0,0.0,0.0,0.46
single_runs_api,gfs_global,2025-09-07 12:00:00,2025-09-07 20:00:00,2025-09-07 17:00:00,2025-09-08 01:00:00,5,26.0,83,22.9,30.7,,0.5,0.0,0.5,0.0,0.0,53.0,1010.9,1005.6,100.0,5.0,24.0,100.0,18460.0,0.0,0.0,0.57
single_runs_api,gfs_global,2025-09-07 12:00:00,2025-09-07 20:00:00,2025-09-07 18:00:00,2025-09-08 02:00:00,6,26.1,81,22.6,30.5,,0.0,0.0,0.0,0.0,0.0,3.0,1010.0,1004.7,100.0,5.0,100.0,100.0,24140.0,0.0,0.01,0.64
single_runs_api,gfs_global,2025-09-07 18:00:00,2025-09-08 02:00:00,2025-09-07 19:00:00,2025-09-08 03:00:00,1,26.0,83,22.9,31.0,,0.1,0.0,0.1,0.0,0.0,51.0,1009.4,1004.1,100.0,35.0,100.0,100.0,24140.0,0.0,0.0,0.57
single_runs_api,gfs_global,2025-09-07 18:00:00,2025-09-08 02:00:00,2025-09-07 20:00:00,2025-09-08 04:00:00,2,25.7,84,22.8,30.3,,2.3,0.0,2.3,0.0,0.0,80.0,1009.4,1004.1,100.0,60.0,100.0,34.0,5440.0,0.0,0.0,0.53
single_runs_api,gfs_global,2025-09-07 18:00:00,2025-09-08 02:00:00,2025-09-07 21:00:00,2025-09-08 05:00:00,3,25.9,81,22.4,29.5,,0.4,0.0,0.4,0.0,0.0,51.0,1009.6,1004.3,100.0,100.0,100.0,68.0,22380.0,0.0,0.02,0.63
single_runs_api,gfs_global,2025-09-07 18:00:00,2025-09-08 02:00:00,2025-09-07 22:00:00,2025-09-08 06:00:00,4,25.2,84,22.3,28.4,,0.2,0.0,0.2,0.0,0.0,51.0,1010.1,1004.8,100.0,100.0,100.0,100.0,14900.0,0.0,0.02,0.51
single_runs_api,gfs_global,2025-09-07 18:00:00,2025-09-08 02:00:00,2025-09-07 23:00:00,2025-09-08 07:00:00,5,24.7,87,22.4,28.4,,0.0,0.0,0.0,0.0,0.0,3.0,1010.5,1005.2,100.0,72.0,100.0,100.0,22080.0,0.0,0.01,0.4
single_runs_api,gfs_global,2025-09-07 18:00:00,2025-09-08 02:00:00,2025-09-08 00:00:00,2025-09-08 08:00:00,6,25.1,86,22.6,29.0,,0.0,0.0,0.0,0.0,0.0,3.0,1011.0,1005.7,100.0,99.0,100.0,100.0,24140.0,0.0,0.04,0.44
single_runs_api,gfs_global,2025-09-08 00:00:00,2025-09-08 08:00:00,2025-09-08 01:00:00,2025-09-08 09:00:00,1,27.1,78,22.9,31.0,,0.0,0.0,0.0,0.0,0.0,3.0,1010.9,1005.6,100.0,0.0,100.0,100.0,24140.0,0.0,0.1,0.79
single_runs_api,gfs_global,2025-09-08 00:00:00,2025-09-08 08:00:00,2025-09-08 02:00:00,2025-09-08 10:00:00,2,28.4,73,23.1,31.8,,0.0,0.0,0.0,0.0,0.0,3.0,1011.2,1005.9,100.0,0.0,85.0,100.0,24140.0,0.0,0.24,1.04
single_runs_api,gfs_global,2025-09-08 00:00:00,2025-09-08 08:00:00,2025-09-08 03:00:00,2025-09-08 11:00:00,3,29.8,66,22.7,33.5,,0.0,0.0,0.0,0.0,0.0,3.0,1010.8,1005.6,100.0,0.0,12.0,100.0,24140.0,0.0,0.49,1.42
single_runs_api,gfs_global,2025-09-08 00:00:00,2025-09-08 08:00:00,2025-09-08 04:00:00,2025-09-08 12:00:00,4,30.4,64,22.8,34.7,,0.0,0.0,0.0,0.0,0.0,3.0,1010.4,1005.2,100.0,0.0,5.0,100.0,20440.0,0.0,0.57,1.56
single_runs_api,gfs_global,2025-09-08 00:00:00,2025-09-08 08:00:00,2025-09-08 05:00:00,2025-09-08 13:00:00,5,30.7,63,22.8,35.4,,0.1,0.0,0.1,0.0,0.0,51.0,1009.7,1004.5,100.0,9.0,5.0,100.0,24140.0,0.0,0.66,1.63
single_runs_api,gfs_global,2025-09-08 00:00:00,2025-09-08 08:00:00,2025-09-08 06:00:00,2025-09-08 14:00:00,6,30.5,64,22.9,35.1,,0.1,0.0,0.1,0.0,0.0,51.0,1008.7,1003.5,100.0,7.0,5.0,100.0,22300.0,0.0,0.67,1.57
single_runs_api,gfs_global,2025-09-08 06:00:00,2025-09-08 14:00:00,2025-09-08 07:00:00,2025-09-08 15:00:00,1,29.8,66,22.7,34.1,,0.8,0.0,0.8,0.0,0.0,53.0,1008.3,1003.1,100.0,5.0,5.0,100.0,14360.0,0.0,0.58,1.42
single_runs_api,gfs_global,2025-09-08 06:00:00,2025-09-08 14:00:00,2025-09-08 08:00:00,2025-09-08 16:00:00,2,29.7,66,22.6,33.1,,0.2,0.0,0.2,0.0,0.0,51.0,1008.0,1002.8,100.0,40.0,5.0,100.0,11040.0,0.0,0.46,1.41
single_runs_api,gfs_global,2025-09-08 06:00:00,2025-09-08 14:00:00,2025-09-08 09:00:00,2025-09-08 17:00:00,3,29.4,66,22.4,32.4,,0.1,0.0,0.1,0.0,0.0,51.0,1007.9,1002.7,100.0,51.0,74.0,100.0,11760.0,0.0,0.35,1.39
single_runs_api,gfs_global,2025-09-08 06:00:00,2025-09-08 14:00:00,2025-09-08 10:00:00,2025-09-08 18:00:00,4,28.3,72,22.7,31.2,,1.1,0.0,1.1,0.0,0.0,55.0,1008.3,1003.1,100.0,49.0,21.0,100.0,18960.0,0.0,0.21,1.07
single_runs_api,gfs_global,2025-09-08 06:00:00,2025-09-08 14:00:00,2025-09-08 11:00:00,2025-09-08 19:00:00,5,27.4,77,23.0,30.2,,0.4,0.0,0.4,0.0,0.0,51.0,1008.9,1003.6,100.0,90.0,32.0,100.0,24140.0,0.0,0.1,0.84
single_runs_api,gfs_global,2025-09-08 06:00:00,2025-09-08 14:00:00,2025-09-08 12:00:00,2025-09-08 20:00:00,6,27.0,78,22.8,29.8,,0.0,0.0,0.0,0.0,0.0,3.0,1009.8,1004.5,100.0,98.0,52.0,100.0,24140.0,0.0,0.07,0.78
single_runs_api,gfs_global,2025-09-08 12:00:00,2025-09-08 20:00:00,2025-09-08 13:00:00,2025-09-08 21:00:00,1,27.0,79,23.0,30.4,,0.0,0.0,0.0,0.0,0.0,3.0,1010.3,1005.0,100.0,0.0,5.0,100.0,24140.0,0.0,0.04,0.75
single_runs_api,gfs_global,2025-09-08 12:00:00,2025-09-08 20:00:00,2025-09-08 14:00:00,2025-09-08 22:00:00,2,27.0,80,23.2,30.7,,0.0,0.0,0.0,0.0,0.0,3.0,1010.9,1005.6,100.0,0.0,55.0,100.0,24140.0,0.0,0.03,0.71
single_runs_api,gfs_global,2025-09-08 12:00:00,2025-09-08 20:00:00,2025-09-08 15:00:00,2025-09-08 23:00:00,3,27.1,80,23.3,31.0,,0.0,0.0,0.0,0.0,0.0,3.0,1011.5,1006.2,100.0,0.0,65.0,100.0,24140.0,0.0,0.03,0.72
single_runs_api,gfs_global,2025-09-08 12:00:00,2025-09-08 20:00:00,2025-09-08 16:00:00,2025-09-09 00:00:00,4,27.1,80,23.3,31.2,,0.0,0.0,0.0,0.0,0.0,3.0,1011.7,1006.4,100.0,0.0,83.0,100.0,24140.0,0.0,0.03,0.72
single_runs_api,gfs_global,2025-09-08 12:00:00,2025-09-08 20:00:00,2025-09-08 17:00:00,2025-09-09 01:00:00,5,27.0,80,23.2,31.1,,0.0,0.0,0.0,0.0,0.0,3.0,1011.2,1005.9,100.0,37.0,80.0,100.0,24140.0,0.0,0.02,0.71
single_runs_api,gfs_global,2025-09-08 12:00:00,2025-09-08 20:00:00,2025-09-08 18:00:00,2025-09-09 02:00:00,6,26.8,82,23.4,31.0,,0.0,0.0,0.0,0.0,0.0,3.0,1010.3,1005.0,100.0,58.0,68.0,100.0,24140.0,0.0,0.02,0.63
single_runs_api,gfs_global,2025-09-08 18:00:00,2025-09-09 02:00:00,2025-09-08 19:00:00,2025-09-09 03:00:00,1,26.4,83,23.2,30.9,,0.5,0.0,0.5,0.0,0.0,53.0,1009.8,1004.5,100.0,91.0,99.0,100.0,24140.0,0.0,0.01,0.58
single_runs_api,gfs_global,2025-09-08 18:00:00,2025-09-09 02:00:00,2025-09-08 20:00:00,2025-09-09 04:00:00,2,26.6,82,23.2,30.9,,0.1,0.0,0.1,0.0,0.0,51.0,1009.4,1004.1,100.0,50.0,100.0,100.0,24140.0,0.0,0.02,0.63
single_runs_api,gfs_global,2025-09-08 18:00:00,2025-09-09 02:00:00,2025-09-08 21:00:00,2025-09-09 05:00:00,3,26.5,82,23.1,30.8,,0.1,0.0,0.1,0.0,0.0,51.0,1009.4,1004.1,100.0,5.0,100.0,100.0,24140.0,0.0,0.01,0.62
single_runs_api,gfs_global,2025-09-08 18:00:00,2025-09-09 02:00:00,2025-09-08 22:00:00,2025-09-09 06:00:00,4,26.5,81,22.9,30.7,,0.2,0.0,0.2,0.0,0.0,51.0,1009.8,1004.5,100.0,55.0,100.0,100.0,24140.0,0.0,0.02,0.66
single_runs_api,gfs_global,2025-09-08 18:00:00,2025-09-09 02:00:00,2025-09-08 23:00:00,2025-09-09 07:00:00,5,26.5,81,22.9,30.9,,0.0,0.0,0.0,0.0,0.0,3.0,1010.3,1005.0,100.0,72.0,100.0,100.0,20360.0,0.0,0.01,0.66
single_runs_api,gfs_global,2025-09-08 18:00:00,2025-09-09 02:00:00,2025-09-09 00:00:00,2025-09-09 08:00:00,6,26.5,82,23.1,31.0,,0.1,0.0,0.1,0.0,0.0,51.0,1011.2,1005.9,100.0,53.0,100.0,100.0,19480.0,0.0,0.04,0.62
single_runs_api,gfs_global,2025-09-09 00:00:00,2025-09-09 08:00:00,2025-09-09 01:00:00,2025-09-09 09:00:00,1,26.6,82,23.2,31.3,,0.5,0.0,0.5,0.0,0.0,53.0,1012.1,1006.8,100.0,39.0,100.0,100.0,24140.0,0.0,0.05,0.63
single_runs_api,gfs_global,2025-09-09 00:00:00,2025-09-09 08:00:00,2025-09-09 02:00:00,2025-09-09 10:00:00,2,28.3,74,23.2,32.5,,0.4,0.0,0.4,0.0,0.0,51.0,1012.6,1007.3,100.0,5.0,37.0,100.0,20320.0,0.0,0.28,1.0
single_runs_api,gfs_global,2025-09-09 00:00:00,2025-09-09 08:00:00,2025-09-09 03:00:00,2025-09-09 11:00:00,3,28.9,70,22.8,33.1,,0.3,0.0,0.3,0.0,0.0,51.0,1012.6,1007.3,100.0,13.0,58.0,100.0,18260.0,0.0,0.43,1.19
single_runs_api,gfs_global,2025-09-09 00:00:00,2025-09-09 08:00:00,2025-09-09 04:00:00,2025-09-09 12:00:00,4,29.8,64,22.2,35.1,,0.2,0.0,0.2,0.0,0.0,51.0,1011.9,1006.7,100.0,25.0,26.0,100.0,11280.0,0.0,0.64,1.51
single_runs_api,gfs_global,2025-09-09 00:00:00,2025-09-09 08:00:00,2025-09-09 05:00:00,2025-09-09 13:00:00,5,30.2,62,22.1,35.4,,0.0,0.0,0.0,0.0,0.0,2.0,1011.0,1005.8,75.0,24.0,5.0,56.0,8500.0,0.0,0.7,1.63
single_runs_api,gfs_global,2025-09-09 00:00:00,2025-09-09 08:00:00,2025-09-09 06:00:00,2025-09-09 14:00:00,6,30.1,62,22.0,34.8,,0.1,0.0,0.1,0.0,0.0,51.0,1009.8,1004.6,90.0,12.0,5.0,85.0,15780.0,0.0,0.7,1.62
single_runs_api,gfs_global,2025-09-09 06:00:00,2025-09-09 14:00:00,2025-09-09 07:00:00,2025-09-09 15:00:00,1,28.6,70,22.6,33.1,,0.6,0.0,0.6,0.0,0.0,53.0,1009.6,1004.4,95.0,30.0,5.0,91.0,18620.0,0.0,0.59,1.17
single_runs_api,gfs_global,2025-09-09 06:00:00,2025-09-09 14:00:00,2025-09-09 08:00:00,2025-09-09 16:00:00,2,28.0,73,22.7,31.3,,0.1,0.0,0.1,0.0,0.0,51.0,1009.1,1003.8,100.0,25.0,63.0,100.0,24140.0,0.0,0.41,1.02
single_runs_api,gfs_global,2025-09-09 06:00:00,2025-09-09 14:00:00,2025-09-09 09:00:00,2025-09-09 17:00:00,3,26.6,80,22.8,30.2,,0.2,0.0,0.2,0.0,0.0,51.0,1009.3,1004.0,100.0,55.0,100.0,100.0,24140.0,0.0,0.1,0.69
single_runs_api,gfs_global,2025-09-09 06:00:00,2025-09-09 14:00:00,2025-09-09 10:00:00,2025-09-09 18:00:00,4,26.8,79,22.8,30.4,,0.0,0.0,0.0,0.0,0.0,3.0,1009.4,1004.1,100.0,50.0,100.0,100.0,24140.0,0.0,0.07,0.74
single_runs_api,gfs_global,2025-09-09 06:00:00,2025-09-09 14:00:00,2025-09-09 11:00:00,2025-09-09 19:00:00,5,26.8,79,22.8,30.2,,0.0,0.0,0.0,0.0,0.0,3.0,1010.1,1004.8,100.0,62.0,100.0,100.0,24140.0,0.0,0.07,0.74
single_runs_api,gfs_global,2025-09-09 06:00:00,2025-09-09 14:00:00,2025-09-09 12:00:00,2025-09-09 20:00:00,6,26.5,80,22.7,30.0,,0.0,0.0,0.0,0.0,0.0,3.0,1010.9,1005.6,100.0,94.0,100.0,10.0,24140.0,0.0,0.05,0.69
single_runs_api,gfs_global,2025-09-09 12:00:00,2025-09-09 20:00:00,2025-09-09 13:00:00,2025-09-09 21:00:00,1,26.6,80,22.8,30.8,,0.0,0.0,0.0,0.0,0.0,3.0,1011.0,1005.7,100.0,9.0,100.0,14.0,24140.0,0.0,0.02,0.69
single_runs_api,gfs_global,2025-09-09 12:00:00,2025-09-09 20:00:00,2025-09-09 14:00:00,2025-09-09 22:00:00,2,26.6,80,22.8,30.9,,0.0,0.0,0.0,0.0,0.0,3.0,1011.4,1006.1,100.0,9.0,100.0,100.0,24140.0,0.0,0.01,0.69
single_runs_api,gfs_global,2025-09-09 12:00:00,2025-09-09 20:00:00,2025-09-09 15:00:00,2025-09-09 23:00:00,3,26.6,81,23.0,31.0,,0.0,0.0,0.0,0.0,0.0,3.0,1011.9,1006.6,100.0,5.0,100.0,77.0,24140.0,0.0,0.01,0.66
single_runs_api,gfs_global,2025-09-09 12:00:00,2025-09-09 20:00:00,2025-09-09 16:00:00,2025-09-10 00:00:00,4,26.6,81,23.0,31.0,,0.0,0.0,0.0,0.0,0.0,3.0,1011.8,1006.5,100.0,0.0,100.0,14.0,24140.0,0.0,0.01,0.66
single_runs_api,gfs_global,2025-09-09 12:00:00,2025-09-09 20:00:00,2025-09-09 17:00:00,2025-09-10 01:00:00,5,26.6,82,23.2,31.1,,0.0,0.0,0.0,0.0,0.0,3.0,1011.2,1005.9,99.0,0.0,95.0,75.0,24140.0,0.0,0.01,0.63
single_runs_api,gfs_global,2025-09-09 12:00:00,2025-09-09 20:00:00,2025-09-09 18:00:00,2025-09-10 02:00:00,6,26.5,82,23.1,30.9,,0.0,0.0,0.0,0.0,0.0,3.0,1010.3,1005.0,100.0,1.0,80.0,100.0,24140.0,0.0,0.01,0.62
single_runs_api,gfs_global,2025-09-09 18:00:00,2025-09-10 02:00:00,2025-09-09 19:00:00,2025-09-10 03:00:00,1,26.1,83,23.0,30.9,,0.0,0.0,0.0,0.0,0.0,3.0,1009.9,1004.6,99.0,0.0,67.0,97.0,24140.0,0.0,0.0,0.57
single_runs_api,gfs_global,2025-09-09 18:00:00,2025-09-10 02:00:00,2025-09-09 20:00:00,2025-09-10 04:00:00,2,25.8,84,22.9,30.4,,0.0,0.0,0.0,0.0,0.0,3.0,1009.5,1004.2,80.0,8.0,54.0,52.0,24140.0,0.0,0.0,0.53
single_runs_api,gfs_global,2025-09-09 18:00:00,2025-09-10 02:00:00,2025-09-09 21:00:00,2025-09-10 05:00:00,3,25.7,84,22.8,30.3,,0.0,0.0,0.0,0.0,0.0,3.0,1009.6,1004.3,96.0,0.0,5.0,95.0,24140.0,0.0,0.0,0.53
single_runs_api,gfs_global,2025-09-09 18:00:00,2025-09-10 02:00:00,2025-09-09 22:00:00,2025-09-10 06:00:00,4,25.6,84,22.7,30.3,,0.0,0.0,0.0,0.0,0.0,1.0,1009.8,1004.5,22.0,0.0,10.0,14.0,24140.0,0.0,0.0,0.52
single_runs_api,gfs_global,2025-09-09 18:00:00,2025-09-10 02:00:00,2025-09-09 23:00:00,2025-09-10 07:00:00,5,25.5,85,22.8,30.2,,0.0,0.0,0.0,0.0,0.0,2.0,1010.2,1004.9,74.0,5.0,11.0,68.0,24140.0,0.0,0.0,0.49
single_runs_api,gfs_global,2025-09-09 18:00:00,2025-09-10 02:00:00,2025-09-10 00:00:00,2025-09-10 08:00:00,6,26.4,81,22.8,31.0,,0.0,0.0,0.0,0.0,0.0,2.0,1011.0,1005.7,68.0,7.0,53.0,22.0,24140.0,0.0,0.05,0.65
single_runs_api,gfs_global,2025-09-10 00:00:00,2025-09-10 08:00:00,2025-09-10 01:00:00,2025-09-10 09:00:00,1,27.4,76,22.8,32.0,,0.0,0.0,0.0,0.0,0.0,1.0,,,27.0,2.0,10.0,14.0,,0.0,0.21,0.87
single_runs_api,gfs_global,2025-09-10 00:00:00,2025-09-10 08:00:00,2025-09-10 02:00:00,2025-09-10 10:00:00,2,27.7,74,22.6,32.5,,0.0,0.0,0.0,0.0,0.0,3.0,,,100.0,12.0,10.0,100.0,,0.0,0.2,0.96
single_runs_api,gfs_global,2025-09-10 00:00:00,2025-09-10 08:00:00,2025-09-10 03:00:00,2025-09-10 11:00:00,3,29.3,67,22.5,34.3,,0.0,0.0,0.0,0.0,0.0,2.0,,,75.0,0.0,35.0,68.0,,0.0,0.52,1.34
single_runs_api,gfs_global,2025-09-10 00:00:00,2025-09-10 08:00:00,2025-09-10 04:00:00,2025-09-10 12:00:00,4,29.9,65,22.6,35.2,,0.0,0.0,0.0,0.0,0.0,3.0,,,81.0,0.0,77.0,10.0,,0.0,0.59,1.47
single_runs_api,gfs_global,2025-09-10 00:00:00,2025-09-10 08:00:00,2025-09-10 05:00:00,2025-09-10 13:00:00,5,30.5,62,22.4,36.2,,0.0,0.0,0.0,0.0,0.0,2.0,,,65.0,20.0,54.0,0.0,,0.0,0.69,1.65
single_runs_api,gfs_global,2025-09-10 00:00:00,2025-09-10 08:00:00,2025-09-10 06:00:00,2025-09-10 14:00:00,6,30.7,62,22.6,36.0,,0.0,0.0,0.0,0.0,0.0,2.0,,,68.0,60.0,5.0,10.0,,0.0,0.69,1.67
single_runs_api,gfs_global,2025-09-10 06:00:00,2025-09-10 14:00:00,2025-09-10 07:00:00,2025-09-10 15:00:00,1,30.2,65,22.9,35.0,,0.9,0.0,0.9,0.0,0.0,53.0,,,96.0,60.0,5.0,90.0,,0.0,0.59,1.5
single_runs_api,gfs_global,2025-09-10 06:00:00,2025-09-10 14:00:00,2025-09-10 08:00:00,2025-09-10 16:00:00,2,30.1,66,23.0,34.7,,0.2,0.0,0.2,0.0,0.0,51.0,,,100.0,36.0,5.0,100.0,,0.0,0.55,1.45
single_runs_api,gfs_global,2025-09-10 06:00:00,2025-09-10 14:00:00,2025-09-10 09:00:00,2025-09-10 17:00:00,3,29.3,69,23.0,33.3,,0.9,0.0,0.9,0.0,0.0,53.0,,,100.0,36.0,10.0,100.0,,0.0,0.4,1.26
single_runs_api,gfs_global,2025-09-10 06:00:00,2025-09-10 14:00:00,2025-09-10 10:00:00,2025-09-10 18:00:00,4,28.3,73,23.0,32.8,,2.1,0.0,2.1,0.0,0.0,80.0,,,100.0,15.0,68.0,100.0,,0.0,0.18,1.04
single_runs_api,gfs_global,2025-09-10 06:00:00,2025-09-10 14:00:00,2025-09-10 11:00:00,2025-09-10 19:00:00,5,27.0,81,23.4,31.6,,3.8,0.0,3.8,0.0,0.0,81.0,,,100.0,9.0,100.0,35.0,,0.0,0.05,0.68
single_runs_api,gfs_global,2025-09-10 06:00:00,2025-09-10 14:00:00,2025-09-10 12:00:00,2025-09-10 20:00:00,6,26.9,82,23.5,31.2,,2.8,0.0,2.8,0.0,0.0,81.0,,,100.0,37.0,101.0,63.0,,0.0,0.04,0.64
single_runs_api,gfs_global,2025-09-10 12:00:00,2025-09-10 20:00:00,2025-09-10 13:00:00,2025-09-10 21:00:00,1,27.1,80,23.3,31.6,,0.3,0.0,0.3,0.0,0.0,51.0,,,100.0,24.0,100.0,19.0,,0.0,0.02,0.72
single_runs_api,gfs_global,2025-09-10 12:00:00,2025-09-10 20:00:00,2025-09-10 14:00:00,2025-09-10 22:00:00,2,26.9,81,23.3,31.4,,0.1,0.1,0.0,0.0,0.0,51.0,,,72.0,7.0,64.0,14.0,,0.0,0.01,0.67
single_runs_api,gfs_global,2025-09-10 12:00:00,2025-09-10 20:00:00,2025-09-10 15:00:00,2025-09-10 23:00:00,3,26.7,82,23.3,31.2,,0.0,0.0,0.0,0.0,0.0,3.0,,,87.0,81.0,72.0,14.0,,0.0,0.01,0.63
single_runs_api,gfs_global,2025-09-10 12:00:00,2025-09-10 20:00:00,2025-09-10 16:00:00,2025-09-11 00:00:00,4,26.7,82,23.3,31.4,,0.0,0.0,0.0,0.0,0.0,3.0,,,100.0,100.0,100.0,14.0,,0.0,0.01,0.63
single_runs_api,gfs_global,2025-09-10 12:00:00,2025-09-10 20:00:00,2025-09-10 17:00:00,2025-09-11 01:00:00,5,26.5,82,23.1,31.0,,0.0,0.0,0.0,0.0,0.0,3.0,,,100.0,94.0,100.0,31.0,,0.0,0.01,0.62
single_runs_api,gfs_global,2025-09-10 12:00:00,2025-09-10 20:00:00,2025-09-10 18:00:00,2025-09-11 02:00:00,6,26.1,84,23.2,30.7,,0.0,0.0,0.0,0.0,0.0,3.0,,,90.0,29.0,75.0,58.0,,0.0,0.01,0.54
single_runs_api,gfs_global,2025-09-10 18:00:00,2025-09-11 02:00:00,2025-09-10 19:00:00,2025-09-11 03:00:00,1,25.5,86,23.0,30.1,,0.0,0.0,0.0,0.0,0.0,1.0,,,25.0,0.0,5.0,17.0,,0.0,0.0,0.46
single_runs_api,gfs_global,2025-09-10 18:00:00,2025-09-11 02:00:00,2025-09-10 20:00:00,2025-09-11 04:00:00,2,25.1,87,22.8,29.6,,0.0,0.0,0.0,0.0,0.0,3.0,,,100.0,0.0,5.0,100.0,,0.0,0.0,0.41
single_runs_api,gfs_global,2025-09-10 18:00:00,2025-09-11 02:00:00,2025-09-10 21:00:00,2025-09-11 05:00:00,3,25.0,86,22.5,29.5,,0.0,0.0,0.0,0.0,0.0,1.0,,,32.0,0.0,10.0,21.0,,0.0,0.0,0.44
single_runs_api,gfs_global,2025-09-10 18:00:00,2025-09-11 02:00:00,2025-09-10 22:00:00,2025-09-11 06:00:00,4,25.1,85,22.4,29.5,,0.0,0.0,0.0,0.0,0.0,3.0,,,99.0,0.0,95.0,93.0,,0.0,0.0,0.48
single_runs_api,gfs_global,2025-09-10 18:00:00,2025-09-11 02:00:00,2025-09-10 23:00:00,2025-09-11 07:00:00,5,24.9,85,22.2,29.2,,0.2,0.0,0.2,0.0,0.0,51.0,,,92.0,0.0,46.0,81.0,,0.0,0.0,0.47
single_runs_api,gfs_global,2025-09-10 18:00:00,2025-09-11 02:00:00,2025-09-11 00:00:00,2025-09-11 08:00:00,6,25.5,82,22.2,29.6,,0.2,0.0,0.2,0.0,0.0,51.0,,,100.0,0.0,34.0,100.0,,0.0,0.05,0.59
single_runs_api,gfs_global,2025-09-11 00:00:00,2025-09-11 08:00:00,2025-09-11 01:00:00,2025-09-11 09:00:00,1,27.3,75,22.4,31.7,,0.0,0.0,0.0,0.0,0.0,1.0,,,41.0,0.0,30.0,10.0,,0.0,0.21,0.9
single_runs_api,gfs_global,2025-09-11 00:00:00,2025-09-11 08:00:00,2025-09-11 02:00:00,2025-09-11 10:00:00,2,28.3,70,22.3,32.9,,1.1,0.0,1.1,0.0,0.0,55.0,,,41.0,20.0,5.0,16.0,,0.0,0.39,1.15
single_runs_api,gfs_global,2025-09-11 00:00:00,2025-09-11 08:00:00,2025-09-11 03:00:00,2025-09-11 11:00:00,3,29.3,66,22.3,34.5,,1.2,0.0,1.2,0.0,0.0,55.0,,,75.0,17.0,5.0,66.0,,0.0,0.53,1.38
single_runs_api,gfs_global,2025-09-11 00:00:00,2025-09-11 08:00:00,2025-09-11 04:00:00,2025-09-11 12:00:00,4,29.4,66,22.4,33.7,,0.4,0.0,0.4,0.0,0.0,51.0,,,93.0,6.0,83.0,48.0,,0.0,0.47,1.39
single_runs_api,gfs_global,2025-09-11 00:00:00,2025-09-11 08:00:00,2025-09-11 05:00:00,2025-09-11 13:00:00,5,30.1,64,22.5,35.7,,0.6,0.0,0.6,0.0,0.0,53.0,,,100.0,24.0,64.0,100.0,,0.0,0.66,1.53
single_runs_api,gfs_global,2025-09-11 00:00:00,2025-09-11 08:00:00,2025-09-11 06:00:00,2025-09-11 14:00:00,6,29.8,67,23.0,36.1,,2.1,0.0,2.1,0.0,0.0,80.0,,,68.0,49.0,30.0,18.0,,0.0,0.7,1.38
single_runs_api,gfs_global,2025-09-11 06:00:00,2025-09-11 14:00:00,2025-09-11 07:00:00,2025-09-11 15:00:00,1,28.8,73,23.4,34.5,,3.0,0.0,3.0,0.0,0.0,81.0,1008.0,1002.8,88.0,47.0,31.0,63.0,13440.0,0.0,0.61,1.07
single_runs_api,gfs_global,2025-09-11 06:00:00,2025-09-11 14:00:00,2025-09-11 08:00:00,2025-09-11 16:00:00,2,28.3,74,23.2,32.1,,2.5,0.0,2.5,0.0,0.0,81.0,1007.5,1002.3,100.0,50.0,75.0,100.0,17440.0,0.0,0.43,1.0
single_runs_api,gfs_global,2025-09-11 06:00:00,2025-09-11 14:00:00,2025-09-11 09:00:00,2025-09-11 17:00:00,3,28.4,73,23.1,31.9,,1.2,0.0,1.2,0.0,0.0,55.0,1007.3,1002.1,96.0,35.0,47.0,86.0,24140.0,0.0,0.38,1.04
single_runs_api,gfs_global,2025-09-11 06:00:00,2025-09-11 14:00:00,2025-09-11 10:00:00,2025-09-11 18:00:00,4,28.2,73,22.9,31.8,,0.5,0.0,0.5,0.0,0.0,53.0,1007.7,1002.5,100.0,34.0,29.0,100.0,20260.0,0.0,0.23,1.03
single_runs_api,gfs_global,2025-09-11 06:00:00,2025-09-11 14:00:00,2025-09-11 11:00:00,2025-09-11 19:00:00,5,27.0,80,23.2,31.3,,1.3,0.0,1.3,0.0,0.0,80.0,1008.4,1003.1,58.0,0.0,50.0,14.0,13500.0,0.0,0.07,0.71
single_runs_api,gfs_global,2025-09-11 06:00:00,2025-09-11 14:00:00,2025-09-11 12:00:00,2025-09-11 20:00:00,6,26.7,81,23.1,31.1,,1.3,0.0,1.3,0.0,0.0,80.0,1009.6,1004.3,92.0,0.0,89.0,15.0,6140.0,0.0,0.04,0.66
single_runs_api,gfs_global,2025-09-11 12:00:00,2025-09-11 20:00:00,2025-09-11 13:00:00,2025-09-11 21:00:00,1,26.3,83,23.1,30.9,,0.8,0.0,0.8,0.0,0.0,53.0,,,100.0,19.0,100.0,76.0,,0.0,0.01,0.58
single_runs_api,gfs_global,2025-09-11 12:00:00,2025-09-11 20:00:00,2025-09-11 14:00:00,2025-09-11 22:00:00,2,26.2,84,23.3,31.2,,0.0,0.0,0.0,0.0,0.0,3.0,,,100.0,77.0,100.0,10.0,,0.0,0.0,0.54
single_runs_api,gfs_global,2025-09-11 12:00:00,2025-09-11 20:00:00,2025-09-11 15:00:00,2025-09-11 23:00:00,3,25.8,84,22.9,30.5,,0.0,0.0,0.0,0.0,0.0,3.0,,,100.0,4.0,16.0,100.0,,0.0,0.0,0.53
single_runs_api,gfs_global,2025-09-11 12:00:00,2025-09-11 20:00:00,2025-09-11 16:00:00,2025-09-12 00:00:00,4,25.7,84,22.8,30.3,,0.0,0.0,0.0,0.0,0.0,3.0,,,100.0,0.0,5.0,100.0,,0.0,0.0,0.53
single_runs_api,gfs_global,2025-09-11 12:00:00,2025-09-11 20:00:00,2025-09-11 17:00:00,2025-09-12 01:00:00,5,25.5,84,22.6,29.9,,0.0,0.0,0.0,0.0,0.0,3.0,,,100.0,0.0,9.0,100.0,,0.0,0.0,0.52
single_runs_api,gfs_global,2025-09-11 12:00:00,2025-09-11 20:00:00,2025-09-11 18:00:00,2025-09-12 02:00:00,6,25.2,85,22.5,29.3,,0.0,0.0,0.0,0.0,0.0,3.0,,,100.0,0.0,10.0,100.0,,0.0,0.0,0.48
single_runs_api,gfs_global,2025-09-11 18:00:00,2025-09-12 02:00:00,2025-09-11 19:00:00,2025-09-12 03:00:00,1,25.0,85,22.3,29.1,,0.0,0.0,0.0,0.0,0.0,3.0,1009.6,1004.3,100.0,0.0,5.0,100.0,24140.0,0.0,0.0,0.47
single_runs_api,gfs_global,2025-09-11 18:00:00,2025-09-12 02:00:00,2025-09-11 20:00:00,2025-09-12 04:00:00,2,24.8,85,22.1,28.6,,0.0,0.0,0.0,0.0,0.0,3.0,1009.3,1004.0,100.0,0.0,10.0,100.0,24140.0,0.0,0.01,0.47
single_runs_api,gfs_global,2025-09-11 18:00:00,2025-09-12 02:00:00,2025-09-11 21:00:00,2025-09-12 05:00:00,3,24.6,86,22.1,28.3,,0.1,0.0,0.1,0.0,0.0,51.0,1009.3,1004.0,100.0,0.0,5.0,100.0,24140.0,0.0,0.01,0.43
single_runs_api,gfs_global,2025-09-11 18:00:00,2025-09-12 02:00:00,2025-09-11 22:00:00,2025-09-12 06:00:00,4,24.4,87,22.1,28.0,,0.1,0.0,0.1,0.0,0.0,51.0,1009.7,1004.4,100.0,0.0,5.0,100.0,24140.0,0.0,0.01,0.4
single_runs_api,gfs_global,2025-09-11 18:00:00,2025-09-12 02:00:00,2025-09-11 23:00:00,2025-09-12 07:00:00,5,24.3,87,22.0,27.8,,0.2,0.0,0.2,0.0,0.0,51.0,1010.2,1004.9,100.0,0.0,10.0,100.0,24140.0,0.0,0.01,0.39
single_runs_api,gfs_global,2025-09-11 18:00:00,2025-09-12 02:00:00,2025-09-12 00:00:00,2025-09-12 08:00:00,6,24.9,85,22.2,28.4,,0.3,0.0,0.3,0.0,0.0,51.0,1011.0,1005.7,100.0,0.0,5.0,100.0,24140.0,0.0,0.05,0.47
single_runs_api,gfs_global,2025-09-12 00:00:00,2025-09-12 08:00:00,2025-09-12 01:00:00,2025-09-12 09:00:00,1,26.2,82,22.9,28.5,,1.3,0.0,1.3,0.0,0.0,80.0,,,100.0,0.0,17.0,100.0,,0.0,0.18,0.61
single_runs_api,gfs_global,2025-09-12 00:00:00,2025-09-12 08:00:00,2025-09-12 02:00:00,2025-09-12 10:00:00,2,26.5,79,22.5,28.2,,0.3,0.0,0.3,0.0,0.0,51.0,,,100.0,9.0,92.0,100.0,,0.0,0.27,0.73
single_runs_api,gfs_global,2025-09-12 00:00:00,2025-09-12 08:00:00,2025-09-12 03:00:00,2025-09-12 11:00:00,3,25.9,82,22.6,27.8,,0.1,0.0,0.1,0.0,0.0,51.0,,,100.0,13.0,100.0,100.0,,0.0,0.18,0.6
single_runs_api,gfs_global,2025-09-12 00:00:00,2025-09-12 08:00:00,2025-09-12 04:00:00,2025-09-12 12:00:00,4,25.6,83,22.5,27.4,,0.1,0.1,0.0,0.0,0.0,51.0,,,100.0,13.0,100.0,100.0,,0.0,0.15,0.56
single_runs_api,gfs_global,2025-09-12 00:00:00,2025-09-12 08:00:00,2025-09-12 05:00:00,2025-09-12 13:00:00,5,25.2,82,21.9,26.7,,0.0,0.0,0.0,0.0,0.0,3.0,,,100.0,5.0,100.0,100.0,,0.0,0.15,0.58
single_runs_api,gfs_global,2025-09-12 00:00:00,2025-09-12 08:00:00,2025-09-12 06:00:00,2025-09-12 14:00:00,6,25.0,80,21.3,25.7,,0.0,0.0,0.0,0.0,0.0,3.0,,,100.0,5.0,100.0,100.0,,0.0,0.14,0.63
single_runs_api,gfs_global,2025-09-12 06:00:00,2025-09-12 14:00:00,2025-09-12 07:00:00,2025-09-12 15:00:00,1,26.4,77,22.0,28.0,,0.0,0.0,0.0,0.0,0.0,3.0,,,100.0,10.0,100.0,100.0,,0.0,0.18,0.79
single_runs_api,gfs_global,2025-09-12 06:00:00,2025-09-12 14:00:00,2025-09-12 08:00:00,2025-09-12 16:00:00,2,26.3,77,21.9,28.1,,0.0,0.0,0.0,0.0,0.0,3.0,,,100.0,10.0,100.0,100.0,,0.0,0.14,0.78
single_runs_api,gfs_global,2025-09-12 06:00:00,2025-09-12 14:00:00,2025-09-12 09:00:00,2025-09-12 17:00:00,3,26.2,77,21.8,28.0,,0.0,0.0,0.0,0.0,0.0,3.0,,,100.0,20.0,100.0,100.0,,0.0,0.11,0.78
single_runs_api,gfs_global,2025-09-12 06:00:00,2025-09-12 14:00:00,2025-09-12 10:00:00,2025-09-12 18:00:00,4,25.8,79,21.8,27.8,,0.0,0.0,0.0,0.0,0.0,3.0,,,100.0,38.0,100.0,100.0,,0.0,0.1,0.7
single_runs_api,gfs_global,2025-09-12 06:00:00,2025-09-12 14:00:00,2025-09-12 11:00:00,2025-09-12 19:00:00,5,25.5,80,21.8,28.0,,0.0,0.0,0.0,0.0,0.0,3.0,,,100.0,100.0,92.0,100.0,,0.0,0.07,0.65
single_runs_api,gfs_global,2025-09-12 06:00:00,2025-09-12 14:00:00,2025-09-12 12:00:00,2025-09-12 20:00:00,6,25.3,81,21.8,28.3,,0.0,0.0,0.0,0.0,0.0,3.0,,,100.0,100.0,100.0,100.0,,0.0,0.05,0.61
single_runs_api,gfs_global,2025-09-12 12:00:00,2025-09-12 20:00:00,2025-09-12 13:00:00,2025-09-12 21:00:00,1,25.9,79,21.9,29.6,,0.0,0.0,0.0,0.0,0.0,3.0,,,100.0,51.0,100.0,100.0,,0.0,0.02,0.7
single_runs_api,gfs_global,2025-09-12 12:00:00,2025-09-12 20:00:00,2025-09-12 14:00:00,2025-09-12 22:00:00,2,26.0,78,21.8,29.6,,0.0,0.0,0.0,0.0,0.0,3.0,,,100.0,100.0,100.0,100.0,,0.0,0.02,0.74
single_runs_api,gfs_global,2025-09-12 12:00:00,2025-09-12 20:00:00,2025-09-12 15:00:00,2025-09-12 23:00:00,3,26.0,78,21.8,30.6,,0.5,0.0,0.5,0.0,0.0,53.0,,,100.0,100.0,82.0,100.0,,0.0,0.0,0.74
single_runs_api,gfs_global,2025-09-12 12:00:00,2025-09-12 20:00:00,2025-09-12 16:00:00,2025-09-13 00:00:00,4,25.7,83,22.6,29.2,,1.1,0.1,1.0,0.0,0.0,55.0,,,100.0,100.0,100.0,100.0,,0.0,0.02,0.56
single_runs_api,gfs_global,2025-09-12 12:00:00,2025-09-12 20:00:00,2025-09-12 17:00:00,2025-09-13 01:00:00,5,25.3,86,22.8,29.2,,0.1,0.0,0.1,0.0,0.0,51.0,,,100.0,14.0,100.0,100.0,,0.0,0.01,0.45
single_runs_api,gfs_global,2025-09-12 12:00:00,2025-09-12 20:00:00,2025-09-12 18:00:00,2025-09-13 02:00:00,6,24.9,88,22.7,28.8,,1.3,0.1,1.2,0.0,0.0,80.0,,,100.0,100.0,100.0,66.0,,0.0,0.01,0.38
single_runs_api,gfs_global,2025-09-12 18:00:00,2025-09-13 02:00:00,2025-09-12 19:00:00,2025-09-13 03:00:00,1,25.2,85,22.5,28.8,,2.0,0.0,2.0,0.0,0.0,80.0,,,100.0,77.0,100.0,100.0,,0.0,0.01,0.48
single_runs_api,gfs_global,2025-09-12 18:00:00,2025-09-13 02:00:00,2025-09-12 20:00:00,2025-09-13 04:00:00,2,25.0,86,22.5,28.2,,1.5,0.0,1.6,0.0,0.0,80.0,,,100.0,6.0,100.0,100.0,,0.0,0.02,0.44
single_runs_api,gfs_global,2025-09-12 18:00:00,2025-09-13 02:00:00,2025-09-12 21:00:00,2025-09-13 05:00:00,3,25.3,84,22.4,28.9,,1.1,0.0,1.1,0.0,0.0,55.0,,,100.0,5.0,100.0,100.0,,0.0,0.02,0.51
single_runs_api,gfs_global,2025-09-12 18:00:00,2025-09-13 02:00:00,2025-09-12 22:00:00,2025-09-13 06:00:00,4,25.5,83,22.4,29.4,,0.0,0.0,0.0,0.0,0.0,3.0,,,100.0,33.0,100.0,94.0,,0.0,0.01,0.55
single_runs_api,gfs_global,2025-09-12 18:00:00,2025-09-13 02:00:00,2025-09-12 23:00:00,2025-09-13 07:00:00,5,25.0,86,22.5,28.7,,1.2,0.1,1.1,0.0,0.0,55.0,,,100.0,100.0,100.0,68.0,,0.0,0.01,0.44
single_runs_api,gfs_global,2025-09-12 18:00:00,2025-09-13 02:00:00,2025-09-13 00:00:00,2025-09-13 08:00:00,6,24.8,87,22.5,28.1,,2.0,0.0,2.0,0.0,0.0,80.0,,,100.0,98.0,100.0,97.0,,0.0,0.04,0.41
single_runs_api,gfs_global,2025-09-13 00:00:00,2025-09-13 08:00:00,2025-09-13 01:00:00,2025-09-13 09:00:00,1,25.5,84,22.6,29.0,,1.9,0.0,1.9,0.0,0.0,80.0,1012.7,1007.4,100.0,56.0,100.0,93.0,6520.0,0.0,0.07,0.52
single_runs_api,gfs_global,2025-09-13 00:00:00,2025-09-13 08:00:00,2025-09-13 02:00:00,2025-09-13 10:00:00,2,25.6,84,22.7,28.8,,1.3,0.0,1.3,0.0,0.0,80.0,1013.4,1008.1,100.0,14.0,100.0,99.0,6960.0,0.0,0.1,0.52
single_runs_api,gfs_global,2025-09-13 00:00:00,2025-09-13 08:00:00,2025-09-13 03:00:00,2025-09-13 11:00:00,3,25.5,85,22.8,28.7,,1.4,0.0,1.4,0.0,0.0,80.0,1013.5,1008.2,100.0,20.0,100.0,75.0,7860.0,0.0,0.12,0.49
single_runs_api,gfs_global,2025-09-13 00:00:00,2025-09-13 08:00:00,2025-09-13 04:00:00,2025-09-13 12:00:00,4,25.7,84,22.8,29.0,,1.5,0.0,1.5,0.0,0.0,80.0,1013.0,1007.7,100.0,37.0,100.0,100.0,11020.0,0.0,0.18,0.53
single_runs_api,gfs_global,2025-09-13 00:00:00,2025-09-13 08:00:00,2025-09-13 05:00:00,2025-09-13 13:00:00,5,24.9,88,22.7,28.6,,1.2,0.1,1.1,0.0,0.0,55.0,1012.2,1006.9,100.0,94.0,100.0,100.0,18880.0,0.0,0.09,0.38
single_runs_api,gfs_global,2025-09-13 00:00:00,2025-09-13 08:00:00,2025-09-13 06:00:00,2025-09-13 14:00:00,6,24.6,89,22.6,29.0,,0.3,0.2,0.1,0.0,0.0,51.0,1011.3,1006.0,100.0,100.0,100.0,100.0,22220.0,0.0,0.06,0.34
single_runs_api,gfs_global,2025-09-13 06:00:00,2025-09-13 14:00:00,2025-09-13 07:00:00,2025-09-13 15:00:00,1,25.7,83,22.6,30.4,,0.0,0.0,0.0,0.0,0.0,3.0,,,100.0,45.0,100.0,100.0,,0.0,0.09,0.56
single_runs_api,gfs_global,2025-09-13 06:00:00,2025-09-13 14:00:00,2025-09-13 08:00:00,2025-09-13 16:00:00,2,26.0,82,22.7,30.3,,1.6,0.0,1.6,0.0,0.0,80.0,,,100.0,90.0,100.0,100.0,,0.0,0.18,0.6
single_runs_api,gfs_global,2025-09-13 06:00:00,2025-09-13 14:00:00,2025-09-13 09:00:00,2025-09-13 17:00:00,3,25.7,84,22.8,29.5,,1.4,0.0,1.4,0.0,0.0,80.0,,,100.0,41.0,100.0,100.0,,0.0,0.08,0.53
single_runs_api,gfs_global,2025-09-13 06:00:00,2025-09-13 14:00:00,2025-09-13 10:00:00,2025-09-13 18:00:00,4,25.5,84,22.6,29.1,,0.0,0.0,0.0,0.0,0.0,3.0,,,100.0,45.0,100.0,100.0,,0.0,0.06,0.52
single_runs_api,gfs_global,2025-09-13 06:00:00,2025-09-13 14:00:00,2025-09-13 11:00:00,2025-09-13 19:00:00,5,25.4,84,22.5,29.3,,0.0,0.0,0.0,0.0,0.0,3.0,,,100.0,5.0,100.0,100.0,,0.0,0.04,0.52
single_runs_api,gfs_global,2025-09-13 06:00:00,2025-09-13 14:00:00,2025-09-13 12:00:00,2025-09-13 20:00:00,6,25.6,83,22.5,29.9,,0.0,0.0,0.0,0.0,0.0,3.0,,,100.0,10.0,100.0,100.0,,0.0,0.03,0.56
single_runs_api,gfs_global,2025-09-13 12:00:00,2025-09-13 20:00:00,2025-09-13 13:00:00,2025-09-13 21:00:00,1,25.7,83,22.6,30.1,,0.0,0.0,0.0,0.0,0.0,3.0,,,100.0,0.0,100.0,100.0,,0.0,0.0,0.56
single_runs_api,gfs_global,2025-09-13 12:00:00,2025-09-13 20:00:00,2025-09-13 14:00:00,2025-09-13 22:00:00,2,25.6,84,22.7,30.1,,0.0,0.0,0.0,0.0,0.0,3.0,,,100.0,0.0,82.0,100.0,,0.0,0.0,0.52
single_runs_api,gfs_global,2025-09-13 12:00:00,2025-09-13 20:00:00,2025-09-13 15:00:00,2025-09-13 23:00:00,3,25.3,85,22.6,30.2,,0.0,0.0,0.0,0.0,0.0,3.0,,,100.0,0.0,45.0,100.0,,0.0,0.0,0.48
single_runs_api,gfs_global,2025-09-13 12:00:00,2025-09-13 20:00:00,2025-09-13 16:00:00,2025-09-14 00:00:00,4,25.1,86,22.6,29.6,,0.0,0.0,0.0,0.0,0.0,3.0,,,100.0,0.0,43.0,100.0,,0.0,0.0,0.44
single_runs_api,gfs_global,2025-09-13 12:00:00,2025-09-13 20:00:00,2025-09-13 17:00:00,2025-09-14 01:00:00,5,25.3,85,22.6,29.2,,0.0,0.0,0.0,0.0,0.0,3.0,,,100.0,0.0,96.0,100.0,,0.0,0.01,0.48
single_runs_api,gfs_global,2025-09-13 12:00:00,2025-09-13 20:00:00,2025-09-13 18:00:00,2025-09-14 02:00:00,6,25.5,84,22.6,29.3,,0.0,0.0,0.0,0.0,0.0,3.0,,,100.0,0.0,71.0,100.0,,0.0,0.01,0.52
single_runs_api,gfs_global,2025-09-13 18:00:00,2025-09-14 02:00:00,2025-09-13 19:00:00,2025-09-14 03:00:00,1,25.6,83,22.5,29.6,,0.0,0.0,0.0,0.0,0.0,3.0,,,100.0,15.0,100.0,78.0,,0.0,0.01,0.56
single_runs_api,gfs_global,2025-09-13 18:00:00,2025-09-14 02:00:00,2025-09-13 20:00:00,2025-09-14 04:00:00,2,25.8,82,22.5,29.5,,0.0,0.0,0.0,0.0,0.0,3.0,,,100.0,35.0,100.0,100.0,,0.0,0.02,0.6
single_runs_api,gfs_global,2025-09-13 18:00:00,2025-09-14 02:00:00,2025-09-13 21:00:00,2025-09-14 05:00:00,3,25.4,84,22.5,29.0,,0.5,0.0,0.5,0.0,0.0,53.0,,,100.0,39.0,100.0,92.0,,0.0,0.02,0.52
single_runs_api,gfs_global,2025-09-13 18:00:00,2025-09-14 02:00:00,2025-09-13 22:00:00,2025-09-14 06:00:00,4,25.0,86,22.5,28.5,,1.3,0.0,1.3,0.0,0.0,80.0,,,90.0,20.0,79.0,61.0,,0.0,0.01,0.44
single_runs_api,gfs_global,2025-09-13 18:00:00,2025-09-14 02:00:00,2025-09-13 23:00:00,2025-09-14 07:00:00,5,25.4,83,22.3,28.9,,0.1,0.0,0.1,0.0,0.0,51.0,,,100.0,77.0,100.0,59.0,,0.0,0.02,0.55
single_runs_api,gfs_global,2025-09-13 18:00:00,2025-09-14 02:00:00,2025-09-14 00:00:00,2025-09-14 08:00:00,6,25.6,82,22.3,29.1,,0.0,0.0,0.0,0.0,0.0,3.0,,,100.0,5.0,100.0,89.0,,0.0,0.05,0.59
single_runs_api,gfs_global,2025-09-15 06:00:00,2025-09-15 14:00:00,2025-09-15 07:00:00,2025-09-15 15:00:00,1,28.7,71,22.9,33.3,,0.0,0.0,0.0,0.0,0.0,3.0,1008.9,1003.7,100.0,14.0,56.0,100.0,24140.0,0.0,0.54,1.14
single_runs_api,gfs_global,2025-09-15 06:00:00,2025-09-15 14:00:00,2025-09-15 08:00:00,2025-09-15 16:00:00,2,28.3,72,22.7,32.0,,0.0,0.0,0.0,0.0,0.0,3.0,1008.7,1003.5,100.0,12.0,89.0,100.0,24140.0,0.0,0.43,1.07
single_runs_api,gfs_global,2025-09-15 06:00:00,2025-09-15 14:00:00,2025-09-15 09:00:00,2025-09-15 17:00:00,3,27.3,76,22.7,30.8,,0.0,0.0,0.0,0.0,0.0,3.0,1008.3,1003.0,100.0,0.0,97.0,100.0,24140.0,0.0,0.19,0.87
single_runs_api,gfs_global,2025-09-15 06:00:00,2025-09-15 14:00:00,2025-09-15 10:00:00,2025-09-15 18:00:00,4,27.2,76,22.6,31.1,,0.0,0.0,0.0,0.0,0.0,3.0,1008.9,1003.6,100.0,5.0,100.0,100.0,24140.0,0.0,0.09,0.86
single_runs_api,gfs_global,2025-09-15 06:00:00,2025-09-15 14:00:00,2025-09-15 11:00:00,2025-09-15 19:00:00,5,27.4,73,22.1,30.6,,0.0,0.0,0.0,0.0,0.0,3.0,1009.6,1004.3,100.0,5.0,100.0,100.0,24140.0,0.0,0.08,0.98
single_runs_api,gfs_global,2025-09-15 06:00:00,2025-09-15 14:00:00,2025-09-15 12:00:00,2025-09-15 20:00:00,6,27.4,73,22.1,30.3,,0.0,0.0,0.0,0.0,0.0,3.0,1010.4,1005.1,100.0,5.0,100.0,100.0,24140.0,0.0,0.05,0.98
single_runs_api,gfs_global,2025-09-15 12:00:00,2025-09-15 20:00:00,2025-09-15 13:00:00,2025-09-15 21:00:00,1,27.2,75,22.4,30.6,,0.0,0.0,0.0,0.0,0.0,3.0,1010.8,1005.5,100.0,0.0,100.0,100.0,24140.0,0.0,0.04,0.9
single_runs_api,gfs_global,2025-09-15 12:00:00,2025-09-15 20:00:00,2025-09-15 14:00:00,2025-09-15 22:00:00,2,27.2,76,22.6,30.8,,0.0,0.0,0.0,0.0,0.0,3.0,1011.2,1005.9,100.0,5.0,100.0,100.0,24140.0,0.0,0.04,0.86
single_runs_api,gfs_global,2025-09-15 12:00:00,2025-09-15 20:00:00,2025-09-15 15:00:00,2025-09-15 23:00:00,3,27.1,77,22.7,30.9,,0.0,0.0,0.0,0.0,0.0,3.0,1011.7,1006.4,100.0,5.0,100.0,100.0,24140.0,0.0,0.03,0.82
single_runs_api,gfs_global,2025-09-15 12:00:00,2025-09-15 20:00:00,2025-09-15 16:00:00,2025-09-16 00:00:00,4,27.1,76,22.5,31.1,,0.0,0.0,0.0,0.0,0.0,3.0,1011.4,1006.1,100.0,0.0,100.0,100.0,24140.0,0.0,0.02,0.86
single_runs_api,gfs_global,2025-09-15 12:00:00,2025-09-15 20:00:00,2025-09-15 17:00:00,2025-09-16 01:00:00,5,27.0,77,22.6,31.5,,0.0,0.0,0.0,0.0,0.0,3.0,1010.8,1005.5,100.0,0.0,100.0,100.0,24140.0,0.0,0.01,0.82
single_runs_api,gfs_global,2025-09-15 12:00:00,2025-09-15 20:00:00,2025-09-15 18:00:00,2025-09-16 02:00:00,6,26.9,77,22.5,31.6,,0.0,0.0,0.0,0.0,0.0,3.0,1010.1,1004.8,100.0,0.0,100.0,100.0,24140.0,0.0,0.0,0.81
single_runs_api,gfs_global,2025-09-15 18:00:00,2025-09-16 02:00:00,2025-09-15 19:00:00,2025-09-16 03:00:00,1,26.2,80,22.4,31.0,,0.0,0.0,0.0,0.0,0.0,3.0,1009.9,1004.6,100.0,0.0,93.0,100.0,24140.0,0.0,0.0,0.68
single_runs_api,gfs_global,2025-09-15 18:00:00,2025-09-16 02:00:00,2025-09-15 20:00:00,2025-09-16 04:00:00,2,25.6,83,22.5,30.3,,0.0,0.0,0.0,0.0,0.0,3.0,1009.8,1004.5,98.0,0.0,87.0,85.0,24140.0,0.0,0.0,0.56
single_runs_api,gfs_global,2025-09-15 18:00:00,2025-09-16 02:00:00,2025-09-15 21:00:00,2025-09-16 05:00:00,3,25.5,84,22.6,30.3,,0.0,0.0,0.0,0.0,0.0,3.0,1009.9,1004.6,97.0,0.0,96.0,14.0,24140.0,0.0,0.0,0.52
single_runs_api,gfs_global,2025-09-15 18:00:00,2025-09-16 02:00:00,2025-09-15 22:00:00,2025-09-16 06:00:00,4,25.6,84,22.7,30.6,,0.0,0.0,0.0,0.0,0.0,3.0,1010.0,1004.7,100.0,0.0,100.0,100.0,24140.0,0.0,0.0,0.52
single_runs_api,gfs_global,2025-09-15 18:00:00,2025-09-16 02:00:00,2025-09-15 23:00:00,2025-09-16 07:00:00,5,25.8,83,22.7,30.9,,0.0,0.0,0.0,0.0,0.0,3.0,1010.5,1005.2,100.0,71.0,100.0,100.0,24140.0,0.0,0.01,0.56
single_runs_api,gfs_global,2025-09-15 18:00:00,2025-09-16 02:00:00,2025-09-16 00:00:00,2025-09-16 08:00:00,6,26.1,82,22.8,31.3,,0.0,0.0,0.0,0.0,0.0,3.0,1011.2,1005.9,100.0,69.0,100.0,100.0,24140.0,0.0,0.02,0.61
single_runs_api,gfs_global,2025-09-16 00:00:00,2025-09-16 08:00:00,2025-09-16 01:00:00,2025-09-16 09:00:00,1,26.7,81,23.1,31.5,,0.0,0.0,0.0,0.0,0.0,3.0,1011.5,1006.2,100.0,0.0,5.0,100.0,24140.0,0.0,0.14,0.66
single_runs_api,gfs_global,2025-09-16 00:00:00,2025-09-16 08:00:00,2025-09-16 02:00:00,2025-09-16 10:00:00,2,27.8,76,23.1,32.2,,0.0,0.0,0.0,0.0,0.0,3.0,1012.0,1006.7,100.0,0.0,63.0,100.0,24140.0,0.0,0.26,0.89
single_runs_api,gfs_global,2025-09-16 00:00:00,2025-09-16 08:00:00,2025-09-16 03:00:00,2025-09-16 11:00:00,3,28.7,70,22.7,32.7,,0.0,0.0,0.0,0.0,0.0,3.0,1011.8,1006.5,100.0,0.0,82.0,100.0,24140.0,0.0,0.34,1.18
single_runs_api,gfs_global,2025-09-16 00:00:00,2025-09-16 08:00:00,2025-09-16 04:00:00,2025-09-16 12:00:00,4,29.2,67,22.4,33.0,,0.1,0.0,0.1,0.0,0.0,51.0,1011.2,1006.0,100.0,0.0,53.0,100.0,24140.0,0.0,0.44,1.33
single_runs_api,gfs_global,2025-09-16 00:00:00,2025-09-16 08:00:00,2025-09-16 05:00:00,2025-09-16 13:00:00,5,29.6,64,22.0,33.5,,0.0,0.0,0.0,0.0,0.0,3.0,1010.3,1005.1,100.0,0.0,73.0,100.0,24140.0,0.0,0.52,1.49
single_runs_api,gfs_global,2025-09-16 00:00:00,2025-09-16 08:00:00,2025-09-16 06:00:00,2025-09-16 14:00:00,6,30.0,63,22.2,34.5,,0.0,0.0,0.0,0.0,0.0,3.0,1009.4,1004.2,100.0,0.0,93.0,100.0,24140.0,0.0,0.59,1.57
single_runs_api,gfs_global,2025-09-16 06:00:00,2025-09-16 14:00:00,2025-09-16 07:00:00,2025-09-16 15:00:00,1,30.2,63,22.3,34.4,,0.0,0.0,0.0,0.0,0.0,3.0,1008.6,1003.4,100.0,0.0,100.0,100.0,24140.0,0.0,0.57,1.58
single_runs_api,gfs_global,2025-09-16 06:00:00,2025-09-16 14:00:00,2025-09-16 08:00:00,2025-09-16 16:00:00,2,29.6,65,22.3,32.7,,0.0,0.0,0.0,0.0,0.0,3.0,1007.9,1002.7,100.0,0.0,100.0,71.0,24140.0,0.0,0.44,1.45
single_runs_api,gfs_global,2025-09-16 06:00:00,2025-09-16 14:00:00,2025-09-16 09:00:00,2025-09-16 17:00:00,3,29.0,69,22.7,32.3,,0.0,0.0,0.0,0.0,0.0,3.0,1007.9,1002.7,100.0,0.0,100.0,57.0,24140.0,0.0,0.26,1.24
single_runs_api,gfs_global,2025-09-16 06:00:00,2025-09-16 14:00:00,2025-09-16 10:00:00,2025-09-16 18:00:00,4,28.2,71,22.4,31.4,,0.0,0.0,0.0,0.0,0.0,3.0,1008.1,1002.9,100.0,5.0,100.0,100.0,24140.0,0.0,0.11,1.11
single_runs_api,gfs_global,2025-09-16 06:00:00,2025-09-16 14:00:00,2025-09-16 11:00:00,2025-09-16 19:00:00,5,28.2,72,22.6,31.4,,0.0,0.0,0.0,0.0,0.0,3.0,1008.9,1003.7,100.0,5.0,100.0,100.0,24140.0,0.0,0.09,1.07
single_runs_api,gfs_global,2025-09-16 06:00:00,2025-09-16 14:00:00,2025-09-16 12:00:00,2025-09-16 20:00:00,6,27.8,73,22.5,30.6,,0.0,0.0,0.0,0.0,0.0,3.0,1009.7,1004.4,100.0,0.0,75.0,100.0,24140.0,0.0,0.06,1.01
single_runs_api,gfs_global,2025-09-16 12:00:00,2025-09-16 20:00:00,2025-09-16 13:00:00,2025-09-16 21:00:00,1,27.2,77,22.8,30.6,,0.3,0.0,0.3,0.0,0.0,51.0,1010.6,1005.3,100.0,0.0,5.0,100.0,24140.0,0.0,0.04,0.83
single_runs_api,gfs_global,2025-09-16 12:00:00,2025-09-16 20:00:00,2025-09-16 14:00:00,2025-09-16 22:00:00,2,27.1,78,22.9,30.6,,0.3,0.0,0.3,0.0,0.0,51.0,1011.2,1005.9,28.0,0.0,5.0,19.0,24140.0,0.0,0.04,0.79
single_runs_api,gfs_global,2025-09-16 12:00:00,2025-09-16 20:00:00,2025-09-16 15:00:00,2025-09-16 23:00:00,3,26.3,83,23.1,30.0,,2.0,0.0,2.0,0.0,0.0,80.0,1011.5,1006.2,22.0,0.0,5.0,14.0,24140.0,0.0,0.02,0.58
single_runs_api,gfs_global,2025-09-16 12:00:00,2025-09-16 20:00:00,2025-09-16 16:00:00,2025-09-17 00:00:00,4,26.7,81,23.1,30.4,,0.3,0.0,0.3,0.0,0.0,51.0,1011.2,1005.9,100.0,0.0,5.0,100.0,24140.0,0.0,0.03,0.66
single_runs_api,gfs_global,2025-09-16 12:00:00,2025-09-16 20:00:00,2025-09-16 17:00:00,2025-09-17 01:00:00,5,26.5,82,23.1,30.3,,0.4,0.0,0.4,0.0,0.0,51.0,1010.7,1005.4,100.0,0.0,5.0,100.0,24140.0,0.0,0.03,0.62
single_runs_api,gfs_global,2025-09-16 12:00:00,2025-09-16 20:00:00,2025-09-16 18:00:00,2025-09-17 02:00:00,6,25.8,85,23.1,29.8,,2.2,0.0,2.2,0.0,0.0,80.0,1010.1,1004.8,100.0,0.0,5.0,100.0,3920.0,0.0,0.01,0.5
single_runs_api,gfs_global,2025-09-16 18:00:00,2025-09-17 02:00:00,2025-09-16 19:00:00,2025-09-17 03:00:00,1,25.8,82,22.5,29.3,,1.8,0.0,1.8,0.0,0.0,80.0,1009.8,1004.5,100.0,0.0,57.0,100.0,24140.0,0.0,0.02,0.6
single_runs_api,gfs_global,2025-09-16 18:00:00,2025-09-17 02:00:00,2025-09-16 20:00:00,2025-09-17 04:00:00,2,25.6,82,22.3,29.1,,0.4,0.0,0.4,0.0,0.0,51.0,1009.7,1004.4,100.0,0.0,100.0,100.0,24140.0,0.0,0.02,0.59
single_runs_api,gfs_global,2025-09-16 18:00:00,2025-09-17 02:00:00,2025-09-16 21:00:00,2025-09-17 05:00:00,3,24.9,86,22.4,28.2,,1.6,0.0,1.6,0.0,0.0,80.0,1010.1,1004.8,100.0,10.0,71.0,100.0,9700.0,0.0,0.02,0.44
single_runs_api,gfs_global,2025-09-16 18:00:00,2025-09-17 02:00:00,2025-09-16 22:00:00,2025-09-17 06:00:00,4,24.5,88,22.3,27.7,,2.1,0.0,2.1,0.0,0.0,80.0,1010.5,1005.2,100.0,31.0,95.0,100.0,24140.0,0.0,0.01,0.37
single_runs_api,gfs_global,2025-09-16 18:00:00,2025-09-17 02:00:00,2025-09-16 23:00:00,2025-09-17 07:00:00,5,23.9,92,22.5,27.2,,0.3,0.0,0.3,0.0,0.0,51.0,1011.1,1005.8,100.0,100.0,70.0,100.0,24140.0,0.0,0.02,0.24
single_runs_api,gfs_global,2025-09-16 18:00:00,2025-09-17 02:00:00,2025-09-17 00:00:00,2025-09-17 08:00:00,6,23.7,89,21.7,26.5,,0.1,0.0,0.1,0.0,0.0,51.0,1011.9,1006.6,100.0,100.0,86.0,100.0,24140.0,0.0,0.04,0.32
single_runs_api,gfs_global,2025-09-17 00:00:00,2025-09-17 08:00:00,2025-09-17 01:00:00,2025-09-17 09:00:00,1,24.4,83,21.3,27.2,,0.0,0.0,0.0,0.0,0.0,3.0,1012.6,1007.3,100.0,100.0,83.0,100.0,24140.0,0.0,0.09,0.52
single_runs_api,gfs_global,2025-09-17 00:00:00,2025-09-17 08:00:00,2025-09-17 02:00:00,2025-09-17 10:00:00,2,25.8,77,21.4,28.4,,0.0,0.0,0.0,0.0,0.0,3.0,1013.1,1007.8,100.0,52.0,68.0,100.0,24140.0,0.0,0.22,0.76
single_runs_api,gfs_global,2025-09-17 00:00:00,2025-09-17 08:00:00,2025-09-17 03:00:00,2025-09-17 11:00:00,3,26.5,75,21.7,29.9,,0.0,0.0,0.0,0.0,0.0,3.0,1012.7,1007.4,100.0,30.0,95.0,100.0,24140.0,0.0,0.24,0.86
single_runs_api,gfs_global,2025-09-17 00:00:00,2025-09-17 08:00:00,2025-09-17 04:00:00,2025-09-17 12:00:00,4,27.4,70,21.4,31.1,,0.0,0.0,0.0,0.0,0.0,3.0,1011.9,1006.6,98.0,24.0,89.0,90.0,24140.0,0.0,0.36,1.09
single_runs_api,gfs_global,2025-09-17 00:00:00,2025-09-17 08:00:00,2025-09-17 05:00:00,2025-09-17 13:00:00,5,27.4,70,21.4,30.9,,0.0,0.0,0.0,0.0,0.0,3.0,1010.9,1005.6,100.0,50.0,100.0,88.0,24140.0,0.0,0.26,1.09
single_runs_api,gfs_global,2025-09-17 00:00:00,2025-09-17 08:00:00,2025-09-17 06:00:00,2025-09-17 14:00:00,6,26.9,73,21.6,30.0,,0.0,0.0,0.0,0.0,0.0,3.0,1009.4,1004.1,100.0,5.0,100.0,91.0,24140.0,0.0,0.17,0.95
single_runs_api,gfs_global,2025-09-17 06:00:00,2025-09-17 14:00:00,2025-09-17 07:00:00,2025-09-17 15:00:00,1,26.8,77,22.4,29.4,,0.0,0.0,0.0,0.0,0.0,3.0,1008.4,1003.1,100.0,5.0,100.0,98.0,24140.0,0.0,0.16,0.81
single_runs_api,gfs_global,2025-09-17 06:00:00,2025-09-17 14:00:00,2025-09-17 08:00:00,2025-09-17 16:00:00,2,26.5,78,22.3,28.7,,0.0,0.0,0.0,0.0,0.0,3.0,1008.4,1003.1,100.0,5.0,100.0,100.0,24140.0,0.0,0.14,0.76
single_runs_api,gfs_global,2025-09-17 06:00:00,2025-09-17 14:00:00,2025-09-17 09:00:00,2025-09-17 17:00:00,3,26.3,79,22.3,29.2,,0.0,0.0,0.0,0.0,0.0,3.0,1008.4,1003.1,100.0,5.0,100.0,100.0,24140.0,0.0,0.11,0.72
single_runs_api,gfs_global,2025-09-17 06:00:00,2025-09-17 14:00:00,2025-09-17 10:00:00,2025-09-17 18:00:00,4,26.2,80,22.4,29.7,,0.0,0.0,0.0,0.0,0.0,3.0,1008.7,1003.4,100.0,14.0,100.0,100.0,24140.0,0.0,0.07,0.68
single_runs_api,gfs_global,2025-09-17 06:00:00,2025-09-17 14:00:00,2025-09-17 11:00:00,2025-09-17 19:00:00,5,26.3,80,22.5,29.5,,0.0,0.0,0.0,0.0,0.0,3.0,1009.1,1003.8,100.0,17.0,100.0,100.0,24140.0,0.0,0.06,0.68
single_runs_api,gfs_global,2025-09-17 06:00:00,2025-09-17 14:00:00,2025-09-17 12:00:00,2025-09-17 20:00:00,6,26.3,80,22.5,29.5,,0.0,0.0,0.0,0.0,0.0,3.0,1009.6,1004.3,100.0,9.0,100.0,100.0,24140.0,0.0,0.04,0.68
single_runs_api,gfs_global,2025-09-17 12:00:00,2025-09-17 20:00:00,2025-09-17 13:00:00,2025-09-17 21:00:00,1,26.6,79,22.6,29.8,,0.0,0.0,0.0,0.0,0.0,3.0,1010.4,1005.1,100.0,41.0,83.0,100.0,24140.0,0.0,0.04,0.73
single_runs_api,gfs_global,2025-09-17 12:00:00,2025-09-17 20:00:00,2025-09-17 14:00:00,2025-09-17 22:00:00,2,26.7,79,22.7,30.1,,0.0,0.0,0.0,0.0,0.0,3.0,1011.2,1005.9,100.0,39.0,100.0,61.0,24140.0,0.0,0.04,0.73
single_runs_api,gfs_global,2025-09-17 12:00:00,2025-09-17 20:00:00,2025-09-17 15:00:00,2025-09-17 23:00:00,3,26.7,78,22.5,29.7,,0.0,0.0,0.0,0.0,0.0,3.0,1011.1,1005.8,100.0,36.0,100.0,100.0,24140.0,0.0,0.04,0.77
single_runs_api,gfs_global,2025-09-17 12:00:00,2025-09-17 20:00:00,2025-09-17 16:00:00,2025-09-18 00:00:00,4,26.6,78,22.4,30.0,,0.0,0.0,0.0,0.0,0.0,3.0,1011.2,1005.9,100.0,0.0,88.0,100.0,24140.0,0.0,0.03,0.76
single_runs_api,gfs_global,2025-09-17 12:00:00,2025-09-17 20:00:00,2025-09-17 17:00:00,2025-09-18 01:00:00,5,26.2,80,22.4,29.9,,0.0,0.0,0.0,0.0,0.0,3.0,1010.5,1005.2,81.0,0.0,76.0,52.0,24140.0,0.0,0.02,0.68
single_runs_api,gfs_global,2025-09-17 12:00:00,2025-09-17 20:00:00,2025-09-17 18:00:00,2025-09-18 02:00:00,6,26.2,80,22.4,29.8,,0.0,0.0,0.0,0.0,0.0,3.0,1009.6,1004.3,95.0,26.0,87.0,69.0,24140.0,0.0,0.02,0.68
single_runs_api,gfs_global,2025-09-17 18:00:00,2025-09-18 02:00:00,2025-09-17 19:00:00,2025-09-18 03:00:00,1,26.4,82,23.0,30.3,,0.0,0.0,0.0,0.0,0.0,3.0,1009.7,1004.4,100.0,40.0,100.0,100.0,24140.0,0.0,0.02,0.62
single_runs_api,gfs_global,2025-09-17 18:00:00,2025-09-18 02:00:00,2025-09-17 20:00:00,2025-09-18 04:00:00,2,26.3,84,23.3,30.1,,0.0,0.0,0.0,0.0,0.0,3.0,1009.3,1004.0,100.0,38.0,100.0,100.0,24140.0,0.0,0.02,0.55
single_runs_api,gfs_global,2025-09-17 18:00:00,2025-09-18 02:00:00,2025-09-17 21:00:00,2025-09-18 05:00:00,3,26.0,85,23.3,29.6,,0.0,0.0,0.0,0.0,0.0,3.0,1009.2,1003.9,100.0,5.0,62.0,100.0,21960.0,0.0,0.02,0.5
single_runs_api,gfs_global,2025-09-17 18:00:00,2025-09-18 02:00:00,2025-09-17 22:00:00,2025-09-18 06:00:00,4,26.0,84,23.1,29.4,,0.0,0.0,0.0,0.0,0.0,3.0,1009.3,1004.0,100.0,10.0,22.0,100.0,24140.0,0.0,0.03,0.54
single_runs_api,gfs_global,2025-09-17 18:00:00,2025-09-18 02:00:00,2025-09-17 23:00:00,2025-09-18 07:00:00,5,26.1,84,23.2,29.4,,0.0,0.0,0.0,0.0,0.0,3.0,1009.6,1004.3,100.0,0.0,52.0,100.0,24140.0,0.0,0.05,0.54
single_runs_api,gfs_global,2025-09-17 18:00:00,2025-09-18 02:00:00,2025-09-18 00:00:00,2025-09-18 08:00:00,6,26.7,82,23.3,30.4,,0.0,0.0,0.0,0.0,0.0,3.0,1010.2,1004.9,100.0,14.0,82.0,100.0,24140.0,0.0,0.07,0.63
single_runs_api,gfs_global,2025-09-18 00:00:00,2025-09-18 08:00:00,2025-09-18 01:00:00,2025-09-18 09:00:00,1,27.8,77,23.4,31.3,,0.0,0.0,0.0,0.0,0.0,3.0,1010.6,1005.3,100.0,3.0,5.0,100.0,24140.0,0.0,0.2,0.86
single_runs_api,gfs_global,2025-09-18 00:00:00,2025-09-18 08:00:00,2025-09-18 02:00:00,2025-09-18 10:00:00,2,28.6,74,23.5,31.9,,0.0,0.0,0.0,0.0,0.0,3.0,1010.9,1005.7,100.0,25.0,5.0,100.0,24140.0,0.0,0.37,1.01
single_runs_api,gfs_global,2025-09-18 00:00:00,2025-09-18 08:00:00,2025-09-18 03:00:00,2025-09-18 11:00:00,3,29.3,72,23.7,33.7,,0.0,0.0,0.0,0.0,0.0,3.0,1010.8,1005.6,100.0,17.0,5.0,100.0,24140.0,0.0,0.48,1.14
single_runs_api,gfs_global,2025-09-18 00:00:00,2025-09-18 08:00:00,2025-09-18 04:00:00,2025-09-18 12:00:00,4,30.1,69,23.8,35.1,,0.0,0.0,0.0,0.0,0.0,3.0,1010.0,1004.8,100.0,43.0,5.0,100.0,24140.0,0.0,0.59,1.32
single_runs_api,gfs_global,2025-09-18 00:00:00,2025-09-18 08:00:00,2025-09-18 05:00:00,2025-09-18 13:00:00,5,29.3,73,23.9,34.0,,1.3,0.0,1.3,0.0,0.0,80.0,1009.2,1004.0,100.0,83.0,10.0,100.0,24140.0,0.0,0.55,1.1
single_runs_api,gfs_global,2025-09-18 00:00:00,2025-09-18 08:00:00,2025-09-18 06:00:00,2025-09-18 14:00:00,6,29.4,73,24.0,34.8,,1.1,0.0,1.1,0.0,0.0,55.0,1008.3,1003.1,100.0,29.0,5.0,100.0,22200.0,0.0,0.61,1.1
single_runs_api,gfs_global,2025-09-18 06:00:00,2025-09-18 14:00:00,2025-09-18 07:00:00,2025-09-18 15:00:00,1,29.4,73,24.0,35.2,,1.4,0.0,1.4,0.0,0.0,80.0,1007.6,1002.4,46.0,32.0,5.0,10.0,15460.0,0.0,0.6,1.1
single_runs_api,gfs_global,2025-09-18 06:00:00,2025-09-18 14:00:00,2025-09-18 08:00:00,2025-09-18 16:00:00,2,29.6,71,23.8,34.7,,0.6,0.0,0.6,0.0,0.0,53.0,1007.1,1001.9,79.0,27.0,5.0,61.0,24140.0,0.0,0.52,1.2
single_runs_api,gfs_global,2025-09-18 06:00:00,2025-09-18 14:00:00,2025-09-18 09:00:00,2025-09-18 17:00:00,3,29.5,70,23.4,33.5,,0.4,0.0,0.4,0.0,0.0,51.0,1007.0,1001.8,30.0,15.0,5.0,10.0,24140.0,0.0,0.4,1.23
single_runs_api,gfs_global,2025-09-18 06:00:00,2025-09-18 14:00:00,2025-09-18 10:00:00,2025-09-18 18:00:00,4,29.1,70,23.0,33.0,,0.1,0.0,0.1,0.0,0.0,51.0,1007.4,1002.2,23.0,0.0,5.0,17.0,24140.0,0.0,0.24,1.21
single_runs_api,gfs_global,2025-09-18 06:00:00,2025-09-18 14:00:00,2025-09-18 11:00:00,2025-09-18 19:00:00,5,28.1,75,23.2,32.2,,0.0,0.0,0.0,0.0,0.0,3.0,1008.1,1002.9,100.0,0.0,5.0,100.0,24140.0,0.0,0.08,0.95
single_runs_api,gfs_global,2025-09-18 06:00:00,2025-09-18 14:00:00,2025-09-18 12:00:00,2025-09-18 20:00:00,6,27.7,77,23.3,31.7,,0.3,0.0,0.3,0.0,0.0,51.0,1009.4,1004.1,65.0,0.0,5.0,62.0,24140.0,0.0,0.04,0.85
single_runs_api,gfs_global,2025-09-18 12:00:00,2025-09-18 20:00:00,2025-09-18 13:00:00,2025-09-18 21:00:00,1,27.6,79,23.6,31.8,,0.1,0.0,0.1,0.0,0.0,51.0,1010.4,1005.1,100.0,0.0,5.0,100.0,24140.0,0.0,0.03,0.77
single_runs_api,gfs_global,2025-09-18 12:00:00,2025-09-18 20:00:00,2025-09-18 14:00:00,2025-09-18 22:00:00,2,27.4,80,23.6,31.5,,0.0,0.0,0.0,0.0,0.0,3.0,1011.0,1005.7,100.0,0.0,5.0,100.0,24140.0,0.0,0.03,0.73
single_runs_api,gfs_global,2025-09-18 12:00:00,2025-09-18 20:00:00,2025-09-18 15:00:00,2025-09-18 23:00:00,3,26.9,82,23.5,30.9,,0.7,0.0,0.7,0.0,0.0,53.0,1011.3,1006.0,100.0,0.0,5.0,100.0,24140.0,0.0,0.03,0.64
single_runs_api,gfs_global,2025-09-18 12:00:00,2025-09-18 20:00:00,2025-09-18 16:00:00,2025-09-19 00:00:00,4,26.8,83,23.6,30.7,,0.1,0.0,0.1,0.0,0.0,51.0,1011.0,1005.7,100.0,0.0,5.0,100.0,24140.0,0.0,0.03,0.6
single_runs_api,gfs_global,2025-09-18 12:00:00,2025-09-18 20:00:00,2025-09-18 17:00:00,2025-09-19 01:00:00,5,26.7,83,23.5,30.7,,0.0,0.0,0.0,0.0,0.0,3.0,1010.2,1004.9,100.0,0.0,5.0,100.0,24140.0,0.0,0.02,0.59
single_runs_api,gfs_global,2025-09-18 12:00:00,2025-09-18 20:00:00,2025-09-18 18:00:00,2025-09-19 02:00:00,6,26.4,84,23.4,30.3,,0.0,0.0,0.0,0.0,0.0,3.0,1009.6,1004.3,100.0,0.0,10.0,100.0,24140.0,0.0,0.02,0.55
single_runs_api,gfs_global,2025-09-18 18:00:00,2025-09-19 02:00:00,2025-09-18 19:00:00,2025-09-19 03:00:00,1,26.5,83,23.3,30.8,,0.1,0.0,0.1,0.0,0.0,51.0,1009.4,1004.1,100.0,0.0,5.0,100.0,24140.0,0.0,0.02,0.59
single_runs_api,gfs_global,2025-09-18 18:00:00,2025-09-19 02:00:00,2025-09-18 20:00:00,2025-09-19 04:00:00,2,26.4,83,23.2,30.6,,0.4,0.0,0.4,0.0,0.0,51.0,1009.4,1004.1,100.0,0.0,5.0,100.0,20220.0,0.0,0.02,0.58
single_runs_api,gfs_global,2025-09-18 18:00:00,2025-09-19 02:00:00,2025-09-18 21:00:00,2025-09-19 05:00:00,3,26.3,83,23.1,30.6,,0.0,0.0,0.0,0.0,0.0,3.0,1009.6,1004.3,100.0,0.0,5.0,100.0,24140.0,0.0,0.01,0.58
single_runs_api,gfs_global,2025-09-18 18:00:00,2025-09-19 02:00:00,2025-09-18 22:00:00,2025-09-19 06:00:00,4,26.1,82,22.8,30.4,,0.3,0.0,0.3,0.0,0.0,51.0,1009.9,1004.6,100.0,0.0,5.0,100.0,19360.0,0.0,0.01,0.61
single_runs_api,gfs_global,2025-09-18 18:00:00,2025-09-19 02:00:00,2025-09-18 23:00:00,2025-09-19 07:00:00,5,26.0,81,22.5,30.5,,0.7,0.0,0.7,0.0,0.0,53.0,1010.5,1005.2,100.0,0.0,5.0,100.0,24140.0,0.0,0.03,0.64
single_runs_api,gfs_global,2025-09-18 18:00:00,2025-09-19 02:00:00,2025-09-19 00:00:00,2025-09-19 08:00:00,6,27.1,78,22.9,31.7,,0.0,0.0,0.0,0.0,0.0,3.0,1011.3,1006.0,100.0,0.0,82.0,100.0,24140.0,0.0,0.06,0.79
single_runs_api,gfs_global,2025-09-19 00:00:00,2025-09-19 08:00:00,2025-09-19 01:00:00,2025-09-19 09:00:00,1,27.9,76,23.2,32.4,,0.3,0.0,0.3,0.0,0.0,51.0,1011.9,1006.6,100.0,0.0,5.0,100.0,24140.0,0.0,0.16,0.9
single_runs_api,gfs_global,2025-09-19 00:00:00,2025-09-19 08:00:00,2025-09-19 02:00:00,2025-09-19 10:00:00,2,28.7,71,22.9,32.9,,0.0,0.0,0.0,0.0,0.0,3.0,1012.2,1006.9,100.0,0.0,10.0,100.0,24140.0,0.0,0.3,1.14
single_runs_api,gfs_global,2025-09-19 00:00:00,2025-09-19 08:00:00,2025-09-19 03:00:00,2025-09-19 11:00:00,3,29.6,67,22.8,33.9,,0.0,0.0,0.0,0.0,0.0,3.0,1011.8,1006.6,100.0,0.0,5.0,100.0,24140.0,0.0,0.5,1.36
single_runs_api,gfs_global,2025-09-19 00:00:00,2025-09-19 08:00:00,2025-09-19 04:00:00,2025-09-19 12:00:00,4,30.1,64,22.5,34.9,,0.0,0.0,0.0,0.0,0.0,3.0,1011.1,1005.9,100.0,0.0,5.0,100.0,24140.0,0.0,0.6,1.53
single_runs_api,gfs_global,2025-09-19 00:00:00,2025-09-19 08:00:00,2025-09-19 05:00:00,2025-09-19 13:00:00,5,30.0,66,22.9,34.6,,0.1,0.1,0.0,0.0,0.0,51.0,1010.2,1005.0,100.0,22.0,5.0,100.0,24140.0,0.0,0.6,1.44
single_runs_api,gfs_global,2025-09-19 00:00:00,2025-09-19 08:00:00,2025-09-19 06:00:00,2025-09-19 14:00:00,6,29.4,68,22.8,33.0,,0.1,0.0,0.1,0.0,0.0,51.0,1009.2,1004.0,100.0,20.0,22.0,100.0,23940.0,0.0,0.49,1.31
single_runs_api,gfs_global,2025-09-19 06:00:00,2025-09-19 14:00:00,2025-09-19 07:00:00,2025-09-19 15:00:00,1,29.2,68,22.7,32.6,,0.0,0.0,0.0,0.0,0.0,3.0,1008.5,1003.3,100.0,37.0,10.0,100.0,24140.0,0.0,0.34,1.29
single_runs_api,gfs_global,2025-09-19 06:00:00,2025-09-19 14:00:00,2025-09-19 08:00:00,2025-09-19 16:00:00,2,29.8,66,22.7,34.3,,0.2,0.0,0.2,0.0,0.0,51.0,1008.2,1003.0,100.0,0.0,10.0,100.0,14320.0,0.0,0.5,1.42
single_runs_api,gfs_global,2025-09-19 06:00:00,2025-09-19 14:00:00,2025-09-19 09:00:00,2025-09-19 17:00:00,3,29.6,67,22.8,33.7,,0.5,0.0,0.5,0.0,0.0,53.0,1008.1,1002.9,46.0,35.0,5.0,10.0,18240.0,0.0,0.41,1.36
single_runs_api,gfs_global,2025-09-19 06:00:00,2025-09-19 14:00:00,2025-09-19 10:00:00,2025-09-19 18:00:00,4,29.2,68,22.7,33.4,,0.2,0.0,0.2,0.0,0.0,51.0,1008.4,1003.2,75.0,33.0,5.0,61.0,20440.0,0.0,0.23,1.29
single_runs_api,gfs_global,2025-09-19 06:00:00,2025-09-19 14:00:00,2025-09-19 11:00:00,2025-09-19 19:00:00,5,28.3,72,22.7,32.8,,0.1,0.0,0.1,0.0,0.0,51.0,1009.0,1003.8,37.0,20.0,5.0,15.0,24140.0,0.0,0.07,1.07
single_runs_api,gfs_global,2025-09-19 06:00:00,2025-09-19 14:00:00,2025-09-19 12:00:00,2025-09-19 20:00:00,6,28.0,73,22.7,32.5,,0.0,0.0,0.0,0.0,0.0,0.0,1009.8,1004.5,11.0,0.0,5.0,10.0,24140.0,0.0,0.01,1.02
single_runs_api,gfs_global,2025-09-19 12:00:00,2025-09-19 20:00:00,2025-09-19 13:00:00,2025-09-19 21:00:00,1,27.9,76,23.2,33.0,,0.0,0.0,0.0,0.0,0.0,2.0,1010.2,1004.9,51.0,0.0,5.0,43.0,24140.0,0.0,0.0,0.9
single_runs_api,gfs_global,2025-09-19 12:00:00,2025-09-19 20:00:00,2025-09-19 14:00:00,2025-09-19 22:00:00,2,27.7,77,23.3,32.9,,0.0,0.0,0.0,0.0,0.0,1.0,1010.7,1005.4,43.0,0.0,5.0,39.0,24140.0,0.0,0.0,0.85
single_runs_api,gfs_global,2025-09-19 12:00:00,2025-09-19 20:00:00,2025-09-19 15:00:00,2025-09-19 23:00:00,3,27.4,80,23.6,32.7,,0.0,0.0,0.0,0.0,0.0,3.0,1011.1,1005.8,100.0,0.0,5.0,100.0,24140.0,0.0,0.0,0.73
single_runs_api,gfs_global,2025-09-19 12:00:00,2025-09-19 20:00:00,2025-09-19 16:00:00,2025-09-20 00:00:00,4,27.2,80,23.4,32.6,,0.0,0.0,0.0,0.0,0.0,2.0,1011.0,1005.7,50.0,0.0,5.0,47.0,24140.0,0.0,0.0,0.72
single_runs_api,gfs_global,2025-09-19 12:00:00,2025-09-19 20:00:00,2025-09-19 17:00:00,2025-09-20 01:00:00,5,26.9,81,23.3,32.3,,0.0,0.0,0.0,0.0,0.0,0.0,1010.5,1005.2,12.0,0.0,5.0,6.0,24140.0,0.0,0.0,0.67
single_runs_api,gfs_global,2025-09-19 12:00:00,2025-09-19 20:00:00,2025-09-19 18:00:00,2025-09-20 02:00:00,6,26.7,82,23.3,32.2,,0.0,0.0,0.0,0.0,0.0,0.0,1009.7,1004.4,15.0,0.0,10.0,5.0,24140.0,0.0,0.0,0.63
single_runs_api,gfs_global,2025-09-19 18:00:00,2025-09-20 02:00:00,2025-09-19 19:00:00,2025-09-20 03:00:00,1,26.1,87,23.7,31.2,,0.2,0.0,0.2,0.0,0.0,51.0,1009.3,1004.0,15.0,0.0,10.0,5.0,14380.0,0.0,0.0,0.44
single_runs_api,gfs_global,2025-09-19 18:00:00,2025-09-20 02:00:00,2025-09-19 20:00:00,2025-09-20 04:00:00,2,25.4,90,23.6,30.5,,1.3,0.0,1.3,0.0,0.0,80.0,1009.2,1003.9,24.0,0.0,10.0,14.0,19280.0,0.0,0.0,0.32
single_runs_api,gfs_global,2025-09-19 18:00:00,2025-09-20 02:00:00,2025-09-19 21:00:00,2025-09-20 05:00:00,3,25.4,89,23.4,30.7,,0.9,0.0,0.9,0.0,0.0,53.0,1009.6,1004.3,35.0,0.0,5.0,28.0,24140.0,0.0,0.0,0.36
single_runs_api,gfs_global,2025-09-19 18:00:00,2025-09-20 02:00:00,2025-09-19 22:00:00,2025-09-20 06:00:00,4,25.5,87,23.1,30.7,,0.3,0.0,0.3,0.0,0.0,51.0,1010.2,1004.9,13.0,0.0,5.0,5.0,24140.0,0.0,0.0,0.42
single_runs_api,gfs_global,2025-09-19 18:00:00,2025-09-20 02:00:00,2025-09-19 23:00:00,2025-09-20 07:00:00,5,25.6,86,23.1,30.8,,0.4,0.0,0.4,0.0,0.0,51.0,1010.9,1005.6,15.0,0.0,5.0,5.0,24140.0,0.0,0.02,0.46
single_runs_api,gfs_global,2025-09-19 18:00:00,2025-09-20 02:00:00,2025-09-20 00:00:00,2025-09-20 08:00:00,6,26.6,81,23.1,31.8,,0.0,0.0,0.1,0.0,0.0,3.0,1011.6,1006.3,100.0,0.0,5.0,100.0,24140.0,0.0,0.05,0.66
single_runs_api,gfs_global,2025-09-20 00:00:00,2025-09-20 08:00:00,2025-09-20 01:00:00,2025-09-20 09:00:00,1,28.0,74,22.9,32.8,,0.3,0.0,0.3,0.0,0.0,51.0,1011.8,1006.5,100.0,0.0,5.0,100.0,24140.0,0.0,0.19,0.98
single_runs_api,gfs_global,2025-09-20 00:00:00,2025-09-20 08:00:00,2025-09-20 02:00:00,2025-09-20 10:00:00,2,29.0,67,22.3,33.2,,0.0,0.0,0.0,0.0,0.0,3.0,1012.0,1006.8,100.0,0.0,5.0,100.0,24140.0,0.0,0.35,1.32
single_runs_api,gfs_global,2025-09-20 00:00:00,2025-09-20 08:00:00,2025-09-20 03:00:00,2025-09-20 11:00:00,3,30.0,61,21.6,34.7,,0.0,0.0,0.0,0.0,0.0,3.0,1011.5,1006.3,100.0,0.0,5.0,100.0,24140.0,0.0,0.52,1.65
single_runs_api,gfs_global,2025-09-20 00:00:00,2025-09-20 08:00:00,2025-09-20 04:00:00,2025-09-20 12:00:00,4,30.9,58,21.6,36.4,,0.0,0.0,0.0,0.0,0.0,3.0,1010.9,1005.7,100.0,0.0,5.0,100.0,24140.0,0.0,0.63,1.87
single_runs_api,gfs_global,2025-09-20 00:00:00,2025-09-20 08:00:00,2025-09-20 05:00:00,2025-09-20 13:00:00,5,31.3,56,21.5,36.7,,0.0,0.0,0.0,0.0,0.0,3.0,1009.8,1004.6,100.0,11.0,5.0,100.0,16360.0,0.0,0.7,2.01
single_runs_api,gfs_global,2025-09-20 00:00:00,2025-09-20 08:00:00,2025-09-20 06:00:00,2025-09-20 14:00:00,6,31.5,55,21.4,36.7,,0.0,0.0,0.0,0.0,0.0,3.0,1009.0,1003.8,100.0,47.0,0.0,100.0,11080.0,0.0,0.72,2.08
single_runs_api,gfs_global,2025-09-20 06:00:00,2025-09-20 14:00:00,2025-09-20 07:00:00,2025-09-20 15:00:00,1,30.2,61,21.9,33.8,,0.1,0.0,0.1,0.0,0.0,51.0,1008.3,1003.1,100.0,100.0,0.0,100.0,8100.0,0.0,0.49,1.67
single_runs_api,gfs_global,2025-09-20 06:00:00,2025-09-20 14:00:00,2025-09-20 08:00:00,2025-09-20 16:00:00,2,30.2,62,22.1,34.6,,0.3,0.0,0.3,0.0,0.0,51.0,1008.1,1002.9,100.0,58.0,0.0,100.0,9560.0,0.0,0.5,1.63
single_runs_api,gfs_global,2025-09-20 06:00:00,2025-09-20 14:00:00,2025-09-20 09:00:00,2025-09-20 17:00:00,3,30.0,62,21.9,33.8,,0.3,0.0,0.3,0.0,0.0,51.0,1008.0,1002.8,62.0,18.0,0.0,54.0,20600.0,0.0,0.37,1.61
single_runs_api,gfs_global,2025-09-20 06:00:00,2025-09-20 14:00:00,2025-09-20 10:00:00,2025-09-20 18:00:00,4,29.9,62,21.8,33.8,,0.1,0.0,0.1,0.0,0.0,51.0,1008.3,1003.1,44.0,36.0,0.0,10.0,24140.0,0.0,0.23,1.6
single_runs_api,gfs_global,2025-09-20 06:00:00,2025-09-20 14:00:00,2025-09-20 11:00:00,2025-09-20 19:00:00,5,28.8,67,22.0,32.5,,0.0,0.0,0.0,0.0,0.0,3.0,1009.0,1003.8,82.0,36.0,0.0,69.0,22360.0,0.0,0.08,1.3
single_runs_api,gfs_global,2025-09-20 06:00:00,2025-09-20 14:00:00,2025-09-20 12:00:00,2025-09-20 20:00:00,6,28.1,70,22.1,31.7,,0.0,0.0,0.0,0.0,0.0,0.0,1009.7,1004.4,11.0,0.0,5.0,10.0,24140.0,0.0,0.04,1.14
single_runs_api,gfs_global,2025-09-20 12:00:00,2025-09-20 20:00:00,2025-09-20 13:00:00,2025-09-20 21:00:00,1,27.9,73,22.6,32.0,,0.0,0.0,0.0,0.0,0.0,0.0,1010.3,1005.0,10.0,0.0,5.0,5.0,24140.0,0.0,0.03,1.01
single_runs_api,gfs_global,2025-09-20 12:00:00,2025-09-20 20:00:00,2025-09-20 14:00:00,2025-09-20 22:00:00,2,27.7,74,22.6,31.9,,0.0,0.0,0.0,0.0,0.0,1.0,1010.9,1005.6,21.0,0.0,10.0,14.0,24140.0,0.0,0.02,0.96
single_runs_api,gfs_global,2025-09-20 12:00:00,2025-09-20 20:00:00,2025-09-20 15:00:00,2025-09-20 23:00:00,3,27.5,75,22.6,31.8,,0.0,0.0,0.0,0.0,0.0,0.0,1011.0,1005.7,16.0,0.0,5.0,14.0,24140.0,0.0,0.02,0.92
single_runs_api,gfs_global,2025-09-20 12:00:00,2025-09-20 20:00:00,2025-09-20 16:00:00,2025-09-21 00:00:00,4,27.4,76,22.8,31.9,,0.0,0.0,0.0,0.0,0.0,2.0,1011.0,1005.7,75.0,0.0,5.0,75.0,24140.0,0.0,0.01,0.87
single_runs_api,gfs_global,2025-09-20 12:00:00,2025-09-20 20:00:00,2025-09-20 17:00:00,2025-09-21 01:00:00,5,27.2,77,22.8,31.9,,0.0,0.0,0.0,0.0,0.0,3.0,1010.6,1005.3,84.0,0.0,83.0,5.0,24140.0,0.0,0.0,0.83
single_runs_api,gfs_global,2025-09-20 12:00:00,2025-09-20 20:00:00,2025-09-20 18:00:00,2025-09-21 02:00:00,6,27.0,78,22.8,32.1,,0.0,0.0,0.0,0.0,0.0,2.0,1009.7,1004.4,57.0,0.0,58.0,0.0,24140.0,0.0,0.0,0.78
single_runs_api,gfs_global,2025-09-20 18:00:00,2025-09-21 02:00:00,2025-09-20 19:00:00,2025-09-21 03:00:00,1,26.7,80,22.9,31.9,,0.0,0.0,0.0,0.0,0.0,2.0,1009.1,1003.8,69.0,0.0,61.0,40.0,24140.0,0.0,0.0,0.7
single_runs_api,gfs_global,2025-09-20 18:00:00,2025-09-21 02:00:00,2025-09-20 20:00:00,2025-09-21 04:00:00,2,26.5,81,22.9,31.6,,0.0,0.0,0.0,0.0,0.0,0.0,1008.9,1003.6,16.0,0.0,10.0,5.0,24140.0,0.0,0.0,0.66
single_runs_api,gfs_global,2025-09-20 18:00:00,2025-09-21 02:00:00,2025-09-20 21:00:00,2025-09-21 05:00:00,3,26.1,84,23.2,31.1,,0.3,0.0,0.3,0.0,0.0,51.0,1009.3,1004.0,69.0,0.0,5.0,66.0,24140.0,0.0,0.0,0.54
single_runs_api,gfs_global,2025-09-20 18:00:00,2025-09-21 02:00:00,2025-09-20 22:00:00,2025-09-21 06:00:00,4,26.1,84,23.2,31.1,,0.0,0.0,0.0,0.0,0.0,1.0,1009.8,1004.5,31.0,0.0,5.0,22.0,24140.0,0.0,0.0,0.54
single_runs_api,gfs_global,2025-09-20 18:00:00,2025-09-21 02:00:00,2025-09-20 23:00:00,2025-09-21 07:00:00,5,26.2,84,23.3,31.1,,0.0,0.0,0.0,0.0,0.0,3.0,1010.5,1005.2,100.0,0.0,100.0,37.0,24140.0,0.0,0.02,0.54
single_runs_api,gfs_global,2025-09-20 18:00:00,2025-09-21 02:00:00,2025-09-21 00:00:00,2025-09-21 08:00:00,6,27.2,80,23.4,32.3,,0.0,0.0,0.0,0.0,0.0,0.0,1011.2,1005.9,15.0,0.0,5.0,5.0,24140.0,0.0,0.06,0.72
single_runs_api,gfs_global,2025-09-21 00:00:00,2025-09-21 08:00:00,2025-09-21 01:00:00,2025-09-21 09:00:00,1,28.4,75,23.6,33.2,,0.3,0.0,0.3,0.0,0.0,51.0,1011.6,1006.3,26.0,0.0,5.0,18.0,24140.0,0.0,0.24,0.97
single_runs_api,gfs_global,2025-09-21 00:00:00,2025-09-21 08:00:00,2025-09-21 02:00:00,2025-09-21 10:00:00,2,29.5,69,23.2,33.8,,0.1,0.0,0.1,0.0,0.0,51.0,1011.7,1006.5,16.0,0.0,10.0,5.0,24140.0,0.0,0.42,1.27
single_runs_api,gfs_global,2025-09-21 00:00:00,2025-09-21 08:00:00,2025-09-21 03:00:00,2025-09-21 11:00:00,3,30.3,64,22.7,35.6,,0.0,0.0,0.0,0.0,0.0,1.0,1011.5,1006.3,24.0,0.0,10.0,14.0,24140.0,0.0,0.57,1.55
single_runs_api,gfs_global,2025-09-21 00:00:00,2025-09-21 08:00:00,2025-09-21 04:00:00,2025-09-21 12:00:00,4,30.9,61,22.5,36.8,,0.2,0.0,0.2,0.0,0.0,51.0,1010.8,1005.6,26.0,8.0,10.0,10.0,24140.0,0.0,0.68,1.74
single_runs_api,gfs_global,2025-09-21 00:00:00,2025-09-21 08:00:00,2025-09-21 05:00:00,2025-09-21 13:00:00,5,31.1,60,22.4,36.9,,0.3,0.0,0.3,0.0,0.0,51.0,1009.8,1004.6,32.0,14.0,10.0,10.0,8100.0,0.0,0.74,1.81
single_runs_api,gfs_global,2025-09-21 00:00:00,2025-09-21 08:00:00,2025-09-21 06:00:00,2025-09-21 14:00:00,6,31.3,60,22.6,37.0,,0.0,0.0,0.0,0.0,0.0,1.0,1008.8,1003.6,20.0,6.0,10.0,5.0,24140.0,0.0,0.73,1.82
single_runs_api,gfs_global,2025-09-21 06:00:00,2025-09-21 14:00:00,2025-09-21 07:00:00,2025-09-21 15:00:00,1,31.0,62,22.8,35.9,,0.0,0.0,0.0,0.0,0.0,1.0,1007.9,1002.7,31.0,21.0,5.0,5.0,24140.0,0.0,0.64,1.7
single_runs_api,gfs_global,2025-09-21 06:00:00,2025-09-21 14:00:00,2025-09-21 08:00:00,2025-09-21 16:00:00,2,30.0,66,23.0,34.3,,0.5,0.0,0.5,0.0,0.0,53.0,1007.5,1002.3,32.0,23.0,5.0,5.0,24140.0,0.0,0.47,1.44
single_runs_api,gfs_global,2025-09-21 06:00:00,2025-09-21 14:00:00,2025-09-21 09:00:00,2025-09-21 17:00:00,3,30.1,66,23.0,34.2,,0.1,0.0,0.1,0.0,0.0,51.0,1007.2,1002.0,35.0,28.0,5.0,0.0,24140.0,0.0,0.41,1.45
single_runs_api,gfs_global,2025-09-21 06:00:00,2025-09-21 14:00:00,2025-09-21 10:00:00,2025-09-21 18:00:00,4,29.9,66,22.8,33.5,,0.0,0.0,0.0,0.0,0.0,0.0,1007.7,1002.5,8.0,1.0,5.0,0.0,24140.0,0.0,0.26,1.43
single_runs_api,gfs_global,2025-09-21 06:00:00,2025-09-21 14:00:00,2025-09-21 11:00:00,2025-09-21 19:00:00,5,29.0,70,22.9,32.5,,0.0,0.0,0.0,0.0,0.0,2.0,1008.5,1003.3,61.0,0.0,60.0,0.0,24140.0,0.0,0.1,1.2
single_runs_api,gfs_global,2025-09-21 06:00:00,2025-09-21 14:00:00,2025-09-21 12:00:00,2025-09-21 20:00:00,6,28.6,71,22.8,32.0,,0.0,0.0,0.0,0.0,0.0,3.0,1009.3,1004.1,93.0,0.0,92.0,0.0,24140.0,0.0,0.06,1.13
single_runs_api,gfs_global,2025-09-21 12:00:00,2025-09-21 20:00:00,2025-09-21 13:00:00,2025-09-21 21:00:00,1,28.4,72,22.8,32.1,,0.0,0.0,0.0,0.0,0.0,0.0,1009.9,1004.7,7.0,0.0,5.0,0.0,24140.0,0.0,0.05,1.08
single_runs_api,gfs_global,2025-09-21 12:00:00,2025-09-21 20:00:00,2025-09-21 14:00:00,2025-09-21 22:00:00,2,28.2,74,23.1,32.1,,0.0,0.0,0.0,0.0,0.0,0.0,1010.4,1005.1,7.0,0.0,5.0,0.0,24140.0,0.0,0.04,0.99
single_runs_api,gfs_global,2025-09-21 12:00:00,2025-09-21 20:00:00,2025-09-21 15:00:00,2025-09-21 23:00:00,3,28.0,75,23.1,32.2,,0.0,0.0,0.0,0.0,0.0,0.0,1010.7,1005.4,8.0,0.0,5.0,0.0,24140.0,0.0,0.03,0.94
single_runs_api,gfs_global,2025-09-21 12:00:00,2025-09-21 20:00:00,2025-09-21 16:00:00,2025-09-22 00:00:00,4,27.8,76,23.1,32.1,,0.0,0.0,0.0,0.0,0.0,0.0,1010.8,1005.5,9.0,0.0,5.0,0.0,24140.0,0.0,0.03,0.89
single_runs_api,gfs_global,2025-09-21 12:00:00,2025-09-21 20:00:00,2025-09-21 17:00:00,2025-09-22 01:00:00,5,27.6,77,23.2,32.1,,0.0,0.0,0.0,0.0,0.0,0.0,1010.3,1005.0,12.0,0.0,5.0,5.0,24140.0,0.0,0.02,0.85
single_runs_api,gfs_global,2025-09-21 12:00:00,2025-09-21 20:00:00,2025-09-21 18:00:00,2025-09-22 02:00:00,6,27.4,78,23.2,31.9,,0.0,0.0,0.0,0.0,0.0,2.0,1009.7,1004.4,68.0,0.0,64.0,5.0,24140.0,0.0,0.02,0.8
single_runs_api,gfs_global,2025-09-21 18:00:00,2025-09-22 02:00:00,2025-09-21 19:00:00,2025-09-22 03:00:00,1,27.2,81,23.6,31.7,,0.0,0.0,0.0,0.0,0.0,0.0,1009.3,1004.0,19.0,0.0,7.0,10.0,24140.0,0.0,0.02,0.68
single_runs_api,gfs_global,2025-09-21 18:00:00,2025-09-22 02:00:00,2025-09-21 20:00:00,2025-09-22 04:00:00,2,27.1,82,23.7,31.3,,0.0,0.0,0.0,0.0,0.0,2.0,1009.2,1003.9,61.0,0.0,51.0,17.0,24140.0,0.0,0.02,0.64
single_runs_api,gfs_global,2025-09-21 18:00:00,2025-09-22 02:00:00,2025-09-21 21:00:00,2025-09-22 05:00:00,3,27.1,81,23.5,31.1,,0.0,0.0,0.0,0.0,0.0,3.0,1009.1,1003.8,100.0,0.0,5.0,100.0,24140.0,0.0,0.03,0.68
single_runs_api,gfs_global,2025-09-21 18:00:00,2025-09-22 02:00:00,2025-09-21 22:00:00,2025-09-22 06:00:00,4,27.0,80,23.3,30.9,,0.0,0.0,0.0,0.0,0.0,2.0,1009.6,1004.3,70.0,0.0,5.0,63.0,24140.0,0.0,0.03,0.71
single_runs_api,gfs_global,2025-09-21 18:00:00,2025-09-22 02:00:00,2025-09-21 23:00:00,2025-09-22 07:00:00,5,27.0,80,23.2,30.8,,0.0,0.0,0.0,0.0,0.0,1.0,1010.5,1005.2,23.0,0.0,5.0,14.0,24140.0,0.0,0.05,0.71
single_runs_api,gfs_global,2025-09-21 18:00:00,2025-09-22 02:00:00,2025-09-22 00:00:00,2025-09-22 08:00:00,6,27.5,80,23.8,31.8,,0.3,0.0,0.3,0.0,0.0,51.0,1011.3,1006.0,93.0,0.0,56.0,81.0,24140.0,0.0,0.08,0.73
single_runs_api,gfs_global,2025-09-22 00:00:00,2025-09-22 08:00:00,2025-09-22 01:00:00,2025-09-22 09:00:00,1,28.8,73,23.4,32.4,,0.0,0.0,0.0,0.0,0.0,3.0,1011.6,1006.4,100.0,0.0,5.0,100.0,24140.0,0.0,0.25,1.07
single_runs_api,gfs_global,2025-09-22 00:00:00,2025-09-22 08:00:00,2025-09-22 02:00:00,2025-09-22 10:00:00,2,29.8,68,23.2,33.3,,0.0,0.0,0.0,0.0,0.0,3.0,1011.5,1006.3,100.0,6.0,51.0,100.0,24140.0,0.0,0.41,1.34
single_runs_api,gfs_global,2025-09-22 00:00:00,2025-09-22 08:00:00,2025-09-22 03:00:00,2025-09-22 11:00:00,3,30.9,63,23.1,36.0,,0.0,0.0,0.0,0.0,0.0,2.0,1011.3,1006.1,77.0,9.0,5.0,71.0,24140.0,0.0,0.58,1.65
single_runs_api,gfs_global,2025-09-22 00:00:00,2025-09-22 08:00:00,2025-09-22 04:00:00,2025-09-22 12:00:00,4,31.6,61,23.1,37.4,,0.0,0.0,0.0,0.0,0.0,2.0,1010.6,1005.4,66.0,20.0,5.0,53.0,24140.0,0.0,0.69,1.81
single_runs_api,gfs_global,2025-09-22 00:00:00,2025-09-22 08:00:00,2025-09-22 05:00:00,2025-09-22 13:00:00,5,31.4,62,23.3,36.6,,0.2,0.0,0.2,0.0,0.0,51.0,1009.7,1004.5,100.0,38.0,5.0,100.0,24140.0,0.0,0.69,1.75
single_runs_api,gfs_global,2025-09-22 00:00:00,2025-09-22 08:00:00,2025-09-22 06:00:00,2025-09-22 14:00:00,6,30.6,66,23.5,35.5,,1.0,0.0,1.0,0.0,0.0,55.0,1009.0,1003.8,100.0,24.0,5.0,100.0,4420.0,0.0,0.67,1.49
single_runs_api,gfs_global,2025-09-22 06:00:00,2025-09-22 14:00:00,2025-09-22 07:00:00,2025-09-22 15:00:00,1,30.3,66,23.2,35.5,,1.3,0.0,1.3,0.0,0.0,80.0,1008.2,1003.0,100.0,4.0,5.0,100.0,24140.0,0.0,0.59,1.46
single_runs_api,gfs_global,2025-09-22 06:00:00,2025-09-22 14:00:00,2025-09-22 08:00:00,2025-09-22 16:00:00,2,30.4,66,23.3,35.2,,0.2,0.0,0.2,0.0,0.0,51.0,1007.3,1002.1,58.0,34.0,5.0,27.0,24140.0,0.0,0.55,1.47
single_runs_api,gfs_global,2025-09-22 06:00:00,2025-09-22 14:00:00,2025-09-22 09:00:00,2025-09-22 17:00:00,3,30.3,66,23.2,34.4,,0.0,0.0,0.0,0.0,0.0,1.0,1007.0,1001.8,33.0,23.0,5.0,5.0,24140.0,0.0,0.41,1.46
single_runs_api,gfs_global,2025-09-22 06:00:00,2025-09-22 14:00:00,2025-09-22 10:00:00,2025-09-22 18:00:00,4,29.9,68,23.3,34.6,,0.0,0.0,0.0,0.0,0.0,0.0,1007.5,1002.3,19.0,0.0,5.0,10.0,24140.0,0.0,0.24,1.35
single_runs_api,gfs_global,2025-09-22 06:00:00,2025-09-22 14:00:00,2025-09-22 11:00:00,2025-09-22 19:00:00,5,29.0,72,23.4,33.9,,0.0,0.0,0.0,0.0,0.0,3.0,1008.4,1003.2,100.0,0.0,5.0,100.0,24140.0,0.0,0.06,1.12
single_runs_api,gfs_global,2025-09-22 06:00:00,2025-09-22 14:00:00,2025-09-22 12:00:00,2025-09-22 20:00:00,6,28.8,74,23.7,33.8,,0.0,0.0,0.0,0.0,0.0,3.0,1009.2,1004.0,100.0,0.0,5.0,100.0,24140.0,0.0,0.02,1.03
single_runs_api,gfs_global,2025-09-22 12:00:00,2025-09-22 20:00:00,2025-09-22 13:00:00,2025-09-22 21:00:00,1,28.8,73,23.4,33.3,,0.0,0.0,0.0,0.0,0.0,3.0,1010.0,1004.8,100.0,0.0,10.0,100.0,24140.0,0.0,0.03,1.07
single_runs_api,gfs_global,2025-09-22 12:00:00,2025-09-22 20:00:00,2025-09-22 14:00:00,2025-09-22 22:00:00,2,28.5,74,23.4,32.8,,0.0,0.0,0.0,0.0,0.0,3.0,1010.4,1005.2,84.0,0.0,5.0,81.0,24140.0,0.0,0.03,1.01
single_runs_api,gfs_global,2025-09-22 12:00:00,2025-09-22 20:00:00,2025-09-22 15:00:00,2025-09-22 23:00:00,3,28.3,75,23.4,32.4,,0.0,0.0,0.0,0.0,0.0,0.0,1010.7,1005.4,13.0,0.0,5.0,5.0,24140.0,0.0,0.04,0.96
single_runs_api,gfs_global,2025-09-22 12:00:00,2025-09-22 20:00:00,2025-09-22 16:00:00,2025-09-23 00:00:00,4,28.0,77,23.6,32.2,,0.0,0.0,0.0,0.0,0.0,3.0,1010.7,1005.4,100.0,0.0,5.0,100.0,24140.0,0.0,0.03,0.87
single_runs_api,gfs_global,2025-09-22 12:00:00,2025-09-22 20:00:00,2025-09-22 17:00:00,2025-09-23 01:00:00,5,27.8,78,23.6,32.1,,0.0,0.0,0.0,0.0,0.0,3.0,1010.2,1004.9,100.0,0.0,5.0,100.0,24140.0,0.0,0.03,0.82
single_runs_api,gfs_global,2025-09-22 12:00:00,2025-09-22 20:00:00,2025-09-22 18:00:00,2025-09-23 02:00:00,6,26.9,83,23.7,31.9,,1.1,0.0,1.1,0.0,0.0,55.0,1009.7,1004.4,100.0,0.0,0.0,100.0,24140.0,0.0,0.01,0.6
single_runs_api,gfs_global,2025-09-22 18:00:00,2025-09-23 02:00:00,2025-09-22 19:00:00,2025-09-23 03:00:00,1,26.8,85,24.0,31.8,,0.6,0.0,0.6,0.0,0.0,53.0,1009.4,1004.1,100.0,0.0,0.0,100.0,24140.0,0.0,0.01,0.53
single_runs_api,gfs_global,2025-09-22 18:00:00,2025-09-23 02:00:00,2025-09-22 20:00:00,2025-09-23 04:00:00,2,26.8,85,24.0,32.1,,0.1,0.0,0.1,0.0,0.0,51.0,1009.1,1003.8,100.0,0.0,0.0,100.0,24140.0,0.0,0.0,0.53
single_runs_api,gfs_global,2025-09-22 18:00:00,2025-09-23 02:00:00,2025-09-22 21:00:00,2025-09-23 05:00:00,3,26.5,86,23.9,31.7,,0.5,0.0,0.5,0.0,0.0,53.0,1009.5,1004.2,100.0,0.0,0.0,100.0,24140.0,0.0,0.0,0.48
single_runs_api,gfs_global,2025-09-22 18:00:00,2025-09-23 02:00:00,2025-09-22 22:00:00,2025-09-23 06:00:00,4,26.6,86,24.0,32.1,,0.0,0.0,0.0,0.0,0.0,3.0,1009.7,1004.4,100.0,0.0,0.0,100.0,24140.0,0.0,0.0,0.49
single_runs_api,gfs_global,2025-09-22 18:00:00,2025-09-23 02:00:00,2025-09-22 23:00:00,2025-09-23 07:00:00,5,26.4,86,23.8,31.9,,0.2,0.0,0.2,0.0,0.0,51.0,1010.5,1005.2,100.0,0.0,0.0,100.0,24140.0,0.0,0.02,0.48
single_runs_api,gfs_global,2025-09-22 18:00:00,2025-09-23 02:00:00,2025-09-23 00:00:00,2025-09-23 08:00:00,6,27.2,82,23.8,33.0,,0.4,0.0,0.4,0.0,0.0,51.0,1011.3,1006.0,87.0,0.0,0.0,87.0,24140.0,0.0,0.05,0.65
single_runs_api,gfs_global,2025-09-23 00:00:00,2025-09-23 08:00:00,2025-09-23 01:00:00,2025-09-23 09:00:00,1,28.5,74,23.4,33.3,,0.0,0.0,0.0,0.0,0.0,3.0,1011.8,1006.5,100.0,0.0,0.0,100.0,24140.0,0.0,0.21,1.01
single_runs_api,gfs_global,2025-09-23 00:00:00,2025-09-23 08:00:00,2025-09-23 02:00:00,2025-09-23 10:00:00,2,29.7,66,22.6,33.5,,0.0,0.0,0.0,0.0,0.0,3.0,1012.1,1006.9,100.0,0.0,0.0,100.0,24140.0,0.0,0.4,1.41
single_runs_api,gfs_global,2025-09-23 00:00:00,2025-09-23 08:00:00,2025-09-23 03:00:00,2025-09-23 11:00:00,3,30.3,63,22.4,34.6,,0.0,0.0,0.0,0.0,0.0,3.0,1012.1,1006.9,100.0,0.0,0.0,100.0,24140.0,0.0,0.51,1.59
single_runs_api,gfs_global,2025-09-23 00:00:00,2025-09-23 08:00:00,2025-09-23 04:00:00,2025-09-23 12:00:00,4,30.9,60,22.2,35.8,,0.0,0.0,0.0,0.0,0.0,3.0,1011.1,1005.9,100.0,0.0,0.0,100.0,24140.0,0.0,0.64,1.78
single_runs_api,gfs_global,2025-09-23 00:00:00,2025-09-23 08:00:00,2025-09-23 05:00:00,2025-09-23 13:00:00,5,31.2,59,22.2,36.3,,0.0,0.0,0.0,0.0,0.0,3.0,1010.0,1004.8,100.0,0.0,0.0,100.0,24140.0,0.0,0.71,1.86
single_runs_api,gfs_global,2025-09-23 00:00:00,2025-09-23 08:00:00,2025-09-23 06:00:00,2025-09-23 14:00:00,6,31.2,59,22.3,36.3,,0.0,0.0,0.0,0.0,0.0,3.0,1009.0,1003.8,100.0,0.0,0.0,100.0,24140.0,0.0,0.7,1.86
single_runs_api,gfs_global,2025-09-23 06:00:00,2025-09-23 14:00:00,2025-09-23 07:00:00,2025-09-23 15:00:00,1,31.2,59,22.3,36.1,,0.0,0.0,0.0,0.0,0.0,3.0,1008.1,1002.9,100.0,0.0,0.0,100.0,24140.0,0.0,0.67,1.86
single_runs_api,gfs_global,2025-09-23 06:00:00,2025-09-23 14:00:00,2025-09-23 08:00:00,2025-09-23 16:00:00,2,31.1,59,22.2,35.7,,0.0,0.0,0.0,0.0,0.0,0.0,1007.3,1002.1,0.0,0.0,0.0,0.0,24140.0,0.0,0.58,1.85
single_runs_api,gfs_global,2025-09-23 06:00:00,2025-09-23 14:00:00,2025-09-23 09:00:00,2025-09-23 17:00:00,3,30.9,59,22.0,34.3,,0.0,0.0,0.0,0.0,0.0,0.0,1006.8,1001.6,16.0,0.0,0.0,16.0,24140.0,0.0,0.44,1.83
single_runs_api,gfs_global,2025-09-23 06:00:00,2025-09-23 14:00:00,2025-09-23 10:00:00,2025-09-23 18:00:00,4,30.2,62,22.1,33.6,,0.0,0.0,0.0,0.0,0.0,0.0,1007.1,1001.9,0.0,0.0,0.0,0.0,24140.0,0.0,0.26,1.63
single_runs_api,gfs_global,2025-09-23 06:00:00,2025-09-23 14:00:00,2025-09-23 11:00:00,2025-09-23 19:00:00,5,28.8,67,22.0,32.1,,0.0,0.0,0.0,0.0,0.0,0.0,1007.6,1002.4,5.0,0.0,0.0,5.0,24140.0,0.0,0.1,1.3
single_runs_api,gfs_global,2025-09-23 06:00:00,2025-09-23 14:00:00,2025-09-23 12:00:00,2025-09-23 20:00:00,6,28.6,69,22.3,32.0,,0.0,0.0,0.0,0.0,0.0,3.0,1008.4,1003.2,100.0,0.0,0.0,100.0,24140.0,0.0,0.05,1.21
single_runs_api,gfs_global,2025-09-23 12:00:00,2025-09-23 20:00:00,2025-09-23 13:00:00,2025-09-23 21:00:00,1,28.6,72,23.0,32.7,,0.0,0.0,0.0,0.0,0.0,0.0,1009.2,1004.0,5.0,0.0,0.0,5.0,24140.0,0.0,0.04,1.09
single_runs_api,gfs_global,2025-09-23 12:00:00,2025-09-23 20:00:00,2025-09-23 14:00:00,2025-09-23 22:00:00,2,28.5,72,22.9,32.9,,0.0,0.0,0.0,0.0,0.0,2.0,1009.8,1004.6,63.0,0.0,0.0,62.0,24140.0,0.0,0.03,1.09
single_runs_api,gfs_global,2025-09-23 12:00:00,2025-09-23 20:00:00,2025-09-23 15:00:00,2025-09-23 23:00:00,3,28.1,74,23.0,32.5,,0.0,0.0,0.0,0.0,0.0,2.0,1010.2,1004.9,72.0,0.0,0.0,72.0,24140.0,0.0,0.02,0.99
single_runs_api,gfs_global,2025-09-23 12:00:00,2025-09-23 20:00:00,2025-09-23 16:00:00,2025-09-24 00:00:00,4,27.8,74,22.7,32.5,,0.0,0.0,0.0,0.0,0.0,3.0,1010.1,1004.8,100.0,0.0,0.0,100.0,24140.0,0.0,0.01,0.97
single_runs_api,gfs_global,2025-09-23 12:00:00,2025-09-23 20:00:00,2025-09-23 17:00:00,2025-09-24 01:00:00,5,27.5,74,22.5,32.5,,0.0,0.0,0.0,0.0,0.0,3.0,1009.7,1004.4,100.0,0.0,0.0,100.0,24140.0,0.0,0.0,0.95
single_runs_api,gfs_global,2025-09-23 12:00:00,2025-09-23 20:00:00,2025-09-23 18:00:00,2025-09-24 02:00:00,6,27.2,76,22.6,32.4,,0.0,0.0,0.0,0.0,0.0,3.0,1009.0,1003.7,100.0,0.0,0.0,100.0,24140.0,0.0,0.0,0.87
single_runs_api,gfs_global,2025-09-23 18:00:00,2025-09-24 02:00:00,2025-09-23 19:00:00,2025-09-24 03:00:00,1,27.1,77,22.7,31.8,,0.0,0.0,0.0,0.0,0.0,3.0,1008.6,1003.3,100.0,0.0,0.0,100.0,24140.0,0.0,0.0,0.83
single_runs_api,gfs_global,2025-09-23 18:00:00,2025-09-24 02:00:00,2025-09-23 20:00:00,2025-09-24 04:00:00,2,27.0,78,22.8,31.6,,0.0,0.0,0.0,0.0,0.0,0.0,1008.5,1003.2,17.0,0.0,0.0,15.0,24140.0,0.0,0.01,0.78
single_runs_api,gfs_global,2025-09-23 18:00:00,2025-09-24 02:00:00,2025-09-23 21:00:00,2025-09-24 05:00:00,3,26.8,79,22.9,31.9,,0.0,0.0,0.0,0.0,0.0,3.0,1008.3,1003.0,100.0,0.0,0.0,100.0,24140.0,0.0,0.0,0.74
single_runs_api,gfs_global,2025-09-23 18:00:00,2025-09-24 02:00:00,2025-09-23 22:00:00,2025-09-24 06:00:00,4,26.7,79,22.8,31.8,,0.0,0.0,0.0,0.0,0.0,3.0,1008.5,1003.2,100.0,0.0,0.0,100.0,24140.0,0.0,0.0,0.74
single_runs_api,gfs_global,2025-09-23 18:00:00,2025-09-24 02:00:00,2025-09-23 23:00:00,2025-09-24 07:00:00,5,26.6,80,22.9,31.3,,0.1,0.1,0.0,0.0,0.0,51.0,1009.1,1003.8,100.0,0.0,0.0,100.0,24140.0,0.0,0.03,0.7
single_runs_api,gfs_global,2025-09-23 18:00:00,2025-09-24 02:00:00,2025-09-24 00:00:00,2025-09-24 08:00:00,6,27.7,78,23.5,32.3,,0.0,0.0,0.0,0.0,0.0,3.0,1009.9,1004.6,100.0,0.0,0.0,100.0,24140.0,0.0,0.08,0.82
single_runs_api,gfs_global,2025-09-24 00:00:00,2025-09-24 08:00:00,2025-09-24 01:00:00,2025-09-24 09:00:00,1,28.9,72,23.3,33.2,,0.0,0.0,0.0,0.0,0.0,3.0,1010.4,1005.2,100.0,0.0,0.0,100.0,24140.0,0.0,0.24,1.11
single_runs_api,gfs_global,2025-09-24 00:00:00,2025-09-24 08:00:00,2025-09-24 02:00:00,2025-09-24 10:00:00,2,30.0,65,22.7,33.9,,0.1,0.0,0.1,0.0,0.0,51.0,1010.7,1005.5,100.0,0.0,0.0,100.0,24140.0,0.0,0.43,1.49
single_runs_api,gfs_global,2025-09-24 00:00:00,2025-09-24 08:00:00,2025-09-24 03:00:00,2025-09-24 11:00:00,3,30.7,61,22.3,35.4,,0.0,0.0,0.0,0.0,0.0,3.0,1010.3,1005.1,93.0,0.0,0.0,91.0,24140.0,0.0,0.58,1.72
single_runs_api,gfs_global,2025-09-24 00:00:00,2025-09-24 08:00:00,2025-09-24 04:00:00,2025-09-24 12:00:00,4,31.2,58,21.9,36.0,,0.1,0.0,0.1,0.0,0.0,51.0,1009.7,1004.5,93.0,0.0,0.0,91.0,24140.0,0.0,0.69,1.9
single_runs_api,gfs_global,2025-09-24 00:00:00,2025-09-24 08:00:00,2025-09-24 05:00:00,2025-09-24 13:00:00,5,31.4,57,21.8,36.3,,0.0,0.0,0.0,0.0,0.0,2.0,1008.8,1003.6,76.0,0.0,0.0,75.0,22340.0,0.0,0.75,1.97
single_runs_api,gfs_global,2025-09-24 00:00:00,2025-09-24 08:00:00,2025-09-24 06:00:00,2025-09-24 14:00:00,6,31.4,56,21.5,35.9,,0.0,0.0,0.0,0.0,0.0,2.0,1007.9,1002.7,52.0,0.0,0.0,50.0,22400.0,0.0,0.75,2.02
single_runs_api,gfs_global,2025-09-24 06:00:00,2025-09-24 14:00:00,2025-09-24 07:00:00,2025-09-24 15:00:00,1,31.4,56,21.6,35.6,,0.0,0.0,0.0,0.0,0.0,2.0,1007.2,1002.0,66.0,0.0,0.0,66.0,24140.0,0.0,0.7,2.02
single_runs_api,gfs_global,2025-09-24 06:00:00,2025-09-24 14:00:00,2025-09-24 08:00:00,2025-09-24 16:00:00,2,31.3,57,21.8,35.0,,0.0,0.0,0.0,0.0,0.0,0.0,1006.5,1001.3,5.0,0.0,0.0,5.0,24140.0,0.0,0.59,1.97
single_runs_api,gfs_global,2025-09-24 06:00:00,2025-09-24 14:00:00,2025-09-24 09:00:00,2025-09-24 17:00:00,3,30.8,58,21.6,33.5,,0.0,0.0,0.0,0.0,0.0,0.0,1006.3,1001.1,6.0,0.0,0.0,5.0,24140.0,0.0,0.45,1.87
single_runs_api,gfs_global,2025-09-24 06:00:00,2025-09-24 14:00:00,2025-09-24 10:00:00,2025-09-24 18:00:00,4,30.0,62,21.9,33.1,,0.0,0.0,0.0,0.0,0.0,0.0,1006.8,1001.6,0.0,0.0,0.0,0.0,24140.0,0.0,0.27,1.61
single_runs_api,gfs_global,2025-09-24 06:00:00,2025-09-24 14:00:00,2025-09-24 11:00:00,2025-09-24 19:00:00,5,28.8,68,22.3,32.4,,0.0,0.0,0.0,0.0,0.0,0.0,1007.3,1002.1,14.0,0.0,0.0,14.0,24140.0,0.0,0.09,1.26
single_runs_api,gfs_global,2025-09-24 06:00:00,2025-09-24 14:00:00,2025-09-24 12:00:00,2025-09-24 20:00:00,6,28.2,71,22.5,32.2,,0.0,0.0,0.0,0.0,0.0,0.0,1008.1,1002.9,5.0,0.0,0.0,5.0,24140.0,0.0,0.03,1.11
single_runs_api,gfs_global,2025-09-24 12:00:00,2025-09-24 20:00:00,2025-09-24 13:00:00,2025-09-24 21:00:00,1,28.1,72,22.5,32.3,,0.0,0.0,0.0,0.0,0.0,0.0,1009.1,1003.9,5.0,0.0,0.0,5.0,22060.0,0.0,0.02,1.06
single_runs_api,gfs_global,2025-09-24 12:00:00,2025-09-24 20:00:00,2025-09-24 14:00:00,2025-09-24 22:00:00,2,28.0,73,22.7,32.5,,0.0,0.0,0.0,0.0,0.0,0.0,1009.6,1004.3,0.0,0.0,0.0,0.0,24140.0,0.0,0.02,1.02
single_runs_api,gfs_global,2025-09-24 12:00:00,2025-09-24 20:00:00,2025-09-24 15:00:00,2025-09-24 23:00:00,3,27.7,75,22.8,32.5,,0.1,0.0,0.1,0.0,0.0,51.0,1010.1,1004.8,5.0,0.0,5.0,0.0,24140.0,0.0,0.01,0.93
single_runs_api,gfs_global,2025-09-24 12:00:00,2025-09-24 20:00:00,2025-09-24 16:00:00,2025-09-25 00:00:00,4,27.5,75,22.7,32.4,,0.0,0.0,0.0,0.0,0.0,0.0,1010.2,1004.9,12.0,0.0,5.0,6.0,24140.0,0.0,0.0,0.92
single_runs_api,gfs_global,2025-09-24 12:00:00,2025-09-24 20:00:00,2025-09-24 17:00:00,2025-09-25 01:00:00,5,27.3,75,22.4,31.9,,0.0,0.0,0.0,0.0,0.0,1.0,1009.5,1004.2,20.0,0.0,10.0,10.0,24140.0,0.0,0.0,0.9
single_runs_api,gfs_global,2025-09-24 12:00:00,2025-09-24 20:00:00,2025-09-24 18:00:00,2025-09-25 02:00:00,6,27.1,76,22.5,31.9,,0.0,0.0,0.0,0.0,0.0,1.0,1008.9,1003.6,24.0,0.0,9.0,14.0,24140.0,0.0,0.0,0.86
single_runs_api,gfs_global,2025-09-24 18:00:00,2025-09-25 02:00:00,2025-09-24 19:00:00,2025-09-25 03:00:00,1,27.0,77,22.6,32.1,,0.0,0.0,0.0,0.0,0.0,1.0,1008.6,1003.3,42.0,0.0,10.0,33.0,24140.0,0.0,0.0,0.82
single_runs_api,gfs_global,2025-09-24 18:00:00,2025-09-25 02:00:00,2025-09-24 20:00:00,2025-09-25 04:00:00,2,26.9,77,22.5,31.8,,0.1,0.0,0.1,0.0,0.0,51.0,1008.4,1003.1,89.0,0.0,10.0,87.0,24140.0,0.0,0.0,0.82
single_runs_api,gfs_global,2025-09-24 18:00:00,2025-09-25 02:00:00,2025-09-24 21:00:00,2025-09-25 05:00:00,3,26.8,77,22.4,31.5,,0.1,0.0,0.1,0.0,0.0,51.0,1008.3,1003.0,100.0,0.0,5.0,100.0,24140.0,0.0,0.0,0.81
single_runs_api,gfs_global,2025-09-24 18:00:00,2025-09-25 02:00:00,2025-09-24 22:00:00,2025-09-25 06:00:00,4,26.4,78,22.2,31.2,,1.1,0.0,1.1,0.0,0.0,55.0,1009.1,1003.8,100.0,0.0,10.0,100.0,24140.0,0.0,0.0,0.76
single_runs_api,gfs_global,2025-09-24 18:00:00,2025-09-25 02:00:00,2025-09-24 23:00:00,2025-09-25 07:00:00,5,26.3,79,22.3,30.7,,0.0,0.0,0.0,0.0,0.0,3.0,1009.6,1004.3,94.0,0.0,5.0,92.0,24140.0,0.0,0.03,0.72
single_runs_api,gfs_global,2025-09-24 18:00:00,2025-09-25 02:00:00,2025-09-25 00:00:00,2025-09-25 08:00:00,6,27.2,75,22.4,31.5,,0.5,0.0,0.5,0.0,0.0,53.0,1010.6,1005.3,62.0,0.0,5.0,57.0,15860.0,0.0,0.07,0.9
single_runs_api,gfs_global,2025-09-25 00:00:00,2025-09-25 08:00:00,2025-09-25 01:00:00,2025-09-25 09:00:00,1,29.0,66,22.0,32.9,,0.4,0.0,0.4,0.0,0.0,51.0,1011.0,1005.8,49.0,0.0,5.0,41.0,24140.0,0.0,0.25,1.36
single_runs_api,gfs_global,2025-09-25 00:00:00,2025-09-25 08:00:00,2025-09-25 02:00:00,2025-09-25 10:00:00,2,30.0,61,21.7,33.6,,0.0,0.0,0.0,0.0,0.0,3.0,1011.3,1006.1,82.0,0.0,5.0,79.0,24140.0,0.0,0.43,1.66
single_runs_api,gfs_global,2025-09-25 00:00:00,2025-09-25 08:00:00,2025-09-25 03:00:00,2025-09-25 11:00:00,3,30.8,58,21.6,35.1,,0.0,0.0,0.1,0.0,0.0,3.0,1010.9,1005.7,85.0,0.0,5.0,82.0,11160.0,0.0,0.59,1.87
single_runs_api,gfs_global,2025-09-25 00:00:00,2025-09-25 08:00:00,2025-09-25 04:00:00,2025-09-25 12:00:00,4,31.1,56,21.3,35.6,,0.0,0.0,0.0,0.0,0.0,3.0,1009.8,1004.6,100.0,4.0,5.0,100.0,24140.0,0.0,0.7,1.99
single_runs_api,gfs_global,2025-09-25 00:00:00,2025-09-25 08:00:00,2025-09-25 05:00:00,2025-09-25 13:00:00,5,31.3,56,21.4,36.1,,0.0,0.0,0.0,0.0,0.0,3.0,1009.0,1003.8,83.0,2.0,5.0,82.0,22460.0,0.0,0.75,2.01
single_runs_api,gfs_global,2025-09-25 00:00:00,2025-09-25 08:00:00,2025-09-25 06:00:00,2025-09-25 14:00:00,6,31.2,56,21.4,35.8,,0.0,0.0,0.0,0.0,0.0,2.0,1008.2,1003.0,61.0,0.0,5.0,56.0,24140.0,0.0,0.75,1.99
single_runs_api,gfs_global,2025-09-25 06:00:00,2025-09-25 14:00:00,2025-09-25 07:00:00,2025-09-25 15:00:00,1,31.4,56,21.5,35.8,,0.0,0.0,0.0,0.0,0.0,2.0,1007.9,1002.7,63.0,0.0,5.0,60.0,24140.0,0.0,0.69,2.02
single_runs_api,gfs_global,2025-09-25 06:00:00,2025-09-25 14:00:00,2025-09-25 08:00:00,2025-09-25 16:00:00,2,31.2,55,21.1,34.6,,0.0,0.0,0.0,0.0,0.0,3.0,1007.5,1002.3,100.0,0.0,5.0,100.0,20840.0,0.0,0.56,2.05
single_runs_api,gfs_global,2025-09-25 06:00:00,2025-09-25 14:00:00,2025-09-25 09:00:00,2025-09-25 17:00:00,3,30.9,56,21.1,33.6,,0.0,0.0,0.0,0.0,0.0,3.0,1007.3,1002.1,100.0,0.0,5.0,100.0,24140.0,0.0,0.4,1.96
single_runs_api,gfs_global,2025-09-25 06:00:00,2025-09-25 14:00:00,2025-09-25 10:00:00,2025-09-25 18:00:00,4,30.2,60,21.5,33.4,,0.0,0.0,0.0,0.0,0.0,3.0,1007.6,1002.4,100.0,0.0,5.0,100.0,21160.0,0.0,0.21,1.71
single_runs_api,gfs_global,2025-09-25 06:00:00,2025-09-25 14:00:00,2025-09-25 11:00:00,2025-09-25 19:00:00,5,28.9,64,21.4,31.6,,0.1,0.0,0.1,0.0,0.0,51.0,1008.6,1003.4,100.0,0.0,5.0,100.0,22180.0,0.0,0.11,1.43
single_runs_api,gfs_global,2025-09-25 06:00:00,2025-09-25 14:00:00,2025-09-25 12:00:00,2025-09-25 20:00:00,6,28.5,68,22.0,32.3,,0.2,0.0,0.2,0.0,0.0,51.0,1009.8,1004.6,100.0,0.0,10.0,100.0,24140.0,0.0,0.03,1.24
single_runs_api,gfs_global,2025-09-25 12:00:00,2025-09-25 20:00:00,2025-09-25 13:00:00,2025-09-25 21:00:00,1,28.2,70,22.2,32.7,,0.0,0.0,0.0,0.0,0.0,3.0,1010.6,1005.3,100.0,0.0,5.0,100.0,24140.0,0.0,0.01,1.14
single_runs_api,gfs_global,2025-09-25 12:00:00,2025-09-25 20:00:00,2025-09-25 14:00:00,2025-09-25 22:00:00,2,27.8,72,22.3,32.0,,0.0,0.0,0.0,0.0,0.0,3.0,1010.5,1005.2,100.0,0.0,40.0,100.0,24140.0,0.0,0.02,1.04
single_runs_api,gfs_global,2025-09-25 12:00:00,2025-09-25 20:00:00,2025-09-25 15:00:00,2025-09-25 23:00:00,3,27.2,76,22.6,31.6,,0.0,0.0,0.0,0.0,0.0,3.0,1011.1,1005.8,94.0,0.0,6.0,88.0,24140.0,0.0,0.01,0.86
single_runs_api,gfs_global,2025-09-25 12:00:00,2025-09-25 20:00:00,2025-09-25 16:00:00,2025-09-26 00:00:00,4,26.8,78,22.6,31.4,,0.0,0.0,0.0,0.0,0.0,3.0,1010.9,1005.6,100.0,0.0,54.0,100.0,24140.0,0.0,0.0,0.77
single_runs_api,gfs_global,2025-09-25 12:00:00,2025-09-25 20:00:00,2025-09-25 17:00:00,2025-09-26 01:00:00,5,26.9,78,22.7,31.9,,0.0,0.0,0.0,0.0,0.0,3.0,1010.3,1005.0,100.0,0.0,100.0,100.0,24140.0,0.0,0.0,0.78
single_runs_api,gfs_global,2025-09-25 12:00:00,2025-09-25 20:00:00,2025-09-25 18:00:00,2025-09-26 02:00:00,6,27.0,77,22.6,32.1,,0.0,0.0,0.0,0.0,0.0,3.0,1009.5,1004.2,100.0,48.0,100.0,100.0,24140.0,0.0,0.0,0.82
single_runs_api,gfs_global,2025-09-25 18:00:00,2025-09-26 02:00:00,2025-09-25 19:00:00,2025-09-26 03:00:00,1,27.4,77,23.0,32.2,,0.0,0.0,0.0,0.0,0.0,3.0,1009.2,1003.9,100.0,69.0,100.0,100.0,24140.0,0.0,0.01,0.84
single_runs_api,gfs_global,2025-09-25 18:00:00,2025-09-26 02:00:00,2025-09-25 20:00:00,2025-09-26 04:00:00,2,27.4,76,22.8,31.8,,0.0,0.0,0.0,0.0,0.0,3.0,1009.3,1004.0,100.0,36.0,100.0,100.0,24140.0,0.0,0.02,0.87
single_runs_api,gfs_global,2025-09-25 18:00:00,2025-09-26 02:00:00,2025-09-25 21:00:00,2025-09-26 05:00:00,3,27.0,77,22.6,30.7,,1.4,0.0,1.4,0.0,0.0,80.0,1009.3,1004.0,100.0,5.0,100.0,100.0,24140.0,0.0,0.03,0.82
single_runs_api,gfs_global,2025-09-25 18:00:00,2025-09-26 02:00:00,2025-09-25 22:00:00,2025-09-26 06:00:00,4,26.9,79,22.9,30.8,,0.4,0.0,0.4,0.0,0.0,51.0,1010.1,1004.8,100.0,5.0,100.0,100.0,24140.0,0.0,0.03,0.74
single_runs_api,gfs_global,2025-09-25 18:00:00,2025-09-26 02:00:00,2025-09-25 23:00:00,2025-09-26 07:00:00,5,27.0,80,23.2,31.0,,0.0,0.0,0.0,0.0,0.0,3.0,1010.3,1005.0,100.0,88.0,100.0,100.0,24140.0,0.0,0.05,0.71
single_runs_api,gfs_global,2025-09-25 18:00:00,2025-09-26 02:00:00,2025-09-26 00:00:00,2025-09-26 08:00:00,6,27.5,80,23.7,31.4,,0.1,0.0,0.1,0.0,0.0,51.0,1010.9,1005.6,100.0,8.0,71.0,100.0,24140.0,0.0,0.08,0.73
single_runs_api,gfs_global,2025-09-26 00:00:00,2025-09-26 08:00:00,2025-09-26 01:00:00,2025-09-26 09:00:00,1,29.0,73,23.6,32.7,,0.0,0.0,0.0,0.0,0.0,3.0,1010.9,1005.7,100.0,12.0,5.0,100.0,24140.0,0.0,0.22,1.08
single_runs_api,gfs_global,2025-09-26 00:00:00,2025-09-26 08:00:00,2025-09-26 02:00:00,2025-09-26 10:00:00,2,30.2,66,23.1,33.8,,0.0,0.0,0.0,0.0,0.0,3.0,1010.7,1005.5,80.0,0.0,51.0,56.0,24140.0,0.0,0.43,1.46
single_runs_api,gfs_global,2025-09-26 00:00:00,2025-09-26 08:00:00,2025-09-26 03:00:00,2025-09-26 11:00:00,3,31.2,61,22.8,35.2,,0.0,0.0,0.0,0.0,0.0,3.0,1010.3,1005.1,100.0,0.0,5.0,100.0,24140.0,0.0,0.56,1.77
single_runs_api,gfs_global,2025-09-26 00:00:00,2025-09-26 08:00:00,2025-09-26 04:00:00,2025-09-26 12:00:00,4,31.9,58,22.6,36.3,,0.0,0.0,0.0,0.0,0.0,2.0,1009.6,1004.4,74.0,0.0,5.0,68.0,24140.0,0.0,0.69,1.98
single_runs_api,gfs_global,2025-09-26 00:00:00,2025-09-26 08:00:00,2025-09-26 05:00:00,2025-09-26 13:00:00,5,32.1,57,22.5,36.4,,0.0,0.0,0.0,0.0,0.0,3.0,1008.6,1003.4,100.0,0.0,42.0,100.0,24140.0,0.0,0.73,2.05
single_runs_api,gfs_global,2025-09-26 00:00:00,2025-09-26 08:00:00,2025-09-26 06:00:00,2025-09-26 14:00:00,6,31.6,59,22.6,35.1,,0.0,0.0,0.0,0.0,0.0,3.0,1007.9,1002.7,100.0,0.0,85.0,100.0,24140.0,0.0,0.57,1.9
single_runs_api,gfs_global,2025-09-26 06:00:00,2025-09-26 14:00:00,2025-09-26 07:00:00,2025-09-26 15:00:00,1,31.2,61,22.8,34.2,,0.0,0.0,0.0,0.0,0.0,3.0,1007.3,1002.1,100.0,12.0,98.0,100.0,22260.0,0.0,0.45,1.77
single_runs_api,gfs_global,2025-09-26 06:00:00,2025-09-26 14:00:00,2025-09-26 08:00:00,2025-09-26 16:00:00,2,31.6,60,22.9,35.7,,0.3,0.0,0.3,0.0,0.0,51.0,1006.7,1001.5,100.0,19.0,9.0,100.0,24140.0,0.0,0.52,1.85
single_runs_api,gfs_global,2025-09-26 06:00:00,2025-09-26 14:00:00,2025-09-26 09:00:00,2025-09-26 17:00:00,3,31.7,58,22.4,35.1,,0.1,0.0,0.1,0.0,0.0,51.0,1006.6,1001.4,100.0,5.0,5.0,100.0,22140.0,0.0,0.42,1.96
single_runs_api,gfs_global,2025-09-26 06:00:00,2025-09-26 14:00:00,2025-09-26 10:00:00,2025-09-26 18:00:00,4,31.0,61,22.6,34.5,,0.1,0.0,0.1,0.0,0.0,51.0,1007.2,1002.0,56.0,0.0,5.0,47.0,9600.0,0.0,0.26,1.75
single_runs_api,gfs_global,2025-09-26 06:00:00,2025-09-26 14:00:00,2025-09-26 11:00:00,2025-09-26 19:00:00,5,29.7,67,22.9,33.4,,0.1,0.0,0.1,0.0,0.0,51.0,1008.2,1003.0,100.0,0.0,5.0,100.0,24140.0,0.0,0.1,1.37
single_runs_api,gfs_global,2025-09-26 06:00:00,2025-09-26 14:00:00,2025-09-26 12:00:00,2025-09-26 20:00:00,6,29.1,70,23.0,32.6,,0.0,0.0,0.0,0.0,0.0,3.0,1009.2,1004.0,100.0,0.0,5.0,100.0,24140.0,0.0,0.06,1.21
single_runs_api,gfs_global,2025-09-26 12:00:00,2025-09-26 20:00:00,2025-09-26 13:00:00,2025-09-26 21:00:00,1,28.6,73,23.3,32.3,,0.0,0.0,0.0,0.0,0.0,3.0,1010.0,1004.8,100.0,0.0,5.0,100.0,24140.0,0.0,0.05,1.05
single_runs_api,gfs_global,2025-09-26 12:00:00,2025-09-26 20:00:00,2025-09-26 14:00:00,2025-09-26 22:00:00,2,28.6,72,23.0,32.3,,0.0,0.0,0.0,0.0,0.0,3.0,1010.6,1005.4,100.0,0.0,5.0,100.0,24140.0,0.0,0.05,1.09
single_runs_api,gfs_global,2025-09-26 12:00:00,2025-09-26 20:00:00,2025-09-26 15:00:00,2025-09-26 23:00:00,3,28.4,73,23.1,32.0,,0.0,0.0,0.0,0.0,0.0,3.0,1011.2,1005.9,100.0,0.0,5.0,100.0,24140.0,0.0,0.05,1.04
single_runs_api,gfs_global,2025-09-26 12:00:00,2025-09-26 20:00:00,2025-09-26 16:00:00,2025-09-27 00:00:00,4,28.2,74,23.1,32.0,,0.0,0.0,0.0,0.0,0.0,3.0,1011.0,1005.7,100.0,0.0,5.0,100.0,24140.0,0.0,0.04,0.99
single_runs_api,gfs_global,2025-09-26 12:00:00,2025-09-26 20:00:00,2025-09-26 17:00:00,2025-09-27 01:00:00,5,27.9,76,23.2,32.0,,0.0,0.0,0.0,0.0,0.0,3.0,1010.2,1004.9,100.0,0.0,10.0,100.0,24140.0,0.0,0.03,0.9
single_runs_api,gfs_global,2025-09-26 12:00:00,2025-09-26 20:00:00,2025-09-26 18:00:00,2025-09-27 02:00:00,6,27.7,76,23.1,31.9,,0.0,0.0,0.0,0.0,0.0,3.0,1009.5,1004.2,100.0,0.0,5.0,100.0,24140.0,0.0,0.03,0.89
single_runs_api,gfs_global,2025-09-26 18:00:00,2025-09-27 02:00:00,2025-09-26 19:00:00,2025-09-27 03:00:00,1,26.9,79,22.9,31.1,,1.4,0.0,1.4,0.0,0.0,80.0,1009.4,1004.1,100.0,0.0,5.0,100.0,19500.0,0.0,0.02,0.74
single_runs_api,gfs_global,2025-09-26 18:00:00,2025-09-27 02:00:00,2025-09-26 20:00:00,2025-09-27 04:00:00,2,26.6,82,23.2,31.3,,1.4,0.0,1.4,0.0,0.0,80.0,1009.3,1004.0,100.0,0.0,5.0,100.0,24140.0,0.0,0.01,0.63
single_runs_api,gfs_global,2025-09-26 18:00:00,2025-09-27 02:00:00,2025-09-26 21:00:00,2025-09-27 05:00:00,3,27.0,80,23.2,31.6,,0.0,0.0,0.0,0.0,0.0,3.0,1009.5,1004.2,93.0,0.0,5.0,91.0,24140.0,0.0,0.01,0.71
single_runs_api,gfs_global,2025-09-26 18:00:00,2025-09-27 02:00:00,2025-09-26 22:00:00,2025-09-27 06:00:00,4,27.0,80,23.2,31.9,,0.0,0.0,0.0,0.0,0.0,3.0,1009.6,1004.3,100.0,0.0,5.0,100.0,24140.0,0.0,0.0,0.71
single_runs_api,gfs_global,2025-09-26 18:00:00,2025-09-27 02:00:00,2025-09-26 23:00:00,2025-09-27 07:00:00,5,26.9,81,23.3,31.6,,0.0,0.0,0.0,0.0,0.0,3.0,1010.1,1004.8,100.0,0.0,5.0,100.0,24140.0,0.0,0.03,0.67
single_runs_api,gfs_global,2025-09-26 18:00:00,2025-09-27 02:00:00,2025-09-27 00:00:00,2025-09-27 08:00:00,6,27.7,79,23.7,32.7,,0.0,0.0,0.0,0.0,0.0,3.0,1010.7,1005.4,100.0,0.0,5.0,100.0,24140.0,0.0,0.06,0.78
single_runs_api,gfs_global,2025-09-27 00:00:00,2025-09-27 08:00:00,2025-09-27 01:00:00,2025-09-27 09:00:00,1,28.8,74,23.7,33.5,,0.2,0.0,0.2,0.0,0.0,51.0,1011.2,1006.0,100.0,0.0,5.0,100.0,24140.0,0.0,0.22,1.03
single_runs_api,gfs_global,2025-09-27 00:00:00,2025-09-27 08:00:00,2025-09-27 02:00:00,2025-09-27 10:00:00,2,29.9,67,23.1,33.9,,0.1,0.0,0.1,0.0,0.0,51.0,1011.3,1006.1,100.0,0.0,5.0,100.0,24140.0,0.0,0.4,1.39
single_runs_api,gfs_global,2025-09-27 00:00:00,2025-09-27 08:00:00,2025-09-27 03:00:00,2025-09-27 11:00:00,3,30.5,63,22.6,34.4,,0.0,0.0,0.0,0.0,0.0,3.0,1010.9,1005.7,100.0,0.0,5.0,100.0,24140.0,0.0,0.47,1.61
single_runs_api,gfs_global,2025-09-27 00:00:00,2025-09-27 08:00:00,2025-09-27 04:00:00,2025-09-27 12:00:00,4,31.4,58,22.1,36.3,,0.0,0.0,0.0,0.0,0.0,3.0,1010.4,1005.2,100.0,0.0,5.0,100.0,24140.0,0.0,0.65,1.93
single_runs_api,gfs_global,2025-09-27 00:00:00,2025-09-27 08:00:00,2025-09-27 05:00:00,2025-09-27 13:00:00,5,31.6,57,22.0,36.3,,0.0,0.0,0.0,0.0,0.0,3.0,1009.5,1004.3,100.0,1.0,5.0,100.0,20280.0,0.0,0.71,1.99
single_runs_api,gfs_global,2025-09-27 00:00:00,2025-09-27 08:00:00,2025-09-27 06:00:00,2025-09-27 14:00:00,6,31.5,57,21.9,36.0,,0.0,0.0,0.0,0.0,0.0,3.0,1008.5,1003.3,80.0,17.0,5.0,71.0,20020.0,0.0,0.73,1.98
single_runs_api,gfs_global,2025-09-27 06:00:00,2025-09-27 14:00:00,2025-09-27 07:00:00,2025-09-27 15:00:00,1,31.3,61,22.9,36.4,,0.0,0.0,0.0,0.0,0.0,1.0,1007.7,1002.5,21.0,0.0,5.0,14.0,21980.0,0.0,0.67,1.78
single_runs_api,gfs_global,2025-09-27 06:00:00,2025-09-27 14:00:00,2025-09-27 08:00:00,2025-09-27 16:00:00,2,31.1,61,22.7,35.4,,0.0,0.0,0.0,0.0,0.0,0.0,1007.0,1001.8,18.0,2.0,5.0,10.0,22020.0,0.0,0.55,1.76
single_runs_api,gfs_global,2025-09-27 06:00:00,2025-09-27 14:00:00,2025-09-27 09:00:00,2025-09-27 17:00:00,3,30.8,62,22.6,34.3,,0.2,0.0,0.2,0.0,0.0,51.0,1006.7,1001.5,100.0,0.0,5.0,100.0,24140.0,0.0,0.4,1.68
single_runs_api,gfs_global,2025-09-27 06:00:00,2025-09-27 14:00:00,2025-09-27 10:00:00,2025-09-27 18:00:00,4,30.2,65,22.9,33.9,,0.2,0.0,0.2,0.0,0.0,51.0,1006.9,1001.7,100.0,0.0,0.0,100.0,24140.0,0.0,0.23,1.5
single_runs_api,gfs_global,2025-09-27 06:00:00,2025-09-27 14:00:00,2025-09-27 11:00:00,2025-09-27 19:00:00,5,29.0,71,23.2,33.1,,0.6,0.0,0.6,0.0,0.0,53.0,1007.6,1002.4,10.0,0.0,0.0,10.0,8800.0,0.0,0.08,1.16
single_runs_api,gfs_global,2025-09-27 06:00:00,2025-09-27 14:00:00,2025-09-27 12:00:00,2025-09-27 20:00:00,6,28.3,74,23.2,32.2,,1.1,0.0,1.1,0.0,0.0,55.0,1008.4,1003.2,11.0,0.0,5.0,5.0,13380.0,0.0,0.04,1.0
single_runs_api,gfs_global,2025-09-27 12:00:00,2025-09-27 20:00:00,2025-09-27 13:00:00,2025-09-27 21:00:00,1,27.3,78,23.1,32.0,,2.3,0.0,2.3,0.0,0.0,80.0,1010.1,1004.8,15.0,0.0,5.0,10.0,17360.0,0.0,0.01,0.8
single_runs_api,gfs_global,2025-09-27 12:00:00,2025-09-27 20:00:00,2025-09-27 14:00:00,2025-09-27 22:00:00,2,27.8,75,22.9,33.1,,0.0,0.0,0.0,0.0,0.0,3.0,1010.6,1005.3,100.0,0.0,0.0,100.0,24140.0,0.0,0.0,0.93
single_runs_api,gfs_global,2025-09-27 12:00:00,2025-09-27 20:00:00,2025-09-27 15:00:00,2025-09-27 23:00:00,3,27.4,77,23.0,32.1,,0.0,0.0,0.0,0.0,0.0,2.0,1011.1,1005.8,62.0,0.0,5.0,59.0,24140.0,0.0,0.01,0.84
single_runs_api,gfs_global,2025-09-27 12:00:00,2025-09-27 20:00:00,2025-09-27 16:00:00,2025-09-28 00:00:00,4,26.8,79,22.8,31.2,,0.0,0.0,0.0,0.0,0.0,1.0,1011.0,1005.7,24.0,0.0,5.0,14.0,24140.0,0.0,0.01,0.74
single_runs_api,gfs_global,2025-09-27 12:00:00,2025-09-27 20:00:00,2025-09-27 17:00:00,2025-09-28 01:00:00,5,26.4,81,22.8,30.7,,0.0,0.0,0.0,0.0,0.0,3.0,1010.3,1005.0,93.0,34.0,5.0,88.0,24140.0,0.0,0.01,0.65
single_runs_api,gfs_global,2025-09-27 12:00:00,2025-09-27 20:00:00,2025-09-27 18:00:00,2025-09-28 02:00:00,6,26.3,81,22.7,30.5,,0.0,0.0,0.0,0.0,0.0,3.0,1009.5,1004.2,100.0,75.0,5.0,100.0,24140.0,0.0,0.01,0.65
single_runs_api,gfs_global,2025-09-27 18:00:00,2025-09-28 02:00:00,2025-09-27 19:00:00,2025-09-28 03:00:00,1,26.0,82,22.7,30.4,,0.0,0.0,0.0,0.0,0.0,3.0,,,87.0,0.0,25.0,80.0,,0.0,0.01,0.6
single_runs_api,gfs_global,2025-09-27 18:00:00,2025-09-28 02:00:00,2025-09-27 20:00:00,2025-09-28 04:00:00,2,25.9,82,22.6,30.3,,0.0,0.0,0.0,0.0,0.0,3.0,,,100.0,10.0,25.0,100.0,,0.0,0.01,0.6
single_runs_api,gfs_global,2025-09-27 18:00:00,2025-09-28 02:00:00,2025-09-27 21:00:00,2025-09-28 05:00:00,3,25.9,81,22.4,30.2,,0.0,0.0,0.0,0.0,0.0,3.0,,,100.0,0.0,37.0,100.0,,0.0,0.01,0.63
single_runs_api,gfs_global,2025-09-27 18:00:00,2025-09-28 02:00:00,2025-09-27 22:00:00,2025-09-28 06:00:00,4,25.7,82,22.4,29.9,,0.4,0.0,0.4,0.0,0.0,51.0,,,100.0,15.0,99.0,100.0,,0.0,0.01,0.59
single_runs_api,gfs_global,2025-09-27 18:00:00,2025-09-28 02:00:00,2025-09-27 23:00:00,2025-09-28 07:00:00,5,25.2,84,22.3,29.4,,0.4,0.0,0.4,0.0,0.0,51.0,,,100.0,7.0,17.0,100.0,,0.0,0.03,0.51
single_runs_api,gfs_global,2025-09-27 18:00:00,2025-09-28 02:00:00,2025-09-28 00:00:00,2025-09-28 08:00:00,6,25.8,83,22.7,30.2,,0.4,0.0,0.4,0.0,0.0,51.0,,,100.0,21.0,35.0,100.0,,0.0,0.06,0.56
single_runs_api,gfs_global,2025-09-28 00:00:00,2025-09-28 08:00:00,2025-09-28 01:00:00,2025-09-28 09:00:00,1,27.4,76,22.8,31.3,,0.2,0.0,0.2,0.0,0.0,51.0,1011.2,1005.9,100.0,0.0,5.0,100.0,24140.0,0.0,0.19,0.87
single_runs_api,gfs_global,2025-09-28 00:00:00,2025-09-28 08:00:00,2025-09-28 02:00:00,2025-09-28 10:00:00,2,29.0,68,22.5,32.3,,0.0,0.0,0.0,0.0,0.0,3.0,1011.4,1006.2,100.0,0.0,5.0,100.0,19960.0,0.0,0.36,1.28
single_runs_api,gfs_global,2025-09-28 00:00:00,2025-09-28 08:00:00,2025-09-28 03:00:00,2025-09-28 11:00:00,3,29.9,62,21.8,33.1,,0.0,0.0,0.0,0.0,0.0,3.0,1011.5,1006.3,100.0,0.0,5.0,100.0,6080.0,0.0,0.5,1.6
single_runs_api,gfs_global,2025-09-28 00:00:00,2025-09-28 08:00:00,2025-09-28 04:00:00,2025-09-28 12:00:00,4,30.4,59,21.5,33.9,,0.0,0.0,0.0,0.0,0.0,3.0,1011.3,1006.1,100.0,0.0,5.0,100.0,14380.0,0.0,0.62,1.78
single_runs_api,gfs_global,2025-09-28 00:00:00,2025-09-28 08:00:00,2025-09-28 05:00:00,2025-09-28 13:00:00,5,30.4,60,21.7,34.1,,0.1,0.0,0.1,0.0,0.0,51.0,1010.5,1005.3,100.0,0.0,5.0,100.0,20280.0,0.0,0.67,1.73
single_runs_api,gfs_global,2025-09-28 00:00:00,2025-09-28 08:00:00,2025-09-28 06:00:00,2025-09-28 14:00:00,6,30.1,61,21.7,33.6,,0.0,0.0,0.0,0.0,0.0,3.0,1009.4,1004.2,100.0,8.0,5.0,100.0,24140.0,0.0,0.66,1.66
single_runs_api,gfs_global,2025-09-28 06:00:00,2025-09-28 14:00:00,2025-09-28 07:00:00,2025-09-28 15:00:00,1,30.4,60,21.7,34.0,,0.0,0.0,0.0,0.0,0.0,3.0,1008.2,1003.0,100.0,25.0,5.0,100.0,18440.0,0.0,0.62,1.73
single_runs_api,gfs_global,2025-09-28 06:00:00,2025-09-28 14:00:00,2025-09-28 08:00:00,2025-09-28 16:00:00,2,30.3,61,21.9,33.6,,0.0,0.0,0.0,0.0,0.0,3.0,1007.8,1002.6,91.0,27.0,5.0,86.0,22220.0,0.0,0.55,1.68
single_runs_api,gfs_global,2025-09-28 06:00:00,2025-09-28 14:00:00,2025-09-28 09:00:00,2025-09-28 17:00:00,3,30.0,61,21.6,32.5,,0.0,0.0,0.0,0.0,0.0,1.0,1007.6,1002.4,47.0,0.0,5.0,40.0,24140.0,0.0,0.42,1.65
single_runs_api,gfs_global,2025-09-28 06:00:00,2025-09-28 14:00:00,2025-09-28 10:00:00,2025-09-28 18:00:00,4,29.1,66,22.1,31.9,,0.0,0.0,0.0,0.0,0.0,3.0,1008.0,1002.8,100.0,0.0,5.0,100.0,24140.0,0.0,0.24,1.37
single_runs_api,gfs_global,2025-09-28 06:00:00,2025-09-28 14:00:00,2025-09-28 11:00:00,2025-09-28 19:00:00,5,27.8,72,22.3,30.9,,0.0,0.0,0.0,0.0,0.0,3.0,1008.7,1003.4,100.0,0.0,5.0,100.0,24140.0,0.0,0.09,1.04
single_runs_api,gfs_global,2025-09-28 06:00:00,2025-09-28 14:00:00,2025-09-28 12:00:00,2025-09-28 20:00:00,6,27.4,74,22.3,30.3,,0.1,0.0,0.1,0.0,0.0,51.0,1009.6,1004.3,100.0,32.0,38.0,100.0,24140.0,0.0,0.06,0.95
single_runs_api,gfs_global,2025-09-28 12:00:00,2025-09-28 20:00:00,2025-09-28 13:00:00,2025-09-28 21:00:00,1,27.3,76,22.7,30.7,,0.2,0.0,0.2,0.0,0.0,51.0,1010.6,1005.3,100.0,30.0,51.0,100.0,19200.0,0.0,0.04,0.87
single_runs_api,gfs_global,2025-09-28 12:00:00,2025-09-28 20:00:00,2025-09-28 14:00:00,2025-09-28 22:00:00,2,27.5,75,22.6,31.0,,0.2,0.0,0.2,0.0,0.0,51.0,1011.1,1005.8,100.0,0.0,65.0,100.0,24140.0,0.0,0.04,0.92
single_runs_api,gfs_global,2025-09-28 12:00:00,2025-09-28 20:00:00,2025-09-28 15:00:00,2025-09-28 23:00:00,3,27.9,73,22.6,31.2,,0.0,0.0,0.0,0.0,0.0,3.0,1011.1,1005.8,100.0,18.0,82.0,100.0,24140.0,0.0,0.05,1.01
single_runs_api,gfs_global,2025-09-28 12:00:00,2025-09-28 20:00:00,2025-09-28 16:00:00,2025-09-29 00:00:00,4,27.6,77,23.2,30.4,,0.0,0.0,0.0,0.0,0.0,3.0,1011.0,1005.7,100.0,0.0,100.0,100.0,24140.0,0.0,0.06,0.85
single_runs_api,gfs_global,2025-09-28 12:00:00,2025-09-28 20:00:00,2025-09-28 17:00:00,2025-09-29 01:00:00,5,27.1,79,23.1,29.9,,0.0,0.0,0.0,0.0,0.0,3.0,1010.4,1005.1,100.0,54.0,100.0,100.0,24140.0,0.0,0.05,0.75
single_runs_api,gfs_global,2025-09-28 12:00:00,2025-09-28 20:00:00,2025-09-28 18:00:00,2025-09-29 02:00:00,6,26.9,79,22.9,29.6,,0.0,0.0,0.0,0.0,0.0,3.0,1009.7,1004.4,100.0,28.0,41.0,100.0,24140.0,0.0,0.05,0.74
single_runs_api,gfs_global,2025-09-28 18:00:00,2025-09-29 02:00:00,2025-09-28 19:00:00,2025-09-29 03:00:00,1,26.9,79,22.9,30.1,,0.0,0.0,0.0,0.0,0.0,3.0,1009.1,1003.8,100.0,5.0,92.0,100.0,24140.0,0.0,0.04,0.74
single_runs_api,gfs_global,2025-09-28 18:00:00,2025-09-29 02:00:00,2025-09-28 20:00:00,2025-09-29 04:00:00,2,27.0,78,22.8,30.0,,0.0,0.0,0.0,0.0,0.0,3.0,1008.8,1003.5,100.0,5.0,100.0,100.0,24140.0,0.0,0.05,0.78
single_runs_api,gfs_global,2025-09-28 18:00:00,2025-09-29 02:00:00,2025-09-28 21:00:00,2025-09-29 05:00:00,3,26.9,78,22.7,29.4,,0.0,0.0,0.0,0.0,0.0,3.0,1008.8,1003.5,100.0,0.0,70.0,100.0,24140.0,0.0,0.06,0.78
single_runs_api,gfs_global,2025-09-28 18:00:00,2025-09-29 02:00:00,2025-09-28 22:00:00,2025-09-29 06:00:00,4,26.6,79,22.6,29.2,,0.0,0.0,0.0,0.0,0.0,3.0,1009.0,1003.7,100.0,14.0,57.0,100.0,24140.0,0.0,0.05,0.73
single_runs_api,gfs_global,2025-09-28 18:00:00,2025-09-29 02:00:00,2025-09-28 23:00:00,2025-09-29 07:00:00,5,26.5,79,22.5,29.0,,0.0,0.0,0.0,0.0,0.0,3.0,1009.5,1004.2,100.0,0.0,33.0,100.0,24140.0,0.0,0.07,0.73
single_runs_api,gfs_global,2025-09-28 18:00:00,2025-09-29 02:00:00,2025-09-29 00:00:00,2025-09-29 08:00:00,6,27.0,79,23.0,29.6,,0.0,0.0,0.0,0.0,0.0,3.0,1010.4,1005.1,100.0,4.0,33.0,100.0,24140.0,0.0,0.1,0.75
single_runs_api,gfs_global,2025-09-29 00:00:00,2025-09-29 08:00:00,2025-09-29 01:00:00,2025-09-29 09:00:00,1,27.9,75,23.0,30.3,,0.0,0.0,0.0,0.0,0.0,3.0,1010.7,1005.4,100.0,0.0,81.0,99.0,24140.0,0.0,0.21,0.94
single_runs_api,gfs_global,2025-09-29 00:00:00,2025-09-29 08:00:00,2025-09-29 02:00:00,2025-09-29 10:00:00,2,27.5,77,23.1,30.0,,0.0,0.0,0.0,0.0,0.0,3.0,1011.2,1005.9,100.0,13.0,100.0,100.0,24140.0,0.0,0.17,0.84
single_runs_api,gfs_global,2025-09-29 00:00:00,2025-09-29 08:00:00,2025-09-29 03:00:00,2025-09-29 11:00:00,3,27.3,76,22.7,29.6,,0.0,0.0,0.0,0.0,0.0,3.0,1011.2,1005.9,100.0,11.0,100.0,17.0,24140.0,0.0,0.14,0.87
single_runs_api,gfs_global,2025-09-29 00:00:00,2025-09-29 08:00:00,2025-09-29 04:00:00,2025-09-29 12:00:00,4,27.5,74,22.4,29.7,,0.0,0.0,0.0,0.0,0.0,3.0,1011.1,1005.8,100.0,47.0,100.0,38.0,24140.0,0.0,0.18,0.95
single_runs_api,gfs_global,2025-09-29 00:00:00,2025-09-29 08:00:00,2025-09-29 05:00:00,2025-09-29 13:00:00,5,27.7,73,22.4,29.8,,0.0,0.0,0.0,0.0,0.0,3.0,1010.1,1004.8,100.0,59.0,100.0,26.0,24140.0,0.0,0.22,1.0
single_runs_api,gfs_global,2025-09-29 00:00:00,2025-09-29 08:00:00,2025-09-29 06:00:00,2025-09-29 14:00:00,6,28.1,72,22.5,30.6,,0.0,0.0,0.0,0.0,0.0,3.0,1009.3,1004.1,100.0,49.0,100.0,100.0,24140.0,0.0,0.23,1.06
single_runs_api,gfs_global,2025-09-29 06:00:00,2025-09-29 14:00:00,2025-09-29 07:00:00,2025-09-29 15:00:00,1,28.2,73,22.9,31.3,,0.2,0.0,0.2,0.0,0.0,51.0,1008.5,1003.3,100.0,18.0,100.0,100.0,24140.0,0.0,0.2,1.03
single_runs_api,gfs_global,2025-09-29 06:00:00,2025-09-29 14:00:00,2025-09-29 08:00:00,2025-09-29 16:00:00,2,28.3,72,22.7,31.3,,0.3,0.0,0.3,0.0,0.0,51.0,1008.2,1003.0,100.0,5.0,100.0,100.0,24140.0,0.0,0.23,1.07
single_runs_api,gfs_global,2025-09-29 06:00:00,2025-09-29 14:00:00,2025-09-29 09:00:00,2025-09-29 17:00:00,3,28.5,72,22.9,31.4,,0.0,0.0,0.0,0.0,0.0,3.0,1008.2,1003.0,100.0,0.0,100.0,52.0,24140.0,0.0,0.21,1.09
single_runs_api,gfs_global,2025-09-29 06:00:00,2025-09-29 14:00:00,2025-09-29 10:00:00,2025-09-29 18:00:00,4,28.2,74,23.1,31.4,,0.0,0.0,0.0,0.0,0.0,3.0,1008.7,1003.5,100.0,12.0,100.0,100.0,24140.0,0.0,0.14,0.99
single_runs_api,gfs_global,2025-09-29 06:00:00,2025-09-29 14:00:00,2025-09-29 11:00:00,2025-09-29 19:00:00,5,27.9,74,22.8,31.1,,0.0,0.0,0.0,0.0,0.0,3.0,1009.5,1004.2,100.0,14.0,100.0,100.0,24140.0,0.0,0.09,0.97
single_runs_api,gfs_global,2025-09-29 06:00:00,2025-09-29 14:00:00,2025-09-29 12:00:00,2025-09-29 20:00:00,6,27.8,75,22.9,31.0,,0.0,0.0,0.0,0.0,0.0,3.0,1010.2,1004.9,100.0,24.0,100.0,100.0,24140.0,0.0,0.05,0.93
single_runs_api,gfs_global,2025-09-29 12:00:00,2025-09-29 20:00:00,2025-09-29 13:00:00,2025-09-29 21:00:00,1,26.8,81,23.2,29.9,,3.1,0.0,3.1,0.0,0.0,81.0,1010.7,1005.4,100.0,37.0,100.0,100.0,4680.0,0.0,0.04,0.67
single_runs_api,gfs_global,2025-09-29 12:00:00,2025-09-29 20:00:00,2025-09-29 14:00:00,2025-09-29 22:00:00,2,27.3,78,23.1,29.8,,1.5,0.0,1.5,0.0,0.0,80.0,1011.6,1006.3,100.0,95.0,100.0,100.0,20280.0,0.0,0.06,0.8
single_runs_api,gfs_global,2025-09-29 12:00:00,2025-09-29 20:00:00,2025-09-29 15:00:00,2025-09-29 23:00:00,3,27.3,77,22.9,30.0,,0.0,0.0,0.0,0.0,0.0,3.0,1011.8,1006.5,100.0,100.0,100.0,100.0,19420.0,0.0,0.06,0.83
single_runs_api,gfs_global,2025-09-29 12:00:00,2025-09-29 20:00:00,2025-09-29 16:00:00,2025-09-30 00:00:00,4,26.5,82,23.1,29.5,,1.4,0.1,1.3,0.0,0.0,80.0,1011.9,1006.6,100.0,100.0,100.0,100.0,5760.0,0.0,0.04,0.62
single_runs_api,gfs_global,2025-09-29 12:00:00,2025-09-29 20:00:00,2025-09-29 17:00:00,2025-09-30 01:00:00,5,26.1,82,22.8,29.5,,1.3,0.1,1.2,0.0,0.0,80.0,1011.6,1006.3,100.0,33.0,100.0,100.0,15860.0,0.0,0.03,0.61
single_runs_api,gfs_global,2025-09-29 12:00:00,2025-09-29 20:00:00,2025-09-29 18:00:00,2025-09-30 02:00:00,6,26.0,80,22.3,29.4,,0.8,0.0,0.8,0.0,0.0,53.0,1010.9,1005.6,100.0,5.0,100.0,100.0,24140.0,0.0,0.03,0.67
single_runs_api,gfs_global,2025-09-29 18:00:00,2025-09-30 02:00:00,2025-09-29 19:00:00,2025-09-30 03:00:00,1,26.6,76,22.0,30.3,,0.0,0.0,0.0,0.0,0.0,3.0,1009.8,1004.5,100.0,5.0,100.0,100.0,24140.0,0.0,0.02,0.83
single_runs_api,gfs_global,2025-09-29 18:00:00,2025-09-30 02:00:00,2025-09-29 20:00:00,2025-09-30 04:00:00,2,26.7,76,22.1,31.0,,0.0,0.0,0.0,0.0,0.0,3.0,1009.3,1004.0,100.0,13.0,100.0,100.0,24140.0,0.0,0.0,0.84
single_runs_api,gfs_global,2025-09-29 18:00:00,2025-09-30 02:00:00,2025-09-29 21:00:00,2025-09-30 05:00:00,3,26.6,77,22.2,31.4,,0.0,0.0,0.0,0.0,0.0,3.0,1009.4,1004.1,100.0,86.0,100.0,100.0,24140.0,0.0,0.0,0.8
single_runs_api,gfs_global,2025-09-29 18:00:00,2025-09-30 02:00:00,2025-09-29 22:00:00,2025-09-30 06:00:00,4,25.8,82,22.5,29.7,,0.0,0.0,0.0,0.0,0.0,3.0,1009.6,1004.3,100.0,70.0,100.0,100.0,24140.0,0.0,0.01,0.6
single_runs_api,gfs_global,2025-09-29 18:00:00,2025-09-30 02:00:00,2025-09-29 23:00:00,2025-09-30 07:00:00,5,25.4,85,22.7,29.2,,0.0,0.0,0.0,0.0,0.0,3.0,1010.2,1004.9,100.0,88.0,100.0,100.0,24140.0,0.0,0.03,0.49
single_runs_api,gfs_global,2025-09-29 18:00:00,2025-09-30 02:00:00,2025-09-30 00:00:00,2025-09-30 08:00:00,6,25.4,85,22.7,29.7,,0.0,0.0,0.0,0.0,0.0,3.0,1010.5,1005.2,100.0,100.0,100.0,100.0,24140.0,0.0,0.04,0.49
single_runs_api,gfs_global,2025-09-30 00:00:00,2025-09-30 08:00:00,2025-09-30 01:00:00,2025-09-30 09:00:00,1,26.3,84,23.3,31.5,,0.0,0.0,0.0,0.0,0.0,3.0,1010.9,1005.6,100.0,87.0,100.0,100.0,24140.0,0.0,0.04,0.55
single_runs_api,gfs_global,2025-09-30 00:00:00,2025-09-30 08:00:00,2025-09-30 02:00:00,2025-09-30 10:00:00,2,27.1,81,23.5,32.7,,0.0,0.0,0.0,0.0,0.0,3.0,1011.0,1005.7,100.0,33.0,100.0,100.0,24140.0,0.0,0.07,0.68
single_runs_api,gfs_global,2025-09-30 00:00:00,2025-09-30 08:00:00,2025-09-30 03:00:00,2025-09-30 11:00:00,3,28.0,77,23.6,33.5,,0.0,0.0,0.0,0.0,0.0,3.0,1010.7,1005.4,100.0,69.0,100.0,10.0,24140.0,0.0,0.11,0.87
single_runs_api,gfs_global,2025-09-30 00:00:00,2025-09-30 08:00:00,2025-09-30 04:00:00,2025-09-30 12:00:00,4,28.2,77,23.8,33.3,,0.0,0.0,0.0,0.0,0.0,3.0,1010.0,1004.7,100.0,67.0,100.0,10.0,24140.0,0.0,0.12,0.88
single_runs_api,gfs_global,2025-09-30 00:00:00,2025-09-30 08:00:00,2025-09-30 05:00:00,2025-09-30 13:00:00,5,28.3,77,23.9,33.3,,0.0,0.0,0.0,0.0,0.0,3.0,1008.9,1003.7,100.0,5.0,100.0,100.0,24140.0,0.0,0.16,0.88
single_runs_api,gfs_global,2025-09-30 00:00:00,2025-09-30 08:00:00,2025-09-30 06:00:00,2025-09-30 14:00:00,6,28.4,77,24.0,33.3,,0.0,0.0,0.0,0.0,0.0,3.0,1008.2,1003.0,100.0,5.0,100.0,18.0,24140.0,0.0,0.16,0.89
single_runs_api,gfs_global,2025-09-30 06:00:00,2025-09-30 14:00:00,2025-09-30 07:00:00,2025-09-30 15:00:00,1,28.9,74,23.8,33.7,,0.0,0.0,0.0,0.0,0.0,3.0,1007.7,1002.5,100.0,17.0,100.0,10.0,24140.0,0.0,0.17,1.03
single_runs_api,gfs_global,2025-09-30 06:00:00,2025-09-30 14:00:00,2025-09-30 08:00:00,2025-09-30 16:00:00,2,29.1,72,23.5,33.9,,0.1,0.0,0.1,0.0,0.0,51.0,1007.4,1002.2,100.0,10.0,100.0,51.0,24140.0,0.0,0.22,1.12
single_runs_api,gfs_global,2025-09-30 06:00:00,2025-09-30 14:00:00,2025-09-30 09:00:00,2025-09-30 17:00:00,3,29.4,69,23.1,34.2,,0.0,0.0,0.0,0.0,0.0,3.0,1007.2,1002.0,100.0,43.0,68.0,100.0,24140.0,0.0,0.25,1.27
single_runs_api,gfs_global,2025-09-30 06:00:00,2025-09-30 14:00:00,2025-09-30 10:00:00,2025-09-30 18:00:00,4,29.0,71,23.2,33.7,,0.3,0.0,0.3,0.0,0.0,51.0,1007.7,1002.5,100.0,28.0,72.0,100.0,19280.0,0.0,0.14,1.16
single_runs_api,gfs_global,2025-09-30 06:00:00,2025-09-30 14:00:00,2025-09-30 11:00:00,2025-09-30 19:00:00,5,28.3,71,22.5,32.2,,0.0,0.0,0.0,0.0,0.0,3.0,1008.4,1003.2,100.0,0.0,100.0,100.0,24140.0,0.0,0.07,1.11
single_runs_api,gfs_global,2025-09-30 06:00:00,2025-09-30 14:00:00,2025-09-30 12:00:00,2025-09-30 20:00:00,6,27.8,72,22.3,31.0,,0.0,0.0,0.0,0.0,0.0,3.0,1009.2,1003.9,100.0,33.0,98.0,100.0,24140.0,0.0,0.05,1.04
single_runs_api,gfs_global,2025-09-30 12:00:00,2025-09-30 20:00:00,2025-09-30 13:00:00,2025-09-30 21:00:00,1,27.4,75,22.5,31.2,,0.0,0.0,0.0,0.0,0.0,3.0,1010.1,1004.8,100.0,11.0,78.0,100.0,24140.0,0.0,0.03,0.91
single_runs_api,gfs_global,2025-09-30 12:00:00,2025-09-30 20:00:00,2025-09-30 14:00:00,2025-09-30 22:00:00,2,27.4,74,22.3,31.0,,0.0,0.0,0.0,0.0,0.0,3.0,1010.4,1005.1,99.0,0.0,92.0,91.0,24140.0,0.0,0.04,0.95
single_runs_api,gfs_global,2025-09-30 12:00:00,2025-09-30 20:00:00,2025-09-30 15:00:00,2025-09-30 23:00:00,3,27.5,74,22.4,31.1,,0.0,0.0,0.0,0.0,0.0,3.0,1010.9,1005.6,100.0,0.0,98.0,100.0,24140.0,0.0,0.04,0.95
